<?xml version='1.0' encoding='utf-8'?>
<osm version="0.6" generator="OSMnx 1.8.0"><node id="1444390171" timestamp="2026-03-30T17:36:18Z" uid="1" user="OSMnx" version="1" changeset="1" lat="40.806668" lon="111.689787" /><node id="1444390197" timestamp="2026-03-30T17:36:18Z" uid="1" user="OSMnx" version="1" changeset="1" lat="40.809505" lon="111.688306" /><node id="1444390198" timestamp="2026-03-30T17:36:18Z" uid="1" user="OSMnx" version="1" changeset="1" lat="40.809561" lon="111.688493" /><node id="1480090781" timestamp="2026-03-30T17:36:18Z" uid="1" user="OSMnx" version="1" changeset="1" lat="40.809919" lon="111.688326" /><node id="1480090859" timestamp="2026-03-30T17:36:18Z" uid="1" user="OSMnx" version="1" changeset="1" lat="40.80988" lon="111.68814" /><node id="1494141951" timestamp="2026-03-30T17:36:18Z" uid="1" user="OSMnx" version="1" changeset="1" lat="40.8145" lon="111.691271" /><node id="1494141972" timestamp="2026-03-30T17:36:18Z" uid="1" user="OSMnx" version="1" changeset="1" lat="40.812163" lon="111.68705" /><node id="1494142057" timestamp="2026-03-30T17:36:18Z" uid="1" user="OSMnx" version="1" changeset="1" lat="40.813428" lon="111.686475" /><node id="1494142064" timestamp="2026-03-30T17:36:18Z" uid="1" user="OSMnx" version="1" changeset="1" lat="40.81222" lon="111.687281" /><node id="1494142092" timestamp="2026-03-30T17:36:18Z" uid="1" user="OSMnx" version="1" changeset="1" lat="40.813495" lon="111.686731" /><node id="1494142175" timestamp="2026-03-30T17:36:18Z" uid="1" user="OSMnx" version="1" changeset="1" lat="40.813572" lon="111.687074" /><node id="1494144687" timestamp="2026-03-30T17:36:18Z" uid="1" user="OSMnx" version="1" changeset="1" lat="40.811974" lon="111.694758" /><node id="1494144689" timestamp="2026-03-30T17:36:18Z" uid="1" user="OSMnx" version="1" changeset="1" lat="40.806719" lon="111.696979" /><node id="1494144691" timestamp="2026-03-30T17:36:18Z" uid="1" user="OSMnx" version="1" changeset="1" lat="40.81158" lon="111.694808" /><node id="1497287865" timestamp="2026-03-30T17:36:18Z" uid="1" user="OSMnx" version="1" changeset="1" lat="40.806883" lon="111.687108" /><node id="1497287925" timestamp="2026-03-30T17:36:18Z" uid="1" user="OSMnx" version="1" changeset="1" lat="40.809348" lon="111.686164" /><node id="3706176473" timestamp="2026-03-30T17:36:18Z" uid="1" user="OSMnx" version="1" changeset="1" lat="40.810692" lon="111.691375" /><node id="3706176503" timestamp="2026-03-30T17:36:18Z" uid="1" user="OSMnx" version="1" changeset="1" lat="40.810904" lon="111.685967" /><node id="3706176506" timestamp="2026-03-30T17:36:18Z" uid="1" user="OSMnx" version="1" changeset="1" lat="40.812634" lon="111.685683" /><node id="3706176517" timestamp="2026-03-30T17:36:18Z" uid="1" user="OSMnx" version="1" changeset="1" lat="40.809645" lon="111.685665" /><node id="3706177425" timestamp="2026-03-30T17:36:18Z" uid="1" user="OSMnx" version="1" changeset="1" lat="40.811778" lon="111.685576" /><node id="3706177428" timestamp="2026-03-30T17:36:18Z" uid="1" user="OSMnx" version="1" changeset="1" lat="40.811891" lon="111.686004" /><node id="3706177437" timestamp="2026-03-30T17:36:18Z" uid="1" user="OSMnx" version="1" changeset="1" lat="40.80985" lon="111.686431" /><node id="3706177440" timestamp="2026-03-30T17:36:18Z" uid="1" user="OSMnx" version="1" changeset="1" lat="40.814206" lon="111.689942" /><node id="3706177446" timestamp="2026-03-30T17:36:18Z" uid="1" user="OSMnx" version="1" changeset="1" lat="40.809726" lon="111.685949" /><node id="3706191788" timestamp="2026-03-30T17:36:18Z" uid="1" user="OSMnx" version="1" changeset="1" lat="40.812271" lon="111.688964" /><node id="3706191789" timestamp="2026-03-30T17:36:18Z" uid="1" user="OSMnx" version="1" changeset="1" lat="40.812746" lon="111.690536" /><node id="3706191791" timestamp="2026-03-30T17:36:18Z" uid="1" user="OSMnx" version="1" changeset="1" lat="40.811998" lon="111.687527" /><node id="3706191792" timestamp="2026-03-30T17:36:18Z" uid="1" user="OSMnx" version="1" changeset="1" lat="40.811895" lon="111.687132" /><node id="3909145210" timestamp="2026-03-30T17:36:18Z" uid="1" user="OSMnx" version="1" changeset="1" lat="40.810018" lon="111.688289" /><node id="3909145248" timestamp="2026-03-30T17:36:18Z" uid="1" user="OSMnx" version="1" changeset="1" lat="40.811681" lon="111.694763" /><node id="3909145250" timestamp="2026-03-30T17:36:18Z" uid="1" user="OSMnx" version="1" changeset="1" lat="40.810794" lon="111.691333" /><node id="3909145476" timestamp="2026-03-30T17:36:18Z" uid="1" user="OSMnx" version="1" changeset="1" lat="40.809953" lon="111.688099" /><node id="3909145479" timestamp="2026-03-30T17:36:18Z" uid="1" user="OSMnx" version="1" changeset="1" lat="40.80945" lon="111.68612" /><node id="4452630275" timestamp="2026-03-30T17:36:18Z" uid="1" user="OSMnx" version="1" changeset="1" lat="40.811783" lon="111.687466"><tag k="highway" v="bus_stop" /></node><node id="4452630277" timestamp="2026-03-30T17:36:18Z" uid="1" user="OSMnx" version="1" changeset="1" lat="40.811708" lon="111.687254"><tag k="highway" v="bus_stop" /></node><node id="8490580408" timestamp="2026-03-30T17:36:18Z" uid="1" user="OSMnx" version="1" changeset="1" lat="40.811546" lon="111.68568" /><node id="8490642990" timestamp="2026-03-30T17:36:18Z" uid="1" user="OSMnx" version="1" changeset="1" lat="40.81044" lon="111.686172" /><node id="9958203575" timestamp="2026-03-30T17:36:18Z" uid="1" user="OSMnx" version="1" changeset="1" lat="40.812189" lon="111.686926" /><node id="9958203576" timestamp="2026-03-30T17:36:18Z" uid="1" user="OSMnx" version="1" changeset="1" lat="40.81209" lon="111.686966" /><node id="9958203577" timestamp="2026-03-30T17:36:18Z" uid="1" user="OSMnx" version="1" changeset="1" lat="40.812136" lon="111.686948"><tag k="highway" v="crossing" /></node><node id="9958203578" timestamp="2026-03-30T17:36:18Z" uid="1" user="OSMnx" version="1" changeset="1" lat="40.811877" lon="111.687065" /><node id="11515665742" timestamp="2026-03-30T17:36:18Z" uid="1" user="OSMnx" version="1" changeset="1" lat="40.809904" lon="111.687912" /><node id="11515665743" timestamp="2026-03-30T17:36:18Z" uid="1" user="OSMnx" version="1" changeset="1" lat="40.810045" lon="111.688394" /><node id="11515665744" timestamp="2026-03-30T17:36:18Z" uid="1" user="OSMnx" version="1" changeset="1" lat="40.810081" lon="111.688534" /><node id="11515665748" timestamp="2026-03-30T17:36:18Z" uid="1" user="OSMnx" version="1" changeset="1" lat="40.814503" lon="111.685968" /><node id="11515665749" timestamp="2026-03-30T17:36:18Z" uid="1" user="OSMnx" version="1" changeset="1" lat="40.806927" lon="111.689448" /><way id="0" timestamp="2026-03-30T17:36:18Z" uid="1" user="OSMnx" version="1" changeset="1"><nd ref="1444390171" /><nd ref="1444390198" /><tag k="highway" v="primary" /><tag k="name" v="昭乌达路" /><tag k="oneway" v="yes" /></way><way id="1" timestamp="2026-03-30T17:36:18Z" uid="1" user="OSMnx" version="1" changeset="1"><nd ref="1444390197" /><nd ref="11515665749" /><tag k="highway" v="primary" /><tag k="name" v="昭乌达路" /><tag k="oneway" v="yes" /></way><way id="2" timestamp="2026-03-30T17:36:18Z" uid="1" user="OSMnx" version="1" changeset="1"><nd ref="1444390198" /><nd ref="1480090781" /><tag k="highway" v="primary" /><tag k="name" v="昭乌达路" /><tag k="oneway" v="yes" /></way><way id="3" timestamp="2026-03-30T17:36:18Z" uid="1" user="OSMnx" version="1" changeset="1"><nd ref="1480090781" /><nd ref="3909145210" /><tag k="highway" v="primary" /><tag k="name" v="昭乌达路" /><tag k="oneway" v="yes" /></way><way id="4" timestamp="2026-03-30T17:36:18Z" uid="1" user="OSMnx" version="1" changeset="1"><nd ref="1480090781" /><nd ref="3706176473" /><tag k="highway" v="secondary" /><tag k="lanes" v="2" /><tag k="name" v="大学东街" /><tag k="oneway" v="yes" /></way><way id="5" timestamp="2026-03-30T17:36:18Z" uid="1" user="OSMnx" version="1" changeset="1"><nd ref="1480090859" /><nd ref="1444390197" /><tag k="highway" v="primary" /><tag k="name" v="昭乌达路" /><tag k="oneway" v="yes" /></way><way id="6" timestamp="2026-03-30T17:36:18Z" uid="1" user="OSMnx" version="1" changeset="1"><nd ref="1480090859" /><nd ref="1480090781" /><tag k="highway" v="secondary" /><tag k="lanes" v="2" /><tag k="name" v="大学西街" /><tag k="oneway" v="yes" /></way><way id="7" timestamp="2026-03-30T17:36:18Z" uid="1" user="OSMnx" version="1" changeset="1"><nd ref="1494141951" /><nd ref="3706177440" /><tag k="highway" v="tertiary" /><tag k="oneway" v="no" /></way><way id="8" timestamp="2026-03-30T17:36:18Z" uid="1" user="OSMnx" version="1" changeset="1"><nd ref="1494141972" /><nd ref="4452630277" /><tag k="highway" v="primary" /><tag k="name" v="昭乌达路" /><tag k="oneway" v="yes" /></way><way id="9" timestamp="2026-03-30T17:36:18Z" uid="1" user="OSMnx" version="1" changeset="1"><nd ref="1494141972" /><nd ref="1494142064" /><tag k="highway" v="service" /><tag k="oneway" v="no" /></way><way id="10" timestamp="2026-03-30T17:36:18Z" uid="1" user="OSMnx" version="1" changeset="1"><nd ref="1494141972" /><nd ref="9958203577" /><tag k="highway" v="service" /><tag k="oneway" v="no" /></way><way id="11" timestamp="2026-03-30T17:36:18Z" uid="1" user="OSMnx" version="1" changeset="1"><nd ref="1494142057" /><nd ref="1494141972" /><tag k="highway" v="primary" /><tag k="name" v="昭乌达路" /><tag k="oneway" v="yes" /></way><way id="12" timestamp="2026-03-30T17:36:18Z" uid="1" user="OSMnx" version="1" changeset="1"><nd ref="1494142057" /><nd ref="1494142092" /><tag k="highway" v="tertiary" /><tag k="oneway" v="no" /></way><way id="13" timestamp="2026-03-30T17:36:18Z" uid="1" user="OSMnx" version="1" changeset="1"><nd ref="1494142064" /><nd ref="1494142092" /><tag k="highway" v="primary" /><tag k="name" v="昭乌达路" /><tag k="oneway" v="yes" /></way><way id="14" timestamp="2026-03-30T17:36:18Z" uid="1" user="OSMnx" version="1" changeset="1"><nd ref="1494142064" /><nd ref="1494141972" /><tag k="highway" v="service" /><tag k="oneway" v="no" /></way><way id="15" timestamp="2026-03-30T17:36:18Z" uid="1" user="OSMnx" version="1" changeset="1"><nd ref="1494142092" /><nd ref="1494142175" /><tag k="highway" v="tertiary" /><tag k="oneway" v="no" /></way><way id="16" timestamp="2026-03-30T17:36:18Z" uid="1" user="OSMnx" version="1" changeset="1"><nd ref="1494142092" /><nd ref="1494142057" /><tag k="highway" v="tertiary" /><tag k="oneway" v="no" /></way><way id="17" timestamp="2026-03-30T17:36:18Z" uid="1" user="OSMnx" version="1" changeset="1"><nd ref="1494142175" /><nd ref="3706177440" /><tag k="highway" v="tertiary" /><tag k="oneway" v="no" /></way><way id="18" timestamp="2026-03-30T17:36:18Z" uid="1" user="OSMnx" version="1" changeset="1"><nd ref="1494142175" /><nd ref="1494142092" /><tag k="highway" v="tertiary" /><tag k="oneway" v="no" /></way><way id="19" timestamp="2026-03-30T17:36:18Z" uid="1" user="OSMnx" version="1" changeset="1"><nd ref="1494144687" /><nd ref="3909145248" /><tag k="highway" v="residential" /><tag k="name" v="制片厂巷" /><tag k="oneway" v="no" /></way><way id="20" timestamp="2026-03-30T17:36:18Z" uid="1" user="OSMnx" version="1" changeset="1"><nd ref="1494144689" /><nd ref="1494144691" /><tag k="highway" v="residential" /><tag k="name" v="制片厂巷" /><tag k="oneway" v="no" /></way><way id="21" timestamp="2026-03-30T17:36:18Z" uid="1" user="OSMnx" version="1" changeset="1"><nd ref="1494144691" /><nd ref="3909145248" /><tag k="highway" v="residential" /><tag k="name" v="制片厂巷" /><tag k="oneway" v="no" /></way><way id="22" timestamp="2026-03-30T17:36:18Z" uid="1" user="OSMnx" version="1" changeset="1"><nd ref="1494144691" /><nd ref="1494144689" /><tag k="highway" v="residential" /><tag k="name" v="制片厂巷" /><tag k="oneway" v="no" /></way><way id="23" timestamp="2026-03-30T17:36:18Z" uid="1" user="OSMnx" version="1" changeset="1"><nd ref="1497287865" /><nd ref="1497287925" /><tag k="highway" v="unclassified" /><tag k="oneway" v="no" /></way><way id="24" timestamp="2026-03-30T17:36:18Z" uid="1" user="OSMnx" version="1" changeset="1"><nd ref="1497287925" /><nd ref="1480090859" /><tag k="highway" v="secondary" /><tag k="lanes" v="2" /><tag k="name" v="大学西街" /><tag k="oneway" v="yes" /></way><way id="25" timestamp="2026-03-30T17:36:18Z" uid="1" user="OSMnx" version="1" changeset="1"><nd ref="1497287925" /><nd ref="1497287865" /><tag k="highway" v="unclassified" /><tag k="oneway" v="no" /></way><way id="26" timestamp="2026-03-30T17:36:18Z" uid="1" user="OSMnx" version="1" changeset="1"><nd ref="3706176473" /><nd ref="3909145250" /><tag k="highway" v="unclassified" /><tag k="oneway" v="no" /></way><way id="27" timestamp="2026-03-30T17:36:18Z" uid="1" user="OSMnx" version="1" changeset="1"><nd ref="3706176473" /><nd ref="1494144691" /><tag k="highway" v="secondary" /><tag k="lanes" v="2" /><tag k="name" v="大学东街" /><tag k="oneway" v="yes" /></way><way id="28" timestamp="2026-03-30T17:36:18Z" uid="1" user="OSMnx" version="1" changeset="1"><nd ref="3706176503" /><nd ref="8490580408" /><tag k="highway" v="service" /><tag k="oneway" v="no" /></way><way id="29" timestamp="2026-03-30T17:36:18Z" uid="1" user="OSMnx" version="1" changeset="1"><nd ref="3706176503" /><nd ref="8490642990" /><tag k="highway" v="service" /><tag k="oneway" v="no" /></way><way id="30" timestamp="2026-03-30T17:36:18Z" uid="1" user="OSMnx" version="1" changeset="1"><nd ref="3706176506" /><nd ref="3706177428" /><tag k="highway" v="service" /><tag k="oneway" v="no" /></way><way id="31" timestamp="2026-03-30T17:36:18Z" uid="1" user="OSMnx" version="1" changeset="1"><nd ref="3706176517" /><nd ref="3706177446" /><tag k="highway" v="service" /><tag k="oneway" v="no" /></way><way id="32" timestamp="2026-03-30T17:36:18Z" uid="1" user="OSMnx" version="1" changeset="1"><nd ref="3706177425" /><nd ref="3706177428" /><tag k="highway" v="service" /><tag k="oneway" v="no" /></way><way id="33" timestamp="2026-03-30T17:36:18Z" uid="1" user="OSMnx" version="1" changeset="1"><nd ref="3706177425" /><nd ref="8490580408" /><tag k="highway" v="service" /><tag k="oneway" v="no" /></way><way id="34" timestamp="2026-03-30T17:36:18Z" uid="1" user="OSMnx" version="1" changeset="1"><nd ref="3706177428" /><nd ref="9958203577" /><tag k="highway" v="service" /><tag k="oneway" v="no" /></way><way id="35" timestamp="2026-03-30T17:36:18Z" uid="1" user="OSMnx" version="1" changeset="1"><nd ref="3706177428" /><nd ref="3706177425" /><tag k="highway" v="service" /><tag k="oneway" v="no" /></way><way id="36" timestamp="2026-03-30T17:36:18Z" uid="1" user="OSMnx" version="1" changeset="1"><nd ref="3706177428" /><nd ref="3706176506" /><tag k="highway" v="service" /><tag k="oneway" v="no" /></way><way id="37" timestamp="2026-03-30T17:36:18Z" uid="1" user="OSMnx" version="1" changeset="1"><nd ref="3706177437" /><nd ref="8490642990" /><tag k="highway" v="service" /><tag k="oneway" v="no" /></way><way id="38" timestamp="2026-03-30T17:36:18Z" uid="1" user="OSMnx" version="1" changeset="1"><nd ref="3706177437" /><nd ref="3706177446" /><tag k="highway" v="service" /><tag k="oneway" v="no" /></way><way id="39" timestamp="2026-03-30T17:36:18Z" uid="1" user="OSMnx" version="1" changeset="1"><nd ref="3706177440" /><nd ref="1494141951" /><tag k="highway" v="tertiary" /><tag k="oneway" v="no" /></way><way id="40" timestamp="2026-03-30T17:36:18Z" uid="1" user="OSMnx" version="1" changeset="1"><nd ref="3706177440" /><nd ref="1494142175" /><tag k="highway" v="tertiary" /><tag k="oneway" v="no" /></way><way id="41" timestamp="2026-03-30T17:36:18Z" uid="1" user="OSMnx" version="1" changeset="1"><nd ref="3706177440" /><nd ref="3706191789" /><tag k="highway" v="unclassified" /><tag k="oneway" v="no" /></way><way id="42" timestamp="2026-03-30T17:36:18Z" uid="1" user="OSMnx" version="1" changeset="1"><nd ref="3706177446" /><nd ref="3706177437" /><tag k="highway" v="service" /><tag k="oneway" v="no" /></way><way id="43" timestamp="2026-03-30T17:36:18Z" uid="1" user="OSMnx" version="1" changeset="1"><nd ref="3706177446" /><nd ref="3706176517" /><tag k="highway" v="service" /><tag k="oneway" v="no" /></way><way id="44" timestamp="2026-03-30T17:36:18Z" uid="1" user="OSMnx" version="1" changeset="1"><nd ref="3706191788" /><nd ref="3706191789" /><tag k="highway" v="residential" /><tag k="oneway" v="no" /></way><way id="45" timestamp="2026-03-30T17:36:18Z" uid="1" user="OSMnx" version="1" changeset="1"><nd ref="3706191789" /><nd ref="3909145250" /><tag k="highway" v="unclassified" /><tag k="oneway" v="no" /></way><way id="46" timestamp="2026-03-30T17:36:18Z" uid="1" user="OSMnx" version="1" changeset="1"><nd ref="3706191789" /><nd ref="3706177440" /><tag k="highway" v="unclassified" /><tag k="oneway" v="no" /></way><way id="47" timestamp="2026-03-30T17:36:18Z" uid="1" user="OSMnx" version="1" changeset="1"><nd ref="3706191789" /><nd ref="3706191788" /><tag k="highway" v="residential" /><tag k="oneway" v="no" /></way><way id="48" timestamp="2026-03-30T17:36:18Z" uid="1" user="OSMnx" version="1" changeset="1"><nd ref="3706191791" /><nd ref="3706191792" /><tag k="highway" v="footway" /><tag k="oneway" v="no" /></way><way id="49" timestamp="2026-03-30T17:36:18Z" uid="1" user="OSMnx" version="1" changeset="1"><nd ref="3706191792" /><nd ref="3706191791" /><tag k="highway" v="footway" /><tag k="oneway" v="no" /></way><way id="50" timestamp="2026-03-30T17:36:18Z" uid="1" user="OSMnx" version="1" changeset="1"><nd ref="3706191792" /><nd ref="9958203578" /><tag k="highway" v="footway" /><tag k="oneway" v="no" /></way><way id="51" timestamp="2026-03-30T17:36:18Z" uid="1" user="OSMnx" version="1" changeset="1"><nd ref="3909145210" /><nd ref="4452630275" /><tag k="highway" v="primary" /><tag k="name" v="昭乌达路" /><tag k="oneway" v="yes" /></way><way id="52" timestamp="2026-03-30T17:36:18Z" uid="1" user="OSMnx" version="1" changeset="1"><nd ref="3909145210" /><nd ref="3909145476" /><tag k="highway" v="secondary" /><tag k="lanes" v="2" /><tag k="name" v="大学西街" /><tag k="oneway" v="yes" /></way><way id="53" timestamp="2026-03-30T17:36:18Z" uid="1" user="OSMnx" version="1" changeset="1"><nd ref="3909145248" /><nd ref="1494144687" /><tag k="highway" v="residential" /><tag k="name" v="制片厂巷" /><tag k="oneway" v="no" /></way><way id="54" timestamp="2026-03-30T17:36:18Z" uid="1" user="OSMnx" version="1" changeset="1"><nd ref="3909145248" /><nd ref="1494144691" /><tag k="highway" v="residential" /><tag k="name" v="制片厂巷" /><tag k="oneway" v="no" /></way><way id="55" timestamp="2026-03-30T17:36:18Z" uid="1" user="OSMnx" version="1" changeset="1"><nd ref="3909145248" /><nd ref="3909145250" /><tag k="highway" v="secondary" /><tag k="lanes" v="2" /><tag k="name" v="大学东街" /><tag k="oneway" v="yes" /></way><way id="56" timestamp="2026-03-30T17:36:18Z" uid="1" user="OSMnx" version="1" changeset="1"><nd ref="3909145250" /><nd ref="3706176473" /><tag k="highway" v="unclassified" /><tag k="oneway" v="no" /></way><way id="57" timestamp="2026-03-30T17:36:18Z" uid="1" user="OSMnx" version="1" changeset="1"><nd ref="3909145250" /><nd ref="3706191789" /><tag k="highway" v="unclassified" /><tag k="oneway" v="no" /></way><way id="58" timestamp="2026-03-30T17:36:18Z" uid="1" user="OSMnx" version="1" changeset="1"><nd ref="3909145250" /><nd ref="11515665744" /><tag k="highway" v="secondary" /><tag k="lanes" v="2" /><tag k="name" v="大学东街" /><tag k="oneway" v="yes" /></way><way id="59" timestamp="2026-03-30T17:36:18Z" uid="1" user="OSMnx" version="1" changeset="1"><nd ref="3909145476" /><nd ref="1480090859" /><tag k="highway" v="primary" /><tag k="name" v="昭乌达路" /><tag k="oneway" v="yes" /></way><way id="60" timestamp="2026-03-30T17:36:18Z" uid="1" user="OSMnx" version="1" changeset="1"><nd ref="3909145476" /><nd ref="11515665742" /><tag k="highway" v="secondary" /><tag k="lanes" v="2" /><tag k="name" v="大学西街" /><tag k="oneway" v="yes" /></way><way id="61" timestamp="2026-03-30T17:36:18Z" uid="1" user="OSMnx" version="1" changeset="1"><nd ref="4452630275" /><nd ref="1494142064" /><tag k="highway" v="primary" /><tag k="name" v="昭乌达路" /><tag k="oneway" v="yes" /></way><way id="62" timestamp="2026-03-30T17:36:18Z" uid="1" user="OSMnx" version="1" changeset="1"><nd ref="4452630277" /><nd ref="3909145476" /><tag k="highway" v="primary" /><tag k="name" v="昭乌达路" /><tag k="oneway" v="yes" /></way><way id="63" timestamp="2026-03-30T17:36:18Z" uid="1" user="OSMnx" version="1" changeset="1"><nd ref="8490580408" /><nd ref="3706177425" /><tag k="highway" v="service" /><tag k="oneway" v="no" /></way><way id="64" timestamp="2026-03-30T17:36:18Z" uid="1" user="OSMnx" version="1" changeset="1"><nd ref="8490580408" /><nd ref="3706176503" /><tag k="highway" v="service" /><tag k="oneway" v="no" /></way><way id="65" timestamp="2026-03-30T17:36:18Z" uid="1" user="OSMnx" version="1" changeset="1"><nd ref="8490642990" /><nd ref="3706176503" /><tag k="highway" v="service" /><tag k="oneway" v="no" /></way><way id="66" timestamp="2026-03-30T17:36:18Z" uid="1" user="OSMnx" version="1" changeset="1"><nd ref="8490642990" /><nd ref="3706177437" /><tag k="highway" v="service" /><tag k="oneway" v="no" /></way><way id="67" timestamp="2026-03-30T17:36:18Z" uid="1" user="OSMnx" version="1" changeset="1"><nd ref="9958203575" /><nd ref="9958203577" /><tag k="highway" v="footway" /><tag k="oneway" v="no" /></way><way id="68" timestamp="2026-03-30T17:36:18Z" uid="1" user="OSMnx" version="1" changeset="1"><nd ref="9958203576" /><nd ref="9958203577" /><tag k="highway" v="footway" /><tag k="oneway" v="no" /></way><way id="69" timestamp="2026-03-30T17:36:18Z" uid="1" user="OSMnx" version="1" changeset="1"><nd ref="9958203576" /><nd ref="9958203578" /><tag k="highway" v="footway" /><tag k="oneway" v="no" /></way><way id="70" timestamp="2026-03-30T17:36:18Z" uid="1" user="OSMnx" version="1" changeset="1"><nd ref="9958203577" /><nd ref="1494141972" /><tag k="highway" v="service" /><tag k="oneway" v="no" /></way><way id="71" timestamp="2026-03-30T17:36:18Z" uid="1" user="OSMnx" version="1" changeset="1"><nd ref="9958203577" /><nd ref="3706177428" /><tag k="highway" v="service" /><tag k="oneway" v="no" /></way><way id="72" timestamp="2026-03-30T17:36:18Z" uid="1" user="OSMnx" version="1" changeset="1"><nd ref="9958203577" /><nd ref="9958203576" /><tag k="highway" v="footway" /><tag k="oneway" v="no" /></way><way id="73" timestamp="2026-03-30T17:36:18Z" uid="1" user="OSMnx" version="1" changeset="1"><nd ref="9958203577" /><nd ref="9958203575" /><tag k="highway" v="footway" /><tag k="oneway" v="no" /></way><way id="74" timestamp="2026-03-30T17:36:18Z" uid="1" user="OSMnx" version="1" changeset="1"><nd ref="9958203578" /><nd ref="9958203576" /><tag k="highway" v="footway" /><tag k="oneway" v="no" /></way><way id="75" timestamp="2026-03-30T17:36:18Z" uid="1" user="OSMnx" version="1" changeset="1"><nd ref="9958203578" /><nd ref="3706191792" /><tag k="highway" v="footway" /><tag k="oneway" v="no" /></way><way id="76" timestamp="2026-03-30T17:36:18Z" uid="1" user="OSMnx" version="1" changeset="1"><nd ref="11515665742" /><nd ref="3909145479" /><tag k="highway" v="secondary" /><tag k="lanes" v="2" /><tag k="name" v="大学西街" /><tag k="oneway" v="yes" /></way><way id="77" timestamp="2026-03-30T17:36:18Z" uid="1" user="OSMnx" version="1" changeset="1"><nd ref="11515665743" /><nd ref="3909145210" /><tag k="highway" v="secondary" /><tag k="lanes" v="2" /><tag k="name" v="大学东街" /><tag k="oneway" v="yes" /></way><way id="78" timestamp="2026-03-30T17:36:18Z" uid="1" user="OSMnx" version="1" changeset="1"><nd ref="11515665744" /><nd ref="11515665743" /><tag k="highway" v="secondary" /><tag k="lanes" v="2" /><tag k="name" v="大学东街" /><tag k="oneway" v="yes" /></way><way id="79" timestamp="2026-03-30T17:36:18Z" uid="1" user="OSMnx" version="1" changeset="1"><nd ref="11515665748" /><nd ref="1494142057" /><tag k="highway" v="primary" /><tag k="name" v="昭乌达路" /><tag k="oneway" v="yes" /></way></osm>