<?xml version='1.0' encoding='utf-8'?>
<osm version="0.6" generator="OSMnx 1.8.0"><node id="6448654228" timestamp="2026-03-30T17:49:48Z" uid="1" user="OSMnx" version="1" changeset="1" lat="39.908401" lon="116.397462" /><node id="6448654229" timestamp="2026-03-30T17:49:48Z" uid="1" user="OSMnx" version="1" changeset="1" lat="39.908295" lon="116.397465" /><node id="6448654230" timestamp="2026-03-30T17:49:48Z" uid="1" user="OSMnx" version="1" changeset="1" lat="39.908409" lon="116.39788" /><node id="6448654231" timestamp="2026-03-30T17:49:48Z" uid="1" user="OSMnx" version="1" changeset="1" lat="39.908303" lon="116.397884" /><node id="6448654232" timestamp="2026-03-30T17:49:48Z" uid="1" user="OSMnx" version="1" changeset="1" lat="39.908406" lon="116.397728" /><node id="6448654233" timestamp="2026-03-30T17:49:48Z" uid="1" user="OSMnx" version="1" changeset="1" lat="39.908404" lon="116.397608" /><node id="6448654234" timestamp="2026-03-30T17:49:48Z" uid="1" user="OSMnx" version="1" changeset="1" lat="39.908405" lon="116.397673" /><node id="6448654235" timestamp="2026-03-30T17:49:48Z" uid="1" user="OSMnx" version="1" changeset="1" lat="39.908408" lon="116.397828" /><node id="6448654236" timestamp="2026-03-30T17:49:48Z" uid="1" user="OSMnx" version="1" changeset="1" lat="39.908402" lon="116.39752" /><node id="6448654237" timestamp="2026-03-30T17:49:48Z" uid="1" user="OSMnx" version="1" changeset="1" lat="39.908398" lon="116.397341" /><node id="6448654238" timestamp="2026-03-30T17:49:48Z" uid="1" user="OSMnx" version="1" changeset="1" lat="39.908685" lon="116.397332" /><node id="6448654239" timestamp="2026-03-30T17:49:48Z" uid="1" user="OSMnx" version="1" changeset="1" lat="39.908697" lon="116.397983" /><node id="6448654240" timestamp="2026-03-30T17:49:48Z" uid="1" user="OSMnx" version="1" changeset="1" lat="39.908411" lon="116.397993" /><node id="6448654241" timestamp="2026-03-30T17:49:48Z" uid="1" user="OSMnx" version="1" changeset="1" lat="39.908408" lon="116.39786" /><node id="6448654242" timestamp="2026-03-30T17:49:48Z" uid="1" user="OSMnx" version="1" changeset="1" lat="39.908401" lon="116.397482" /><node id="6448654254" timestamp="2026-03-30T17:49:48Z" uid="1" user="OSMnx" version="1" changeset="1" lat="39.908295" lon="116.397487" /><node id="6448654256" timestamp="2026-03-30T17:49:48Z" uid="1" user="OSMnx" version="1" changeset="1" lat="39.908303" lon="116.397862" /><node id="6448654257" timestamp="2026-03-30T17:49:48Z" uid="1" user="OSMnx" version="1" changeset="1" lat="39.908294" lon="116.397411" /><node id="6448654258" timestamp="2026-03-30T17:49:48Z" uid="1" user="OSMnx" version="1" changeset="1" lat="39.908293" lon="116.397382" /><node id="6448654259" timestamp="2026-03-30T17:49:48Z" uid="1" user="OSMnx" version="1" changeset="1" lat="39.908304" lon="116.397939" /><node id="6448654260" timestamp="2026-03-30T17:49:48Z" uid="1" user="OSMnx" version="1" changeset="1" lat="39.908305" lon="116.397966" /><node id="6448654261" timestamp="2026-03-30T17:49:48Z" uid="1" user="OSMnx" version="1" changeset="1" lat="39.908318" lon="116.397676" /><node id="6448654262" timestamp="2026-03-30T17:49:48Z" uid="1" user="OSMnx" version="1" changeset="1" lat="39.90836" lon="116.397674" /><node id="6448654263" timestamp="2026-03-30T17:49:48Z" uid="1" user="OSMnx" version="1" changeset="1" lat="39.908335" lon="116.39773" /><node id="6448654264" timestamp="2026-03-30T17:49:48Z" uid="1" user="OSMnx" version="1" changeset="1" lat="39.908331" lon="116.397611" /><node id="6448654268" timestamp="2026-03-30T17:49:48Z" uid="1" user="OSMnx" version="1" changeset="1" lat="39.908298" lon="116.397612" /><node id="6448654269" timestamp="2026-03-30T17:49:48Z" uid="1" user="OSMnx" version="1" changeset="1" lat="39.9083" lon="116.397732" /><node id="6448654270" timestamp="2026-03-30T17:49:48Z" uid="1" user="OSMnx" version="1" changeset="1" lat="39.908299" lon="116.397676" /><node id="6448654272" timestamp="2026-03-30T17:49:48Z" uid="1" user="OSMnx" version="1" changeset="1" lat="39.908361" lon="116.39773" /><node id="6448654274" timestamp="2026-03-30T17:49:48Z" uid="1" user="OSMnx" version="1" changeset="1" lat="39.908359" lon="116.39761" /><node id="6448654279" timestamp="2026-03-30T17:49:48Z" uid="1" user="OSMnx" version="1" changeset="1" lat="39.908306" lon="116.398028" /><node id="6448654280" timestamp="2026-03-30T17:49:48Z" uid="1" user="OSMnx" version="1" changeset="1" lat="39.908292" lon="116.397337" /><node id="6448654282" timestamp="2026-03-30T17:49:48Z" uid="1" user="OSMnx" version="1" changeset="1" lat="39.908444" lon="116.397671" /><way id="0" timestamp="2026-03-30T17:49:48Z" uid="1" user="OSMnx" version="1" changeset="1"><nd ref="6448654228" /><nd ref="6448654229" /><tag k="highway" v="footway" /><tag k="oneway" v="no" /></way><way id="1" timestamp="2026-03-30T17:49:48Z" uid="1" user="OSMnx" version="1" changeset="1"><nd ref="6448654228" /><nd ref="6448654242" /><tag k="highway" v="footway" /><tag k="oneway" v="no" /></way><way id="2" timestamp="2026-03-30T17:49:48Z" uid="1" user="OSMnx" version="1" changeset="1"><nd ref="6448654228" /><nd ref="6448654237" /><tag k="highway" v="footway" /><tag k="oneway" v="no" /></way><way id="3" timestamp="2026-03-30T17:49:48Z" uid="1" user="OSMnx" version="1" changeset="1"><nd ref="6448654229" /><nd ref="6448654228" /><tag k="highway" v="footway" /><tag k="oneway" v="no" /></way><way id="4" timestamp="2026-03-30T17:49:48Z" uid="1" user="OSMnx" version="1" changeset="1"><nd ref="6448654229" /><nd ref="6448654254" /><tag k="highway" v="footway" /><tag k="oneway" v="no" /></way><way id="5" timestamp="2026-03-30T17:49:48Z" uid="1" user="OSMnx" version="1" changeset="1"><nd ref="6448654229" /><nd ref="6448654257" /><tag k="highway" v="footway" /><tag k="oneway" v="no" /></way><way id="6" timestamp="2026-03-30T17:49:48Z" uid="1" user="OSMnx" version="1" changeset="1"><nd ref="6448654230" /><nd ref="6448654231" /><tag k="highway" v="footway" /><tag k="oneway" v="no" /></way><way id="7" timestamp="2026-03-30T17:49:48Z" uid="1" user="OSMnx" version="1" changeset="1"><nd ref="6448654230" /><nd ref="6448654240" /><tag k="highway" v="footway" /><tag k="oneway" v="no" /></way><way id="8" timestamp="2026-03-30T17:49:48Z" uid="1" user="OSMnx" version="1" changeset="1"><nd ref="6448654230" /><nd ref="6448654241" /><tag k="highway" v="footway" /><tag k="oneway" v="no" /></way><way id="9" timestamp="2026-03-30T17:49:48Z" uid="1" user="OSMnx" version="1" changeset="1"><nd ref="6448654231" /><nd ref="6448654230" /><tag k="highway" v="footway" /><tag k="oneway" v="no" /></way><way id="10" timestamp="2026-03-30T17:49:48Z" uid="1" user="OSMnx" version="1" changeset="1"><nd ref="6448654231" /><nd ref="6448654259" /><tag k="highway" v="footway" /><tag k="oneway" v="no" /></way><way id="11" timestamp="2026-03-30T17:49:48Z" uid="1" user="OSMnx" version="1" changeset="1"><nd ref="6448654231" /><nd ref="6448654256" /><tag k="highway" v="footway" /><tag k="oneway" v="no" /></way><way id="12" timestamp="2026-03-30T17:49:48Z" uid="1" user="OSMnx" version="1" changeset="1"><nd ref="6448654232" /><nd ref="6448654272" /><tag k="highway" v="footway" /><tag k="oneway" v="no" /></way><way id="13" timestamp="2026-03-30T17:49:48Z" uid="1" user="OSMnx" version="1" changeset="1"><nd ref="6448654232" /><nd ref="6448654235" /><tag k="highway" v="footway" /><tag k="oneway" v="no" /></way><way id="14" timestamp="2026-03-30T17:49:48Z" uid="1" user="OSMnx" version="1" changeset="1"><nd ref="6448654232" /><nd ref="6448654234" /><tag k="highway" v="footway" /><tag k="oneway" v="no" /></way><way id="15" timestamp="2026-03-30T17:49:48Z" uid="1" user="OSMnx" version="1" changeset="1"><nd ref="6448654233" /><nd ref="6448654274" /><tag k="highway" v="footway" /><tag k="oneway" v="no" /></way><way id="16" timestamp="2026-03-30T17:49:48Z" uid="1" user="OSMnx" version="1" changeset="1"><nd ref="6448654233" /><nd ref="6448654234" /><tag k="highway" v="footway" /><tag k="oneway" v="no" /></way><way id="17" timestamp="2026-03-30T17:49:48Z" uid="1" user="OSMnx" version="1" changeset="1"><nd ref="6448654233" /><nd ref="6448654236" /><tag k="highway" v="footway" /><tag k="oneway" v="no" /></way><way id="18" timestamp="2026-03-30T17:49:48Z" uid="1" user="OSMnx" version="1" changeset="1"><nd ref="6448654234" /><nd ref="6448654232" /><tag k="highway" v="footway" /><tag k="oneway" v="no" /></way><way id="19" timestamp="2026-03-30T17:49:48Z" uid="1" user="OSMnx" version="1" changeset="1"><nd ref="6448654234" /><nd ref="6448654233" /><tag k="highway" v="footway" /><tag k="oneway" v="no" /></way><way id="20" timestamp="2026-03-30T17:49:48Z" uid="1" user="OSMnx" version="1" changeset="1"><nd ref="6448654234" /><nd ref="6448654262" /><tag k="highway" v="footway" /><tag k="oneway" v="no" /></way><way id="21" timestamp="2026-03-30T17:49:48Z" uid="1" user="OSMnx" version="1" changeset="1"><nd ref="6448654234" /><nd ref="6448654282" /><tag k="highway" v="footway" /><tag k="oneway" v="no" /></way><way id="22" timestamp="2026-03-30T17:49:48Z" uid="1" user="OSMnx" version="1" changeset="1"><nd ref="6448654235" /><nd ref="6448654241" /><tag k="highway" v="steps" /><tag k="oneway" v="no" /></way><way id="23" timestamp="2026-03-30T17:49:48Z" uid="1" user="OSMnx" version="1" changeset="1"><nd ref="6448654235" /><nd ref="6448654232" /><tag k="highway" v="footway" /><tag k="oneway" v="no" /></way><way id="24" timestamp="2026-03-30T17:49:48Z" uid="1" user="OSMnx" version="1" changeset="1"><nd ref="6448654236" /><nd ref="6448654233" /><tag k="highway" v="footway" /><tag k="oneway" v="no" /></way><way id="25" timestamp="2026-03-30T17:49:48Z" uid="1" user="OSMnx" version="1" changeset="1"><nd ref="6448654236" /><nd ref="6448654242" /><tag k="highway" v="steps" /><tag k="oneway" v="no" /></way><way id="26" timestamp="2026-03-30T17:49:48Z" uid="1" user="OSMnx" version="1" changeset="1"><nd ref="6448654237" /><nd ref="6448654228" /><tag k="highway" v="footway" /><tag k="oneway" v="no" /></way><way id="27" timestamp="2026-03-30T17:49:48Z" uid="1" user="OSMnx" version="1" changeset="1"><nd ref="6448654237" /><nd ref="6448654238" /><tag k="highway" v="footway" /><tag k="oneway" v="no" /></way><way id="28" timestamp="2026-03-30T17:49:48Z" uid="1" user="OSMnx" version="1" changeset="1"><nd ref="6448654238" /><nd ref="6448654237" /><tag k="highway" v="footway" /><tag k="oneway" v="no" /></way><way id="29" timestamp="2026-03-30T17:49:48Z" uid="1" user="OSMnx" version="1" changeset="1"><nd ref="6448654238" /><nd ref="6448654239" /><tag k="highway" v="footway" /><tag k="oneway" v="no" /></way><way id="30" timestamp="2026-03-30T17:49:48Z" uid="1" user="OSMnx" version="1" changeset="1"><nd ref="6448654239" /><nd ref="6448654238" /><tag k="highway" v="footway" /><tag k="oneway" v="no" /></way><way id="31" timestamp="2026-03-30T17:49:48Z" uid="1" user="OSMnx" version="1" changeset="1"><nd ref="6448654239" /><nd ref="6448654240" /><tag k="highway" v="footway" /><tag k="oneway" v="no" /></way><way id="32" timestamp="2026-03-30T17:49:48Z" uid="1" user="OSMnx" version="1" changeset="1"><nd ref="6448654240" /><nd ref="6448654239" /><tag k="highway" v="footway" /><tag k="oneway" v="no" /></way><way id="33" timestamp="2026-03-30T17:49:48Z" uid="1" user="OSMnx" version="1" changeset="1"><nd ref="6448654240" /><nd ref="6448654230" /><tag k="highway" v="footway" /><tag k="oneway" v="no" /></way><way id="34" timestamp="2026-03-30T17:49:48Z" uid="1" user="OSMnx" version="1" changeset="1"><nd ref="6448654241" /><nd ref="6448654235" /><tag k="highway" v="steps" /><tag k="oneway" v="no" /></way><way id="35" timestamp="2026-03-30T17:49:48Z" uid="1" user="OSMnx" version="1" changeset="1"><nd ref="6448654241" /><nd ref="6448654230" /><tag k="highway" v="footway" /><tag k="oneway" v="no" /></way><way id="36" timestamp="2026-03-30T17:49:48Z" uid="1" user="OSMnx" version="1" changeset="1"><nd ref="6448654242" /><nd ref="6448654236" /><tag k="highway" v="steps" /><tag k="oneway" v="no" /></way><way id="37" timestamp="2026-03-30T17:49:48Z" uid="1" user="OSMnx" version="1" changeset="1"><nd ref="6448654242" /><nd ref="6448654228" /><tag k="highway" v="footway" /><tag k="oneway" v="no" /></way><way id="38" timestamp="2026-03-30T17:49:48Z" uid="1" user="OSMnx" version="1" changeset="1"><nd ref="6448654254" /><nd ref="6448654268" /><tag k="highway" v="footway" /><tag k="oneway" v="no" /></way><way id="39" timestamp="2026-03-30T17:49:48Z" uid="1" user="OSMnx" version="1" changeset="1"><nd ref="6448654254" /><nd ref="6448654229" /><tag k="highway" v="footway" /><tag k="oneway" v="no" /></way><way id="40" timestamp="2026-03-30T17:49:48Z" uid="1" user="OSMnx" version="1" changeset="1"><nd ref="6448654256" /><nd ref="6448654231" /><tag k="highway" v="footway" /><tag k="oneway" v="no" /></way><way id="41" timestamp="2026-03-30T17:49:48Z" uid="1" user="OSMnx" version="1" changeset="1"><nd ref="6448654256" /><nd ref="6448654269" /><tag k="highway" v="footway" /><tag k="oneway" v="no" /></way><way id="42" timestamp="2026-03-30T17:49:48Z" uid="1" user="OSMnx" version="1" changeset="1"><nd ref="6448654257" /><nd ref="6448654258" /><tag k="highway" v="steps" /><tag k="oneway" v="no" /></way><way id="43" timestamp="2026-03-30T17:49:48Z" uid="1" user="OSMnx" version="1" changeset="1"><nd ref="6448654257" /><nd ref="6448654229" /><tag k="highway" v="footway" /><tag k="oneway" v="no" /></way><way id="44" timestamp="2026-03-30T17:49:48Z" uid="1" user="OSMnx" version="1" changeset="1"><nd ref="6448654258" /><nd ref="6448654257" /><tag k="highway" v="steps" /><tag k="oneway" v="no" /></way><way id="45" timestamp="2026-03-30T17:49:48Z" uid="1" user="OSMnx" version="1" changeset="1"><nd ref="6448654258" /><nd ref="6448654280" /><tag k="highway" v="footway" /><tag k="oneway" v="no" /></way><way id="46" timestamp="2026-03-30T17:49:48Z" uid="1" user="OSMnx" version="1" changeset="1"><nd ref="6448654259" /><nd ref="6448654260" /><tag k="highway" v="steps" /><tag k="oneway" v="no" /></way><way id="47" timestamp="2026-03-30T17:49:48Z" uid="1" user="OSMnx" version="1" changeset="1"><nd ref="6448654259" /><nd ref="6448654231" /><tag k="highway" v="footway" /><tag k="oneway" v="no" /></way><way id="48" timestamp="2026-03-30T17:49:48Z" uid="1" user="OSMnx" version="1" changeset="1"><nd ref="6448654260" /><nd ref="6448654279" /><tag k="highway" v="footway" /><tag k="oneway" v="no" /></way><way id="49" timestamp="2026-03-30T17:49:48Z" uid="1" user="OSMnx" version="1" changeset="1"><nd ref="6448654260" /><nd ref="6448654259" /><tag k="highway" v="steps" /><tag k="oneway" v="no" /></way><way id="50" timestamp="2026-03-30T17:49:48Z" uid="1" user="OSMnx" version="1" changeset="1"><nd ref="6448654261" /><nd ref="6448654262" /><tag k="highway" v="steps" /><tag k="oneway" v="no" /></way><way id="51" timestamp="2026-03-30T17:49:48Z" uid="1" user="OSMnx" version="1" changeset="1"><nd ref="6448654261" /><nd ref="6448654270" /><tag k="highway" v="footway" /><tag k="oneway" v="no" /></way><way id="52" timestamp="2026-03-30T17:49:48Z" uid="1" user="OSMnx" version="1" changeset="1"><nd ref="6448654262" /><nd ref="6448654261" /><tag k="highway" v="steps" /><tag k="oneway" v="no" /></way><way id="53" timestamp="2026-03-30T17:49:48Z" uid="1" user="OSMnx" version="1" changeset="1"><nd ref="6448654262" /><nd ref="6448654234" /><tag k="highway" v="footway" /><tag k="oneway" v="no" /></way><way id="54" timestamp="2026-03-30T17:49:48Z" uid="1" user="OSMnx" version="1" changeset="1"><nd ref="6448654263" /><nd ref="6448654272" /><tag k="highway" v="steps" /><tag k="oneway" v="no" /></way><way id="55" timestamp="2026-03-30T17:49:48Z" uid="1" user="OSMnx" version="1" changeset="1"><nd ref="6448654263" /><nd ref="6448654269" /><tag k="highway" v="footway" /><tag k="oneway" v="no" /></way><way id="56" timestamp="2026-03-30T17:49:48Z" uid="1" user="OSMnx" version="1" changeset="1"><nd ref="6448654264" /><nd ref="6448654274" /><tag k="highway" v="steps" /><tag k="oneway" v="no" /></way><way id="57" timestamp="2026-03-30T17:49:48Z" uid="1" user="OSMnx" version="1" changeset="1"><nd ref="6448654264" /><nd ref="6448654268" /><tag k="highway" v="footway" /><tag k="oneway" v="no" /></way><way id="58" timestamp="2026-03-30T17:49:48Z" uid="1" user="OSMnx" version="1" changeset="1"><nd ref="6448654268" /><nd ref="6448654264" /><tag k="highway" v="footway" /><tag k="oneway" v="no" /></way><way id="59" timestamp="2026-03-30T17:49:48Z" uid="1" user="OSMnx" version="1" changeset="1"><nd ref="6448654268" /><nd ref="6448654270" /><tag k="highway" v="footway" /><tag k="oneway" v="no" /></way><way id="60" timestamp="2026-03-30T17:49:48Z" uid="1" user="OSMnx" version="1" changeset="1"><nd ref="6448654268" /><nd ref="6448654254" /><tag k="highway" v="footway" /><tag k="oneway" v="no" /></way><way id="61" timestamp="2026-03-30T17:49:48Z" uid="1" user="OSMnx" version="1" changeset="1"><nd ref="6448654269" /><nd ref="6448654263" /><tag k="highway" v="footway" /><tag k="oneway" v="no" /></way><way id="62" timestamp="2026-03-30T17:49:48Z" uid="1" user="OSMnx" version="1" changeset="1"><nd ref="6448654269" /><nd ref="6448654256" /><tag k="highway" v="footway" /><tag k="oneway" v="no" /></way><way id="63" timestamp="2026-03-30T17:49:48Z" uid="1" user="OSMnx" version="1" changeset="1"><nd ref="6448654269" /><nd ref="6448654270" /><tag k="highway" v="footway" /><tag k="oneway" v="no" /></way><way id="64" timestamp="2026-03-30T17:49:48Z" uid="1" user="OSMnx" version="1" changeset="1"><nd ref="6448654270" /><nd ref="6448654269" /><tag k="highway" v="footway" /><tag k="oneway" v="no" /></way><way id="65" timestamp="2026-03-30T17:49:48Z" uid="1" user="OSMnx" version="1" changeset="1"><nd ref="6448654270" /><nd ref="6448654268" /><tag k="highway" v="footway" /><tag k="oneway" v="no" /></way><way id="66" timestamp="2026-03-30T17:49:48Z" uid="1" user="OSMnx" version="1" changeset="1"><nd ref="6448654270" /><nd ref="6448654261" /><tag k="highway" v="footway" /><tag k="oneway" v="no" /></way><way id="67" timestamp="2026-03-30T17:49:48Z" uid="1" user="OSMnx" version="1" changeset="1"><nd ref="6448654272" /><nd ref="6448654232" /><tag k="highway" v="footway" /><tag k="oneway" v="no" /></way><way id="68" timestamp="2026-03-30T17:49:48Z" uid="1" user="OSMnx" version="1" changeset="1"><nd ref="6448654272" /><nd ref="6448654263" /><tag k="highway" v="steps" /><tag k="oneway" v="no" /></way><way id="69" timestamp="2026-03-30T17:49:48Z" uid="1" user="OSMnx" version="1" changeset="1"><nd ref="6448654274" /><nd ref="6448654233" /><tag k="highway" v="footway" /><tag k="oneway" v="no" /></way><way id="70" timestamp="2026-03-30T17:49:48Z" uid="1" user="OSMnx" version="1" changeset="1"><nd ref="6448654274" /><nd ref="6448654264" /><tag k="highway" v="steps" /><tag k="oneway" v="no" /></way><way id="71" timestamp="2026-03-30T17:49:48Z" uid="1" user="OSMnx" version="1" changeset="1"><nd ref="6448654279" /><nd ref="6448654260" /><tag k="highway" v="footway" /><tag k="oneway" v="no" /></way><way id="72" timestamp="2026-03-30T17:49:48Z" uid="1" user="OSMnx" version="1" changeset="1"><nd ref="6448654280" /><nd ref="6448654258" /><tag k="highway" v="footway" /><tag k="oneway" v="no" /></way><way id="73" timestamp="2026-03-30T17:49:48Z" uid="1" user="OSMnx" version="1" changeset="1"><nd ref="6448654282" /><nd ref="6448654234" /><tag k="highway" v="footway" /><tag k="oneway" v="no" /></way></osm>