<?xml version='1.0' encoding='utf-8'?>
<osm version="0.6" generator="OSMnx 1.8.0"><node id="4260123132" timestamp="2026-03-31T20:14:06Z" uid="1" user="OSMnx" version="1" changeset="1" lat="42.286297" lon="119.921598" /><node id="5368759654" timestamp="2026-03-31T20:14:06Z" uid="1" user="OSMnx" version="1" changeset="1" lat="42.288416" lon="119.916721" /><node id="5368759655" timestamp="2026-03-31T20:14:06Z" uid="1" user="OSMnx" version="1" changeset="1" lat="42.289461" lon="119.91689" /><node id="5368759658" timestamp="2026-03-31T20:14:06Z" uid="1" user="OSMnx" version="1" changeset="1" lat="42.288245" lon="119.918644" /><node id="5368762438" timestamp="2026-03-31T20:14:06Z" uid="1" user="OSMnx" version="1" changeset="1" lat="42.286273" lon="119.921874" /><node id="5368762853" timestamp="2026-03-31T20:14:06Z" uid="1" user="OSMnx" version="1" changeset="1" lat="42.286569" lon="119.918503" /><node id="5368762854" timestamp="2026-03-31T20:14:06Z" uid="1" user="OSMnx" version="1" changeset="1" lat="42.286651" lon="119.918516" /><node id="5368762855" timestamp="2026-03-31T20:14:06Z" uid="1" user="OSMnx" version="1" changeset="1" lat="42.286579" lon="119.918387" /><node id="5368762856" timestamp="2026-03-31T20:14:06Z" uid="1" user="OSMnx" version="1" changeset="1" lat="42.286661" lon="119.9184" /><node id="5368762857" timestamp="2026-03-31T20:14:06Z" uid="1" user="OSMnx" version="1" changeset="1" lat="42.289282" lon="119.918922" /><node id="5368762858" timestamp="2026-03-31T20:14:06Z" uid="1" user="OSMnx" version="1" changeset="1" lat="42.289292" lon="119.918806" /><node id="5368762862" timestamp="2026-03-31T20:14:06Z" uid="1" user="OSMnx" version="1" changeset="1" lat="42.289039" lon="119.918884" /><node id="5368762864" timestamp="2026-03-31T20:14:06Z" uid="1" user="OSMnx" version="1" changeset="1" lat="42.28908" lon="119.918773" /><node id="5368762899" timestamp="2026-03-31T20:14:06Z" uid="1" user="OSMnx" version="1" changeset="1" lat="42.286824" lon="119.915597" /><node id="5368762900" timestamp="2026-03-31T20:14:06Z" uid="1" user="OSMnx" version="1" changeset="1" lat="42.286839" lon="119.915429" /><node id="5368762901" timestamp="2026-03-31T20:14:06Z" uid="1" user="OSMnx" version="1" changeset="1" lat="42.286903" lon="119.91561" /><node id="5368762902" timestamp="2026-03-31T20:14:06Z" uid="1" user="OSMnx" version="1" changeset="1" lat="42.286918" lon="119.915442" /><node id="5368762904" timestamp="2026-03-31T20:14:06Z" uid="1" user="OSMnx" version="1" changeset="1" lat="42.286666" lon="119.915572" /><node id="5368762906" timestamp="2026-03-31T20:14:06Z" uid="1" user="OSMnx" version="1" changeset="1" lat="42.286683" lon="119.915404" /><node id="5368763479" timestamp="2026-03-31T20:14:06Z" uid="1" user="OSMnx" version="1" changeset="1" lat="42.286258" lon="119.922062" /><node id="5368819834" timestamp="2026-03-31T20:14:06Z" uid="1" user="OSMnx" version="1" changeset="1" lat="42.28637" lon="119.92184" /><node id="5368819835" timestamp="2026-03-31T20:14:06Z" uid="1" user="OSMnx" version="1" changeset="1" lat="42.286277" lon="119.921829" /><node id="5368819836" timestamp="2026-03-31T20:14:06Z" uid="1" user="OSMnx" version="1" changeset="1" lat="42.290818" lon="119.922391" /><node id="5368883367" timestamp="2026-03-31T20:14:06Z" uid="1" user="OSMnx" version="1" changeset="1" lat="42.286388" lon="119.921621" /><node id="5368884474" timestamp="2026-03-31T20:14:06Z" uid="1" user="OSMnx" version="1" changeset="1" lat="42.289018" lon="119.916818" /><node id="5369351833" timestamp="2026-03-31T20:14:06Z" uid="1" user="OSMnx" version="1" changeset="1" lat="42.286728" lon="119.916683" /><node id="9981087864" timestamp="2026-03-31T20:14:06Z" uid="1" user="OSMnx" version="1" changeset="1" lat="42.291473" lon="119.91926" /><node id="9981087865" timestamp="2026-03-31T20:14:06Z" uid="1" user="OSMnx" version="1" changeset="1" lat="42.291478" lon="119.919143" /><node id="10124236089" timestamp="2026-03-31T20:14:06Z" uid="1" user="OSMnx" version="1" changeset="1" lat="42.293291" lon="119.91954" /><node id="10124236090" timestamp="2026-03-31T20:14:06Z" uid="1" user="OSMnx" version="1" changeset="1" lat="42.293303" lon="119.919424" /><way id="0" timestamp="2026-03-31T20:14:06Z" uid="1" user="OSMnx" version="1" changeset="1"><nd ref="4260123132" /><nd ref="5368819835" /><tag k="highway" v="primary" /><tag k="oneway" v="yes" /></way><way id="1" timestamp="2026-03-31T20:14:06Z" uid="1" user="OSMnx" version="1" changeset="1"><nd ref="5368759654" /><nd ref="5368884474" /><tag k="highway" v="service" /><tag k="oneway" v="no" /></way><way id="2" timestamp="2026-03-31T20:14:06Z" uid="1" user="OSMnx" version="1" changeset="1"><nd ref="5368759654" /><nd ref="5368759658" /><tag k="highway" v="residential" /><tag k="oneway" v="no" /></way><way id="3" timestamp="2026-03-31T20:14:06Z" uid="1" user="OSMnx" version="1" changeset="1"><nd ref="5368759655" /><nd ref="5368884474" /><tag k="highway" v="service" /><tag k="oneway" v="no" /></way><way id="4" timestamp="2026-03-31T20:14:06Z" uid="1" user="OSMnx" version="1" changeset="1"><nd ref="5368759655" /><nd ref="5368762858" /><tag k="highway" v="residential" /><tag k="oneway" v="no" /></way><way id="5" timestamp="2026-03-31T20:14:06Z" uid="1" user="OSMnx" version="1" changeset="1"><nd ref="5368759658" /><nd ref="5368759654" /><tag k="highway" v="residential" /><tag k="oneway" v="no" /></way><way id="6" timestamp="2026-03-31T20:14:06Z" uid="1" user="OSMnx" version="1" changeset="1"><nd ref="5368759658" /><nd ref="5368762856" /><tag k="highway" v="tertiary" /><tag k="oneway" v="yes" /></way><way id="7" timestamp="2026-03-31T20:14:06Z" uid="1" user="OSMnx" version="1" changeset="1"><nd ref="5368762438" /><nd ref="5368763479" /><tag k="highway" v="primary" /><tag k="oneway" v="yes" /></way><way id="8" timestamp="2026-03-31T20:14:06Z" uid="1" user="OSMnx" version="1" changeset="1"><nd ref="5368762853" /><nd ref="4260123132" /><tag k="highway" v="primary" /><tag k="oneway" v="yes" /></way><way id="9" timestamp="2026-03-31T20:14:06Z" uid="1" user="OSMnx" version="1" changeset="1"><nd ref="5368762853" /><nd ref="5368762854" /><tag k="highway" v="tertiary" /><tag k="oneway" v="yes" /></way><way id="10" timestamp="2026-03-31T20:14:06Z" uid="1" user="OSMnx" version="1" changeset="1"><nd ref="5368762854" /><nd ref="5368762856" /><tag k="highway" v="primary" /><tag k="oneway" v="yes" /></way><way id="11" timestamp="2026-03-31T20:14:06Z" uid="1" user="OSMnx" version="1" changeset="1"><nd ref="5368762854" /><nd ref="5368762862" /><tag k="highway" v="tertiary" /><tag k="oneway" v="yes" /></way><way id="12" timestamp="2026-03-31T20:14:06Z" uid="1" user="OSMnx" version="1" changeset="1"><nd ref="5368762855" /><nd ref="5368762853" /><tag k="highway" v="primary" /><tag k="oneway" v="yes" /></way><way id="13" timestamp="2026-03-31T20:14:06Z" uid="1" user="OSMnx" version="1" changeset="1"><nd ref="5368762856" /><nd ref="5368762901" /><tag k="highway" v="primary" /><tag k="oneway" v="yes" /></way><way id="14" timestamp="2026-03-31T20:14:06Z" uid="1" user="OSMnx" version="1" changeset="1"><nd ref="5368762856" /><nd ref="5368762855" /><tag k="highway" v="tertiary" /><tag k="oneway" v="yes" /></way><way id="15" timestamp="2026-03-31T20:14:06Z" uid="1" user="OSMnx" version="1" changeset="1"><nd ref="5368762857" /><nd ref="9981087864" /><tag k="highway" v="tertiary" /><tag k="oneway" v="yes" /></way><way id="16" timestamp="2026-03-31T20:14:06Z" uid="1" user="OSMnx" version="1" changeset="1"><nd ref="5368762857" /><nd ref="5368762858" /><tag k="highway" v="residential" /><tag k="oneway" v="no" /></way><way id="17" timestamp="2026-03-31T20:14:06Z" uid="1" user="OSMnx" version="1" changeset="1"><nd ref="5368762858" /><nd ref="5368762864" /><tag k="highway" v="tertiary" /><tag k="oneway" v="yes" /></way><way id="18" timestamp="2026-03-31T20:14:06Z" uid="1" user="OSMnx" version="1" changeset="1"><nd ref="5368762858" /><nd ref="5368762857" /><tag k="highway" v="residential" /><tag k="oneway" v="no" /></way><way id="19" timestamp="2026-03-31T20:14:06Z" uid="1" user="OSMnx" version="1" changeset="1"><nd ref="5368762858" /><nd ref="5368759655" /><tag k="highway" v="residential" /><tag k="oneway" v="no" /></way><way id="20" timestamp="2026-03-31T20:14:06Z" uid="1" user="OSMnx" version="1" changeset="1"><nd ref="5368762862" /><nd ref="5368762857" /><tag k="highway" v="tertiary" /><tag k="oneway" v="yes" /></way><way id="21" timestamp="2026-03-31T20:14:06Z" uid="1" user="OSMnx" version="1" changeset="1"><nd ref="5368762864" /><nd ref="5368759658" /><tag k="highway" v="tertiary" /><tag k="oneway" v="yes" /></way><way id="22" timestamp="2026-03-31T20:14:06Z" uid="1" user="OSMnx" version="1" changeset="1"><nd ref="5368762899" /><nd ref="5369351833" /><tag k="highway" v="primary" /><tag k="oneway" v="yes" /></way><way id="23" timestamp="2026-03-31T20:14:06Z" uid="1" user="OSMnx" version="1" changeset="1"><nd ref="5368762899" /><nd ref="5368762901" /><tag k="highway" v="residential" /><tag k="oneway" v="yes" /></way><way id="24" timestamp="2026-03-31T20:14:06Z" uid="1" user="OSMnx" version="1" changeset="1"><nd ref="5368762900" /><nd ref="5368762899" /><tag k="highway" v="primary" /><tag k="oneway" v="yes" /></way><way id="25" timestamp="2026-03-31T20:14:06Z" uid="1" user="OSMnx" version="1" changeset="1"><nd ref="5368762900" /><nd ref="5368762906" /><tag k="highway" v="residential" /><tag k="oneway" v="yes" /></way><way id="26" timestamp="2026-03-31T20:14:06Z" uid="1" user="OSMnx" version="1" changeset="1"><nd ref="5368762901" /><nd ref="5368762902" /><tag k="highway" v="primary" /><tag k="oneway" v="yes" /></way><way id="27" timestamp="2026-03-31T20:14:06Z" uid="1" user="OSMnx" version="1" changeset="1"><nd ref="5368762902" /><nd ref="5368762900" /><tag k="highway" v="residential" /><tag k="oneway" v="yes" /></way><way id="28" timestamp="2026-03-31T20:14:06Z" uid="1" user="OSMnx" version="1" changeset="1"><nd ref="5368762904" /><nd ref="5368762899" /><tag k="highway" v="residential" /><tag k="oneway" v="yes" /></way><way id="29" timestamp="2026-03-31T20:14:06Z" uid="1" user="OSMnx" version="1" changeset="1"><nd ref="5368819834" /><nd ref="5368883367" /><tag k="highway" v="primary" /><tag k="oneway" v="yes" /></way><way id="30" timestamp="2026-03-31T20:14:06Z" uid="1" user="OSMnx" version="1" changeset="1"><nd ref="5368819834" /><nd ref="5368819836" /><tag k="highway" v="residential" /><tag k="oneway" v="no" /></way><way id="31" timestamp="2026-03-31T20:14:06Z" uid="1" user="OSMnx" version="1" changeset="1"><nd ref="5368819834" /><nd ref="5368819835" /><tag k="highway" v="residential" /><tag k="oneway" v="no" /></way><way id="32" timestamp="2026-03-31T20:14:06Z" uid="1" user="OSMnx" version="1" changeset="1"><nd ref="5368819835" /><nd ref="5368762438" /><tag k="highway" v="primary" /><tag k="oneway" v="yes" /></way><way id="33" timestamp="2026-03-31T20:14:06Z" uid="1" user="OSMnx" version="1" changeset="1"><nd ref="5368819835" /><nd ref="5368819834" /><tag k="highway" v="residential" /><tag k="oneway" v="no" /></way><way id="34" timestamp="2026-03-31T20:14:06Z" uid="1" user="OSMnx" version="1" changeset="1"><nd ref="5368819836" /><nd ref="5368819834" /><tag k="highway" v="residential" /><tag k="oneway" v="no" /></way><way id="35" timestamp="2026-03-31T20:14:06Z" uid="1" user="OSMnx" version="1" changeset="1"><nd ref="5368883367" /><nd ref="5368762854" /><tag k="highway" v="primary" /><tag k="oneway" v="yes" /></way><way id="36" timestamp="2026-03-31T20:14:06Z" uid="1" user="OSMnx" version="1" changeset="1"><nd ref="5368884474" /><nd ref="5368759654" /><tag k="highway" v="service" /><tag k="oneway" v="no" /></way><way id="37" timestamp="2026-03-31T20:14:06Z" uid="1" user="OSMnx" version="1" changeset="1"><nd ref="5368884474" /><nd ref="5368759655" /><tag k="highway" v="service" /><tag k="oneway" v="no" /></way><way id="38" timestamp="2026-03-31T20:14:06Z" uid="1" user="OSMnx" version="1" changeset="1"><nd ref="5369351833" /><nd ref="5368762855" /><tag k="highway" v="primary" /><tag k="oneway" v="yes" /></way><way id="39" timestamp="2026-03-31T20:14:06Z" uid="1" user="OSMnx" version="1" changeset="1"><nd ref="9981087864" /><nd ref="10124236089" /><tag k="highway" v="tertiary" /><tag k="oneway" v="yes" /></way><way id="40" timestamp="2026-03-31T20:14:06Z" uid="1" user="OSMnx" version="1" changeset="1"><nd ref="9981087864" /><nd ref="9981087865" /><tag k="highway" v="residential" /><tag k="oneway" v="no" /></way><way id="41" timestamp="2026-03-31T20:14:06Z" uid="1" user="OSMnx" version="1" changeset="1"><nd ref="9981087865" /><nd ref="5368762858" /><tag k="highway" v="tertiary" /><tag k="oneway" v="yes" /></way><way id="42" timestamp="2026-03-31T20:14:06Z" uid="1" user="OSMnx" version="1" changeset="1"><nd ref="9981087865" /><nd ref="9981087864" /><tag k="highway" v="residential" /><tag k="oneway" v="no" /></way><way id="43" timestamp="2026-03-31T20:14:06Z" uid="1" user="OSMnx" version="1" changeset="1"><nd ref="10124236089" /><nd ref="10124236090" /><tag k="highway" v="tertiary" /><tag k="oneway" v="no" /></way><way id="44" timestamp="2026-03-31T20:14:06Z" uid="1" user="OSMnx" version="1" changeset="1"><nd ref="10124236090" /><nd ref="9981087865" /><tag k="highway" v="tertiary" /><tag k="oneway" v="yes" /></way><way id="45" timestamp="2026-03-31T20:14:06Z" uid="1" user="OSMnx" version="1" changeset="1"><nd ref="10124236090" /><nd ref="10124236089" /><tag k="highway" v="tertiary" /><tag k="oneway" v="no" /></way></osm>