<?xml version='1.0' encoding='utf-8'?>
<osm version="0.6" generator="OSMnx 1.8.0"><node id="533628250" timestamp="2026-03-30T16:41:05Z" uid="1" user="OSMnx" version="1" changeset="1" lat="39.908314" lon="116.398941" /><node id="733788152" timestamp="2026-03-30T16:41:05Z" uid="1" user="OSMnx" version="1" changeset="1" lat="39.910214" lon="116.3954" /><node id="733788184" timestamp="2026-03-30T16:41:05Z" uid="1" user="OSMnx" version="1" changeset="1" lat="39.910767" lon="116.399432" /><node id="733788230" timestamp="2026-03-30T16:41:05Z" uid="1" user="OSMnx" version="1" changeset="1" lat="39.909513" lon="116.397785" /><node id="733788263" timestamp="2026-03-30T16:41:05Z" uid="1" user="OSMnx" version="1" changeset="1" lat="39.910253" lon="116.396907" /><node id="733788292" timestamp="2026-03-30T16:41:05Z" uid="1" user="OSMnx" version="1" changeset="1" lat="39.909212" lon="116.396958" /><node id="733788309" timestamp="2026-03-30T16:41:05Z" uid="1" user="OSMnx" version="1" changeset="1" lat="39.910825" lon="116.398033" /><node id="733788431" timestamp="2026-03-30T16:41:05Z" uid="1" user="OSMnx" version="1" changeset="1" lat="39.909196" lon="116.398996" /><node id="733788474" timestamp="2026-03-30T16:41:05Z" uid="1" user="OSMnx" version="1" changeset="1" lat="39.910768" lon="116.398998" /><node id="733788530" timestamp="2026-03-30T16:41:05Z" uid="1" user="OSMnx" version="1" changeset="1" lat="39.909202" lon="116.397717" /><node id="733788599" timestamp="2026-03-30T16:41:05Z" uid="1" user="OSMnx" version="1" changeset="1" lat="39.910322" lon="116.397745" /><node id="733788658" timestamp="2026-03-30T16:41:05Z" uid="1" user="OSMnx" version="1" changeset="1" lat="39.907732" lon="116.396112" /><node id="733788681" timestamp="2026-03-30T16:41:05Z" uid="1" user="OSMnx" version="1" changeset="1" lat="39.910347" lon="116.398504" /><node id="733788691" timestamp="2026-03-30T16:41:05Z" uid="1" user="OSMnx" version="1" changeset="1" lat="39.910846" lon="116.398482" /><node id="733788789" timestamp="2026-03-30T16:41:05Z" uid="1" user="OSMnx" version="1" changeset="1" lat="39.909691" lon="116.399392" /><node id="733788794" timestamp="2026-03-30T16:41:05Z" uid="1" user="OSMnx" version="1" changeset="1" lat="39.909492" lon="116.396944" /><node id="733788854" timestamp="2026-03-30T16:41:05Z" uid="1" user="OSMnx" version="1" changeset="1" lat="39.908051" lon="116.396297" /><node id="733788858" timestamp="2026-03-30T16:41:05Z" uid="1" user="OSMnx" version="1" changeset="1" lat="39.90757" lon="116.396126" /><node id="733788887" timestamp="2026-03-30T16:41:05Z" uid="1" user="OSMnx" version="1" changeset="1" lat="39.909232" lon="116.397294" /><node id="733788892" timestamp="2026-03-30T16:41:05Z" uid="1" user="OSMnx" version="1" changeset="1" lat="39.910372" lon="116.399373" /><node id="733789032" timestamp="2026-03-30T16:41:05Z" uid="1" user="OSMnx" version="1" changeset="1" lat="39.90807" lon="116.397014" /><node id="733789090" timestamp="2026-03-30T16:41:05Z" uid="1" user="OSMnx" version="1" changeset="1" lat="39.908318" lon="116.399173" /><node id="733789098" timestamp="2026-03-30T16:41:05Z" uid="1" user="OSMnx" version="1" changeset="1" lat="39.91076" lon="116.398488" /><node id="733789247" timestamp="2026-03-30T16:41:05Z" uid="1" user="OSMnx" version="1" changeset="1" lat="39.909682" lon="116.398984" /><node id="733789295" timestamp="2026-03-30T16:41:05Z" uid="1" user="OSMnx" version="1" changeset="1" lat="39.907574" lon="116.397039" /><node id="733789334" timestamp="2026-03-30T16:41:05Z" uid="1" user="OSMnx" version="1" changeset="1" lat="39.909665" lon="116.398458" /><node id="1480544785" timestamp="2026-03-30T16:41:05Z" uid="1" user="OSMnx" version="1" changeset="1" lat="39.907726" lon="116.396029" /><node id="1480544827" timestamp="2026-03-30T16:41:05Z" uid="1" user="OSMnx" version="1" changeset="1" lat="39.908041" lon="116.396011" /><node id="1858572384" timestamp="2026-03-30T16:41:05Z" uid="1" user="OSMnx" version="1" changeset="1" lat="39.907648" lon="116.398962" /><node id="1858572385" timestamp="2026-03-30T16:41:05Z" uid="1" user="OSMnx" version="1" changeset="1" lat="39.908787" lon="116.399119" /><node id="2634999449" timestamp="2026-03-30T16:41:05Z" uid="1" user="OSMnx" version="1" changeset="1" lat="39.909108" lon="116.399037" /><node id="2634999504" timestamp="2026-03-30T16:41:05Z" uid="1" user="OSMnx" version="1" changeset="1" lat="39.909222" lon="116.397512" /><node id="3388590254" timestamp="2026-03-30T16:41:05Z" uid="1" user="OSMnx" version="1" changeset="1" lat="39.907936" lon="116.396017" /><node id="3388590255" timestamp="2026-03-30T16:41:05Z" uid="1" user="OSMnx" version="1" changeset="1" lat="39.907936" lon="116.396155" /><node id="3388590290" timestamp="2026-03-30T16:41:05Z" uid="1" user="OSMnx" version="1" changeset="1" lat="39.908208" lon="116.396141" /><node id="3388590342" timestamp="2026-03-30T16:41:05Z" uid="1" user="OSMnx" version="1" changeset="1" lat="39.908482" lon="116.396122" /><node id="3388590561" timestamp="2026-03-30T16:41:05Z" uid="1" user="OSMnx" version="1" changeset="1" lat="39.908943" lon="116.396097" /><node id="5908244201" timestamp="2026-03-30T16:41:05Z" uid="1" user="OSMnx" version="1" changeset="1" lat="39.910643" lon="116.396887" /><node id="5908244202" timestamp="2026-03-30T16:41:05Z" uid="1" user="OSMnx" version="1" changeset="1" lat="39.910656" lon="116.397624" /><node id="6095025078" timestamp="2026-03-30T16:41:05Z" uid="1" user="OSMnx" version="1" changeset="1" lat="39.910927" lon="116.397982" /><node id="6098824838" timestamp="2026-03-30T16:41:05Z" uid="1" user="OSMnx" version="1" changeset="1" lat="39.910828" lon="116.395998" /><node id="6098824839" timestamp="2026-03-30T16:41:05Z" uid="1" user="OSMnx" version="1" changeset="1" lat="39.910418" lon="116.396027" /><node id="6421400596" timestamp="2026-03-30T16:41:05Z" uid="1" user="OSMnx" version="1" changeset="1" lat="39.910435" lon="116.395219" /><node id="6421400609" timestamp="2026-03-30T16:41:05Z" uid="1" user="OSMnx" version="1" changeset="1" lat="39.910351" lon="116.395353" /><node id="6421400615" timestamp="2026-03-30T16:41:05Z" uid="1" user="OSMnx" version="1" changeset="1" lat="39.909797" lon="116.395259" /><node id="6421400618" timestamp="2026-03-30T16:41:05Z" uid="1" user="OSMnx" version="1" changeset="1" lat="39.910073" lon="116.395387" /><node id="6421400620" timestamp="2026-03-30T16:41:05Z" uid="1" user="OSMnx" version="1" changeset="1" lat="39.910294" lon="116.395396" /><node id="6421400621" timestamp="2026-03-30T16:41:05Z" uid="1" user="OSMnx" version="1" changeset="1" lat="39.910111" lon="116.395404" /><node id="6448654228" timestamp="2026-03-30T16:41:05Z" uid="1" user="OSMnx" version="1" changeset="1" lat="39.908401" lon="116.397462" /><node id="6448654229" timestamp="2026-03-30T16:41:05Z" uid="1" user="OSMnx" version="1" changeset="1" lat="39.908295" lon="116.397465" /><node id="6448654230" timestamp="2026-03-30T16:41:05Z" uid="1" user="OSMnx" version="1" changeset="1" lat="39.908409" lon="116.39788" /><node id="6448654231" timestamp="2026-03-30T16:41:05Z" uid="1" user="OSMnx" version="1" changeset="1" lat="39.908303" lon="116.397884" /><node id="6448654232" timestamp="2026-03-30T16:41:05Z" uid="1" user="OSMnx" version="1" changeset="1" lat="39.908406" lon="116.397728" /><node id="6448654233" timestamp="2026-03-30T16:41:05Z" uid="1" user="OSMnx" version="1" changeset="1" lat="39.908404" lon="116.397608" /><node id="6448654234" timestamp="2026-03-30T16:41:05Z" uid="1" user="OSMnx" version="1" changeset="1" lat="39.908405" lon="116.397673" /><node id="6448654235" timestamp="2026-03-30T16:41:05Z" uid="1" user="OSMnx" version="1" changeset="1" lat="39.908408" lon="116.397828" /><node id="6448654236" timestamp="2026-03-30T16:41:05Z" uid="1" user="OSMnx" version="1" changeset="1" lat="39.908402" lon="116.39752" /><node id="6448654237" timestamp="2026-03-30T16:41:05Z" uid="1" user="OSMnx" version="1" changeset="1" lat="39.908398" lon="116.397341" /><node id="6448654238" timestamp="2026-03-30T16:41:05Z" uid="1" user="OSMnx" version="1" changeset="1" lat="39.908685" lon="116.397332" /><node id="6448654239" timestamp="2026-03-30T16:41:05Z" uid="1" user="OSMnx" version="1" changeset="1" lat="39.908697" lon="116.397983" /><node id="6448654240" timestamp="2026-03-30T16:41:05Z" uid="1" user="OSMnx" version="1" changeset="1" lat="39.908411" lon="116.397993" /><node id="6448654241" timestamp="2026-03-30T16:41:05Z" uid="1" user="OSMnx" version="1" changeset="1" lat="39.908408" lon="116.39786" /><node id="6448654242" timestamp="2026-03-30T16:41:05Z" uid="1" user="OSMnx" version="1" changeset="1" lat="39.908401" lon="116.397482" /><node id="6448654243" timestamp="2026-03-30T16:41:05Z" uid="1" user="OSMnx" version="1" changeset="1" lat="39.908156" lon="116.397867" /><node id="6448654244" timestamp="2026-03-30T16:41:05Z" uid="1" user="OSMnx" version="1" changeset="1" lat="39.908148" lon="116.39749" /><node id="6448654253" timestamp="2026-03-30T16:41:05Z" uid="1" user="OSMnx" version="1" changeset="1" lat="39.90813" lon="116.397491" /><node id="6448654254" timestamp="2026-03-30T16:41:05Z" uid="1" user="OSMnx" version="1" changeset="1" lat="39.908295" lon="116.397487" /><node id="6448654255" timestamp="2026-03-30T16:41:05Z" uid="1" user="OSMnx" version="1" changeset="1" lat="39.908137" lon="116.397868" /><node id="6448654256" timestamp="2026-03-30T16:41:05Z" uid="1" user="OSMnx" version="1" changeset="1" lat="39.908303" lon="116.397862" /><node id="6448654257" timestamp="2026-03-30T16:41:05Z" uid="1" user="OSMnx" version="1" changeset="1" lat="39.908294" lon="116.397411" /><node id="6448654258" timestamp="2026-03-30T16:41:05Z" uid="1" user="OSMnx" version="1" changeset="1" lat="39.908293" lon="116.397382" /><node id="6448654259" timestamp="2026-03-30T16:41:05Z" uid="1" user="OSMnx" version="1" changeset="1" lat="39.908304" lon="116.397939" /><node id="6448654260" timestamp="2026-03-30T16:41:05Z" uid="1" user="OSMnx" version="1" changeset="1" lat="39.908305" lon="116.397966" /><node id="6448654261" timestamp="2026-03-30T16:41:05Z" uid="1" user="OSMnx" version="1" changeset="1" lat="39.908318" lon="116.397676" /><node id="6448654262" timestamp="2026-03-30T16:41:05Z" uid="1" user="OSMnx" version="1" changeset="1" lat="39.90836" lon="116.397674" /><node id="6448654263" timestamp="2026-03-30T16:41:05Z" uid="1" user="OSMnx" version="1" changeset="1" lat="39.908335" lon="116.39773" /><node id="6448654264" timestamp="2026-03-30T16:41:05Z" uid="1" user="OSMnx" version="1" changeset="1" lat="39.908331" lon="116.397611" /><node id="6448654265" timestamp="2026-03-30T16:41:05Z" uid="1" user="OSMnx" version="1" changeset="1" lat="39.908161" lon="116.397736" /><node id="6448654266" timestamp="2026-03-30T16:41:05Z" uid="1" user="OSMnx" version="1" changeset="1" lat="39.90816" lon="116.397681" /><node id="6448654267" timestamp="2026-03-30T16:41:05Z" uid="1" user="OSMnx" version="1" changeset="1" lat="39.908158" lon="116.397616" /><node id="6448654268" timestamp="2026-03-30T16:41:05Z" uid="1" user="OSMnx" version="1" changeset="1" lat="39.908298" lon="116.397612" /><node id="6448654269" timestamp="2026-03-30T16:41:05Z" uid="1" user="OSMnx" version="1" changeset="1" lat="39.9083" lon="116.397732" /><node id="6448654270" timestamp="2026-03-30T16:41:05Z" uid="1" user="OSMnx" version="1" changeset="1" lat="39.908299" lon="116.397676" /><node id="6448654271" timestamp="2026-03-30T16:41:05Z" uid="1" user="OSMnx" version="1" changeset="1" lat="39.908116" lon="116.397738" /><node id="6448654272" timestamp="2026-03-30T16:41:05Z" uid="1" user="OSMnx" version="1" changeset="1" lat="39.908361" lon="116.39773" /><node id="6448654273" timestamp="2026-03-30T16:41:05Z" uid="1" user="OSMnx" version="1" changeset="1" lat="39.908114" lon="116.397618" /><node id="6448654274" timestamp="2026-03-30T16:41:05Z" uid="1" user="OSMnx" version="1" changeset="1" lat="39.908359" lon="116.39761" /><node id="6448654279" timestamp="2026-03-30T16:41:05Z" uid="1" user="OSMnx" version="1" changeset="1" lat="39.908306" lon="116.398028" /><node id="6448654280" timestamp="2026-03-30T16:41:05Z" uid="1" user="OSMnx" version="1" changeset="1" lat="39.908292" lon="116.397337" /><node id="6448654281" timestamp="2026-03-30T16:41:05Z" uid="1" user="OSMnx" version="1" changeset="1" lat="39.908115" lon="116.397682" /><node id="6448654282" timestamp="2026-03-30T16:41:05Z" uid="1" user="OSMnx" version="1" changeset="1" lat="39.908444" lon="116.397671" /><node id="6448666067" timestamp="2026-03-30T16:41:05Z" uid="1" user="OSMnx" version="1" changeset="1" lat="39.907395" lon="116.397048" /><node id="6448666069" timestamp="2026-03-30T16:41:05Z" uid="1" user="OSMnx" version="1" changeset="1" lat="39.907926" lon="116.398223" /><node id="6448666070" timestamp="2026-03-30T16:41:05Z" uid="1" user="OSMnx" version="1" changeset="1" lat="39.907619" lon="116.398998" /><node id="6448666071" timestamp="2026-03-30T16:41:05Z" uid="1" user="OSMnx" version="1" changeset="1" lat="39.907637" lon="116.398982" /><node id="6448666072" timestamp="2026-03-30T16:41:05Z" uid="1" user="OSMnx" version="1" changeset="1" lat="39.907641" lon="116.398309" /><node id="6448666073" timestamp="2026-03-30T16:41:05Z" uid="1" user="OSMnx" version="1" changeset="1" lat="39.907644" lon="116.398292" /><node id="6448666074" timestamp="2026-03-30T16:41:05Z" uid="1" user="OSMnx" version="1" changeset="1" lat="39.907661" lon="116.398277" /><node id="6448666075" timestamp="2026-03-30T16:41:05Z" uid="1" user="OSMnx" version="1" changeset="1" lat="39.907908" lon="116.398273" /><node id="6448666076" timestamp="2026-03-30T16:41:05Z" uid="1" user="OSMnx" version="1" changeset="1" lat="39.907899" lon="116.397023" /><node id="8742615452" timestamp="2026-03-30T16:41:05Z" uid="1" user="OSMnx" version="1" changeset="1" lat="39.910343" lon="116.396034" /><node id="8742615453" timestamp="2026-03-30T16:41:05Z" uid="1" user="OSMnx" version="1" changeset="1" lat="39.91023" lon="116.396033" /><node id="8809675597" timestamp="2026-03-30T16:41:05Z" uid="1" user="OSMnx" version="1" changeset="1" lat="39.907839" lon="116.397087" /><node id="8809675598" timestamp="2026-03-30T16:41:05Z" uid="1" user="OSMnx" version="1" changeset="1" lat="39.907938" lon="116.397078" /><node id="8809675599" timestamp="2026-03-30T16:41:05Z" uid="1" user="OSMnx" version="1" changeset="1" lat="39.9079" lon="116.397081"><tag k="highway" v="crossing" /></node><node id="8809675600" timestamp="2026-03-30T16:41:05Z" uid="1" user="OSMnx" version="1" changeset="1" lat="39.907939" lon="116.397151" /><node id="8809675601" timestamp="2026-03-30T16:41:05Z" uid="1" user="OSMnx" version="1" changeset="1" lat="39.90794" lon="116.397168" /><node id="8809675602" timestamp="2026-03-30T16:41:05Z" uid="1" user="OSMnx" version="1" changeset="1" lat="39.90795" lon="116.397693" /><node id="8809675603" timestamp="2026-03-30T16:41:05Z" uid="1" user="OSMnx" version="1" changeset="1" lat="39.908013" lon="116.397688" /><node id="8809675604" timestamp="2026-03-30T16:41:05Z" uid="1" user="OSMnx" version="1" changeset="1" lat="39.907959" lon="116.397694" /><node id="12387991233" timestamp="2026-03-30T16:41:05Z" uid="1" user="OSMnx" version="1" changeset="1" lat="39.910221" lon="116.395677" /><way id="0" timestamp="2026-03-30T16:41:05Z" uid="1" user="OSMnx" version="1" changeset="1"><nd ref="533628250" /><nd ref="733789090" /><tag k="highway" v="service" /><tag k="name" v="南湾子胡同" /><tag k="oneway" v="no" /></way><way id="1" timestamp="2026-03-30T16:41:05Z" uid="1" user="OSMnx" version="1" changeset="1"><nd ref="533628250" /><nd ref="1858572384" /><tag k="highway" v="service" /><tag k="name" v="南湾子胡同" /><tag k="oneway" v="no" /></way><way id="2" timestamp="2026-03-30T16:41:05Z" uid="1" user="OSMnx" version="1" changeset="1"><nd ref="733788152" /><nd ref="12387991233" /><tag k="highway" v="service" /><tag k="oneway" v="no" /></way><way id="3" timestamp="2026-03-30T16:41:05Z" uid="1" user="OSMnx" version="1" changeset="1"><nd ref="733788152" /><nd ref="6421400620" /><tag k="highway" v="footway" /><tag k="oneway" v="no" /></way><way id="4" timestamp="2026-03-30T16:41:05Z" uid="1" user="OSMnx" version="1" changeset="1"><nd ref="733788152" /><nd ref="6421400621" /><tag k="highway" v="footway" /><tag k="oneway" v="no" /></way><way id="5" timestamp="2026-03-30T16:41:05Z" uid="1" user="OSMnx" version="1" changeset="1"><nd ref="733788184" /><nd ref="733788474" /><tag k="highway" v="residential" /><tag k="oneway" v="no" /></way><way id="6" timestamp="2026-03-30T16:41:05Z" uid="1" user="OSMnx" version="1" changeset="1"><nd ref="733788230" /><nd ref="733788599" /><tag k="highway" v="service" /><tag k="oneway" v="no" /></way><way id="7" timestamp="2026-03-30T16:41:05Z" uid="1" user="OSMnx" version="1" changeset="1"><nd ref="733788230" /><nd ref="733788794" /><tag k="highway" v="service" /><tag k="oneway" v="no" /></way><way id="8" timestamp="2026-03-30T16:41:05Z" uid="1" user="OSMnx" version="1" changeset="1"><nd ref="733788263" /><nd ref="8742615453" /><tag k="highway" v="service" /><tag k="oneway" v="no" /></way><way id="9" timestamp="2026-03-30T16:41:05Z" uid="1" user="OSMnx" version="1" changeset="1"><nd ref="733788263" /><nd ref="5908244201" /><tag k="highway" v="tertiary" /><tag k="lanes" v="2" /><tag k="name" v="南池子大街" /><tag k="oneway" v="no" /></way><way id="10" timestamp="2026-03-30T16:41:05Z" uid="1" user="OSMnx" version="1" changeset="1"><nd ref="733788263" /><nd ref="733788794" /><tag k="highway" v="tertiary" /><tag k="lanes" v="2" /><tag k="name" v="南池子大街" /><tag k="oneway" v="no" /></way><way id="11" timestamp="2026-03-30T16:41:05Z" uid="1" user="OSMnx" version="1" changeset="1"><nd ref="733788292" /><nd ref="733788887" /><tag k="highway" v="service" /><tag k="oneway" v="no" /></way><way id="12" timestamp="2026-03-30T16:41:05Z" uid="1" user="OSMnx" version="1" changeset="1"><nd ref="733788292" /><nd ref="733788794" /><tag k="highway" v="tertiary" /><tag k="lanes" v="2" /><tag k="name" v="南池子大街" /><tag k="oneway" v="no" /></way><way id="13" timestamp="2026-03-30T16:41:05Z" uid="1" user="OSMnx" version="1" changeset="1"><nd ref="733788292" /><nd ref="733789032" /><tag k="highway" v="tertiary" /><tag k="lanes" v="2" /><tag k="name" v="南池子大街" /><tag k="oneway" v="no" /></way><way id="14" timestamp="2026-03-30T16:41:05Z" uid="1" user="OSMnx" version="1" changeset="1"><nd ref="733788309" /><nd ref="733788691" /><tag k="highway" v="service" /><tag k="oneway" v="no" /></way><way id="15" timestamp="2026-03-30T16:41:05Z" uid="1" user="OSMnx" version="1" changeset="1"><nd ref="733788309" /><nd ref="6095025078" /><tag k="highway" v="service" /><tag k="oneway" v="no" /></way><way id="16" timestamp="2026-03-30T16:41:05Z" uid="1" user="OSMnx" version="1" changeset="1"><nd ref="733788431" /><nd ref="733788530" /><tag k="highway" v="service" /><tag k="oneway" v="no" /></way><way id="17" timestamp="2026-03-30T16:41:05Z" uid="1" user="OSMnx" version="1" changeset="1"><nd ref="733788431" /><nd ref="2634999449" /><tag k="highway" v="service" /><tag k="oneway" v="no" /></way><way id="18" timestamp="2026-03-30T16:41:05Z" uid="1" user="OSMnx" version="1" changeset="1"><nd ref="733788431" /><nd ref="733789247" /><tag k="highway" v="service" /><tag k="oneway" v="no" /></way><way id="19" timestamp="2026-03-30T16:41:05Z" uid="1" user="OSMnx" version="1" changeset="1"><nd ref="733788474" /><nd ref="733789098" /><tag k="highway" v="residential" /><tag k="oneway" v="no" /></way><way id="20" timestamp="2026-03-30T16:41:05Z" uid="1" user="OSMnx" version="1" changeset="1"><nd ref="733788474" /><nd ref="733788184" /><tag k="highway" v="residential" /><tag k="oneway" v="no" /></way><way id="21" timestamp="2026-03-30T16:41:05Z" uid="1" user="OSMnx" version="1" changeset="1"><nd ref="733788530" /><nd ref="2634999504" /><tag k="highway" v="service" /><tag k="oneway" v="no" /></way><way id="22" timestamp="2026-03-30T16:41:05Z" uid="1" user="OSMnx" version="1" changeset="1"><nd ref="733788530" /><nd ref="733788431" /><tag k="highway" v="service" /><tag k="oneway" v="no" /></way><way id="23" timestamp="2026-03-30T16:41:05Z" uid="1" user="OSMnx" version="1" changeset="1"><nd ref="733788599" /><nd ref="733788681" /><tag k="highway" v="service" /><tag k="oneway" v="no" /></way><way id="24" timestamp="2026-03-30T16:41:05Z" uid="1" user="OSMnx" version="1" changeset="1"><nd ref="733788599" /><nd ref="733788230" /><tag k="highway" v="service" /><tag k="oneway" v="no" /></way><way id="25" timestamp="2026-03-30T16:41:05Z" uid="1" user="OSMnx" version="1" changeset="1"><nd ref="733788658" /><nd ref="733788858" /><tag k="highway" v="service" /><tag k="oneway" v="no" /></way><way id="26" timestamp="2026-03-30T16:41:05Z" uid="1" user="OSMnx" version="1" changeset="1"><nd ref="733788658" /><nd ref="1480544785" /><tag k="highway" v="service" /><tag k="oneway" v="no" /></way><way id="27" timestamp="2026-03-30T16:41:05Z" uid="1" user="OSMnx" version="1" changeset="1"><nd ref="733788681" /><nd ref="733789098" /><tag k="highway" v="residential" /><tag k="oneway" v="no" /></way><way id="28" timestamp="2026-03-30T16:41:05Z" uid="1" user="OSMnx" version="1" changeset="1"><nd ref="733788681" /><nd ref="733788892" /><tag k="highway" v="service" /><tag k="oneway" v="no" /></way><way id="29" timestamp="2026-03-30T16:41:05Z" uid="1" user="OSMnx" version="1" changeset="1"><nd ref="733788681" /><nd ref="733788599" /><tag k="highway" v="service" /><tag k="oneway" v="no" /></way><way id="30" timestamp="2026-03-30T16:41:05Z" uid="1" user="OSMnx" version="1" changeset="1"><nd ref="733788691" /><nd ref="733789098" /><tag k="highway" v="residential" /><tag k="oneway" v="no" /></way><way id="31" timestamp="2026-03-30T16:41:05Z" uid="1" user="OSMnx" version="1" changeset="1"><nd ref="733788691" /><nd ref="733788309" /><tag k="highway" v="service" /><tag k="oneway" v="no" /></way><way id="32" timestamp="2026-03-30T16:41:05Z" uid="1" user="OSMnx" version="1" changeset="1"><nd ref="733788789" /><nd ref="733789247" /><tag k="highway" v="service" /><tag k="oneway" v="no" /></way><way id="33" timestamp="2026-03-30T16:41:05Z" uid="1" user="OSMnx" version="1" changeset="1"><nd ref="733788789" /><nd ref="733788892" /><tag k="highway" v="service" /><tag k="oneway" v="no" /></way><way id="34" timestamp="2026-03-30T16:41:05Z" uid="1" user="OSMnx" version="1" changeset="1"><nd ref="733788794" /><nd ref="733788230" /><tag k="highway" v="service" /><tag k="oneway" v="no" /></way><way id="35" timestamp="2026-03-30T16:41:05Z" uid="1" user="OSMnx" version="1" changeset="1"><nd ref="733788794" /><nd ref="733788263" /><tag k="highway" v="tertiary" /><tag k="lanes" v="2" /><tag k="name" v="南池子大街" /><tag k="oneway" v="no" /></way><way id="36" timestamp="2026-03-30T16:41:05Z" uid="1" user="OSMnx" version="1" changeset="1"><nd ref="733788794" /><nd ref="733788292" /><tag k="highway" v="tertiary" /><tag k="lanes" v="2" /><tag k="name" v="南池子大街" /><tag k="oneway" v="no" /></way><way id="37" timestamp="2026-03-30T16:41:05Z" uid="1" user="OSMnx" version="1" changeset="1"><nd ref="733788854" /><nd ref="733789032" /><tag k="highway" v="service" /><tag k="oneway" v="no" /></way><way id="38" timestamp="2026-03-30T16:41:05Z" uid="1" user="OSMnx" version="1" changeset="1"><nd ref="733788858" /><nd ref="733789295" /><tag k="highway" v="service" /><tag k="oneway" v="no" /></way><way id="39" timestamp="2026-03-30T16:41:05Z" uid="1" user="OSMnx" version="1" changeset="1"><nd ref="733788858" /><nd ref="733788658" /><tag k="highway" v="service" /><tag k="oneway" v="no" /></way><way id="40" timestamp="2026-03-30T16:41:05Z" uid="1" user="OSMnx" version="1" changeset="1"><nd ref="733788887" /><nd ref="733788292" /><tag k="highway" v="service" /><tag k="oneway" v="no" /></way><way id="41" timestamp="2026-03-30T16:41:05Z" uid="1" user="OSMnx" version="1" changeset="1"><nd ref="733788887" /><nd ref="2634999504" /><tag k="highway" v="service" /><tag k="oneway" v="no" /></way><way id="42" timestamp="2026-03-30T16:41:05Z" uid="1" user="OSMnx" version="1" changeset="1"><nd ref="733788892" /><nd ref="733788789" /><tag k="highway" v="service" /><tag k="oneway" v="no" /></way><way id="43" timestamp="2026-03-30T16:41:05Z" uid="1" user="OSMnx" version="1" changeset="1"><nd ref="733788892" /><nd ref="733788681" /><tag k="highway" v="service" /><tag k="oneway" v="no" /></way><way id="44" timestamp="2026-03-30T16:41:05Z" uid="1" user="OSMnx" version="1" changeset="1"><nd ref="733789032" /><nd ref="733788854" /><tag k="highway" v="service" /><tag k="oneway" v="no" /></way><way id="45" timestamp="2026-03-30T16:41:05Z" uid="1" user="OSMnx" version="1" changeset="1"><nd ref="733789032" /><nd ref="733788292" /><tag k="highway" v="tertiary" /><tag k="lanes" v="2" /><tag k="name" v="南池子大街" /><tag k="oneway" v="no" /></way><way id="46" timestamp="2026-03-30T16:41:05Z" uid="1" user="OSMnx" version="1" changeset="1"><nd ref="733789032" /><nd ref="6448666076" /><tag k="highway" v="tertiary" /><tag k="lanes" v="2" /><tag k="name" v="南池子大街" /><tag k="oneway" v="no" /></way><way id="47" timestamp="2026-03-30T16:41:05Z" uid="1" user="OSMnx" version="1" changeset="1"><nd ref="733789090" /><nd ref="533628250" /><tag k="highway" v="service" /><tag k="name" v="南湾子胡同" /><tag k="oneway" v="no" /></way><way id="48" timestamp="2026-03-30T16:41:05Z" uid="1" user="OSMnx" version="1" changeset="1"><nd ref="733789090" /><nd ref="1858572385" /><tag k="highway" v="service" /><tag k="oneway" v="no" /></way><way id="49" timestamp="2026-03-30T16:41:05Z" uid="1" user="OSMnx" version="1" changeset="1"><nd ref="733789098" /><nd ref="733788474" /><tag k="highway" v="residential" /><tag k="oneway" v="no" /></way><way id="50" timestamp="2026-03-30T16:41:05Z" uid="1" user="OSMnx" version="1" changeset="1"><nd ref="733789098" /><nd ref="733788681" /><tag k="highway" v="residential" /><tag k="oneway" v="no" /></way><way id="51" timestamp="2026-03-30T16:41:05Z" uid="1" user="OSMnx" version="1" changeset="1"><nd ref="733789098" /><nd ref="733788691" /><tag k="highway" v="residential" /><tag k="oneway" v="no" /></way><way id="52" timestamp="2026-03-30T16:41:05Z" uid="1" user="OSMnx" version="1" changeset="1"><nd ref="733789247" /><nd ref="733788431" /><tag k="highway" v="service" /><tag k="oneway" v="no" /></way><way id="53" timestamp="2026-03-30T16:41:05Z" uid="1" user="OSMnx" version="1" changeset="1"><nd ref="733789247" /><nd ref="733789334" /><tag k="highway" v="service" /><tag k="oneway" v="no" /></way><way id="54" timestamp="2026-03-30T16:41:05Z" uid="1" user="OSMnx" version="1" changeset="1"><nd ref="733789247" /><nd ref="733788789" /><tag k="highway" v="service" /><tag k="oneway" v="no" /></way><way id="55" timestamp="2026-03-30T16:41:05Z" uid="1" user="OSMnx" version="1" changeset="1"><nd ref="733789295" /><nd ref="733788858" /><tag k="highway" v="service" /><tag k="oneway" v="no" /></way><way id="56" timestamp="2026-03-30T16:41:05Z" uid="1" user="OSMnx" version="1" changeset="1"><nd ref="733789295" /><nd ref="6448666076" /><tag k="highway" v="tertiary" /><tag k="lanes" v="2" /><tag k="name" v="南池子大街" /><tag k="oneway" v="no" /></way><way id="57" timestamp="2026-03-30T16:41:05Z" uid="1" user="OSMnx" version="1" changeset="1"><nd ref="733789295" /><nd ref="6448666067" /><tag k="highway" v="tertiary" /><tag k="lanes" v="2" /><tag k="name" v="南池子大街" /><tag k="oneway" v="no" /></way><way id="58" timestamp="2026-03-30T16:41:05Z" uid="1" user="OSMnx" version="1" changeset="1"><nd ref="733789334" /><nd ref="733789247" /><tag k="highway" v="service" /><tag k="oneway" v="no" /></way><way id="59" timestamp="2026-03-30T16:41:05Z" uid="1" user="OSMnx" version="1" changeset="1"><nd ref="1480544785" /><nd ref="733788658" /><tag k="highway" v="service" /><tag k="oneway" v="no" /></way><way id="60" timestamp="2026-03-30T16:41:05Z" uid="1" user="OSMnx" version="1" changeset="1"><nd ref="1480544785" /><nd ref="3388590254" /><tag k="highway" v="service" /><tag k="oneway" v="no" /></way><way id="61" timestamp="2026-03-30T16:41:05Z" uid="1" user="OSMnx" version="1" changeset="1"><nd ref="1480544827" /><nd ref="3388590254" /><tag k="highway" v="service" /><tag k="oneway" v="no" /></way><way id="62" timestamp="2026-03-30T16:41:05Z" uid="1" user="OSMnx" version="1" changeset="1"><nd ref="1858572384" /><nd ref="533628250" /><tag k="highway" v="service" /><tag k="name" v="南湾子胡同" /><tag k="oneway" v="no" /></way><way id="63" timestamp="2026-03-30T16:41:05Z" uid="1" user="OSMnx" version="1" changeset="1"><nd ref="1858572384" /><nd ref="6448666071" /><tag k="highway" v="service" /><tag k="oneway" v="no" /></way><way id="64" timestamp="2026-03-30T16:41:05Z" uid="1" user="OSMnx" version="1" changeset="1"><nd ref="1858572384" /><nd ref="6448666072" /><tag k="highway" v="service" /><tag k="oneway" v="no" /></way><way id="65" timestamp="2026-03-30T16:41:05Z" uid="1" user="OSMnx" version="1" changeset="1"><nd ref="1858572385" /><nd ref="733789090" /><tag k="highway" v="service" /><tag k="oneway" v="no" /></way><way id="66" timestamp="2026-03-30T16:41:05Z" uid="1" user="OSMnx" version="1" changeset="1"><nd ref="1858572385" /><nd ref="2634999449" /><tag k="highway" v="service" /><tag k="oneway" v="no" /></way><way id="67" timestamp="2026-03-30T16:41:05Z" uid="1" user="OSMnx" version="1" changeset="1"><nd ref="2634999449" /><nd ref="1858572385" /><tag k="highway" v="service" /><tag k="oneway" v="no" /></way><way id="68" timestamp="2026-03-30T16:41:05Z" uid="1" user="OSMnx" version="1" changeset="1"><nd ref="2634999449" /><nd ref="733788431" /><tag k="highway" v="service" /><tag k="oneway" v="no" /></way><way id="69" timestamp="2026-03-30T16:41:05Z" uid="1" user="OSMnx" version="1" changeset="1"><nd ref="2634999504" /><nd ref="733788887" /><tag k="highway" v="service" /><tag k="oneway" v="no" /></way><way id="70" timestamp="2026-03-30T16:41:05Z" uid="1" user="OSMnx" version="1" changeset="1"><nd ref="2634999504" /><nd ref="733788530" /><tag k="highway" v="service" /><tag k="oneway" v="no" /></way><way id="71" timestamp="2026-03-30T16:41:05Z" uid="1" user="OSMnx" version="1" changeset="1"><nd ref="3388590254" /><nd ref="1480544785" /><tag k="highway" v="service" /><tag k="oneway" v="no" /></way><way id="72" timestamp="2026-03-30T16:41:05Z" uid="1" user="OSMnx" version="1" changeset="1"><nd ref="3388590254" /><nd ref="1480544827" /><tag k="highway" v="service" /><tag k="oneway" v="no" /></way><way id="73" timestamp="2026-03-30T16:41:05Z" uid="1" user="OSMnx" version="1" changeset="1"><nd ref="3388590254" /><nd ref="3388590255" /><tag k="highway" v="service" /><tag k="oneway" v="no" /></way><way id="74" timestamp="2026-03-30T16:41:05Z" uid="1" user="OSMnx" version="1" changeset="1"><nd ref="3388590255" /><nd ref="3388590254" /><tag k="highway" v="service" /><tag k="oneway" v="no" /></way><way id="75" timestamp="2026-03-30T16:41:05Z" uid="1" user="OSMnx" version="1" changeset="1"><nd ref="3388590255" /><nd ref="3388590290" /><tag k="highway" v="service" /><tag k="oneway" v="no" /></way><way id="76" timestamp="2026-03-30T16:41:05Z" uid="1" user="OSMnx" version="1" changeset="1"><nd ref="3388590290" /><nd ref="3388590255" /><tag k="highway" v="service" /><tag k="oneway" v="no" /></way><way id="77" timestamp="2026-03-30T16:41:05Z" uid="1" user="OSMnx" version="1" changeset="1"><nd ref="3388590290" /><nd ref="3388590342" /><tag k="highway" v="service" /><tag k="oneway" v="no" /></way><way id="78" timestamp="2026-03-30T16:41:05Z" uid="1" user="OSMnx" version="1" changeset="1"><nd ref="3388590342" /><nd ref="3388590290" /><tag k="highway" v="service" /><tag k="oneway" v="no" /></way><way id="79" timestamp="2026-03-30T16:41:05Z" uid="1" user="OSMnx" version="1" changeset="1"><nd ref="3388590342" /><nd ref="3388590561" /><tag k="highway" v="service" /><tag k="oneway" v="no" /></way><way id="80" timestamp="2026-03-30T16:41:05Z" uid="1" user="OSMnx" version="1" changeset="1"><nd ref="3388590561" /><nd ref="3388590342" /><tag k="highway" v="service" /><tag k="oneway" v="no" /></way><way id="81" timestamp="2026-03-30T16:41:05Z" uid="1" user="OSMnx" version="1" changeset="1"><nd ref="5908244201" /><nd ref="733788263" /><tag k="highway" v="tertiary" /><tag k="lanes" v="2" /><tag k="name" v="南池子大街" /><tag k="oneway" v="no" /></way><way id="82" timestamp="2026-03-30T16:41:05Z" uid="1" user="OSMnx" version="1" changeset="1"><nd ref="5908244201" /><nd ref="5908244202" /><tag k="highway" v="service" /><tag k="oneway" v="no" /></way><way id="83" timestamp="2026-03-30T16:41:05Z" uid="1" user="OSMnx" version="1" changeset="1"><nd ref="5908244202" /><nd ref="5908244201" /><tag k="highway" v="service" /><tag k="oneway" v="no" /></way><way id="84" timestamp="2026-03-30T16:41:05Z" uid="1" user="OSMnx" version="1" changeset="1"><nd ref="6095025078" /><nd ref="733788309" /><tag k="highway" v="service" /><tag k="oneway" v="no" /></way><way id="85" timestamp="2026-03-30T16:41:05Z" uid="1" user="OSMnx" version="1" changeset="1"><nd ref="6098824838" /><nd ref="6098824839" /><tag k="highway" v="footway" /><tag k="oneway" v="no" /></way><way id="86" timestamp="2026-03-30T16:41:05Z" uid="1" user="OSMnx" version="1" changeset="1"><nd ref="6098824839" /><nd ref="8742615452" /><tag k="highway" v="footway" /><tag k="oneway" v="no" /></way><way id="87" timestamp="2026-03-30T16:41:05Z" uid="1" user="OSMnx" version="1" changeset="1"><nd ref="6098824839" /><nd ref="6098824838" /><tag k="highway" v="footway" /><tag k="oneway" v="no" /></way><way id="88" timestamp="2026-03-30T16:41:05Z" uid="1" user="OSMnx" version="1" changeset="1"><nd ref="6421400596" /><nd ref="6421400609" /><tag k="highway" v="footway" /><tag k="oneway" v="no" /></way><way id="89" timestamp="2026-03-30T16:41:05Z" uid="1" user="OSMnx" version="1" changeset="1"><nd ref="6421400609" /><nd ref="6421400620" /><tag k="highway" v="footway" /><tag k="oneway" v="no" /></way><way id="90" timestamp="2026-03-30T16:41:05Z" uid="1" user="OSMnx" version="1" changeset="1"><nd ref="6421400609" /><nd ref="6421400596" /><tag k="highway" v="footway" /><tag k="oneway" v="no" /></way><way id="91" timestamp="2026-03-30T16:41:05Z" uid="1" user="OSMnx" version="1" changeset="1"><nd ref="6421400615" /><nd ref="6421400618" /><tag k="highway" v="footway" /><tag k="oneway" v="no" /></way><way id="92" timestamp="2026-03-30T16:41:05Z" uid="1" user="OSMnx" version="1" changeset="1"><nd ref="6421400618" /><nd ref="6421400621" /><tag k="highway" v="footway" /><tag k="oneway" v="no" /></way><way id="93" timestamp="2026-03-30T16:41:05Z" uid="1" user="OSMnx" version="1" changeset="1"><nd ref="6421400618" /><nd ref="6421400615" /><tag k="highway" v="footway" /><tag k="oneway" v="no" /></way><way id="94" timestamp="2026-03-30T16:41:05Z" uid="1" user="OSMnx" version="1" changeset="1"><nd ref="6421400620" /><nd ref="6421400609" /><tag k="highway" v="footway" /><tag k="oneway" v="no" /></way><way id="95" timestamp="2026-03-30T16:41:05Z" uid="1" user="OSMnx" version="1" changeset="1"><nd ref="6421400620" /><nd ref="733788152" /><tag k="highway" v="footway" /><tag k="oneway" v="no" /></way><way id="96" timestamp="2026-03-30T16:41:05Z" uid="1" user="OSMnx" version="1" changeset="1"><nd ref="6421400621" /><nd ref="733788152" /><tag k="highway" v="footway" /><tag k="oneway" v="no" /></way><way id="97" timestamp="2026-03-30T16:41:05Z" uid="1" user="OSMnx" version="1" changeset="1"><nd ref="6421400621" /><nd ref="6421400618" /><tag k="highway" v="footway" /><tag k="oneway" v="no" /></way><way id="98" timestamp="2026-03-30T16:41:05Z" uid="1" user="OSMnx" version="1" changeset="1"><nd ref="6448654228" /><nd ref="6448654229" /><tag k="highway" v="footway" /><tag k="oneway" v="no" /></way><way id="99" timestamp="2026-03-30T16:41:05Z" uid="1" user="OSMnx" version="1" changeset="1"><nd ref="6448654228" /><nd ref="6448654242" /><tag k="highway" v="footway" /><tag k="oneway" v="no" /></way><way id="100" timestamp="2026-03-30T16:41:05Z" uid="1" user="OSMnx" version="1" changeset="1"><nd ref="6448654228" /><nd ref="6448654237" /><tag k="highway" v="footway" /><tag k="oneway" v="no" /></way><way id="101" timestamp="2026-03-30T16:41:05Z" uid="1" user="OSMnx" version="1" changeset="1"><nd ref="6448654229" /><nd ref="6448654228" /><tag k="highway" v="footway" /><tag k="oneway" v="no" /></way><way id="102" timestamp="2026-03-30T16:41:05Z" uid="1" user="OSMnx" version="1" changeset="1"><nd ref="6448654229" /><nd ref="6448654254" /><tag k="highway" v="footway" /><tag k="oneway" v="no" /></way><way id="103" timestamp="2026-03-30T16:41:05Z" uid="1" user="OSMnx" version="1" changeset="1"><nd ref="6448654229" /><nd ref="6448654257" /><tag k="highway" v="footway" /><tag k="oneway" v="no" /></way><way id="104" timestamp="2026-03-30T16:41:05Z" uid="1" user="OSMnx" version="1" changeset="1"><nd ref="6448654230" /><nd ref="6448654231" /><tag k="highway" v="footway" /><tag k="oneway" v="no" /></way><way id="105" timestamp="2026-03-30T16:41:05Z" uid="1" user="OSMnx" version="1" changeset="1"><nd ref="6448654230" /><nd ref="6448654240" /><tag k="highway" v="footway" /><tag k="oneway" v="no" /></way><way id="106" timestamp="2026-03-30T16:41:05Z" uid="1" user="OSMnx" version="1" changeset="1"><nd ref="6448654230" /><nd ref="6448654241" /><tag k="highway" v="footway" /><tag k="oneway" v="no" /></way><way id="107" timestamp="2026-03-30T16:41:05Z" uid="1" user="OSMnx" version="1" changeset="1"><nd ref="6448654231" /><nd ref="6448654230" /><tag k="highway" v="footway" /><tag k="oneway" v="no" /></way><way id="108" timestamp="2026-03-30T16:41:05Z" uid="1" user="OSMnx" version="1" changeset="1"><nd ref="6448654231" /><nd ref="6448654259" /><tag k="highway" v="footway" /><tag k="oneway" v="no" /></way><way id="109" timestamp="2026-03-30T16:41:05Z" uid="1" user="OSMnx" version="1" changeset="1"><nd ref="6448654231" /><nd ref="6448654256" /><tag k="highway" v="footway" /><tag k="oneway" v="no" /></way><way id="110" timestamp="2026-03-30T16:41:05Z" uid="1" user="OSMnx" version="1" changeset="1"><nd ref="6448654232" /><nd ref="6448654272" /><tag k="highway" v="footway" /><tag k="oneway" v="no" /></way><way id="111" timestamp="2026-03-30T16:41:05Z" uid="1" user="OSMnx" version="1" changeset="1"><nd ref="6448654232" /><nd ref="6448654235" /><tag k="highway" v="footway" /><tag k="oneway" v="no" /></way><way id="112" timestamp="2026-03-30T16:41:05Z" uid="1" user="OSMnx" version="1" changeset="1"><nd ref="6448654232" /><nd ref="6448654234" /><tag k="highway" v="footway" /><tag k="oneway" v="no" /></way><way id="113" timestamp="2026-03-30T16:41:05Z" uid="1" user="OSMnx" version="1" changeset="1"><nd ref="6448654233" /><nd ref="6448654274" /><tag k="highway" v="footway" /><tag k="oneway" v="no" /></way><way id="114" timestamp="2026-03-30T16:41:05Z" uid="1" user="OSMnx" version="1" changeset="1"><nd ref="6448654233" /><nd ref="6448654234" /><tag k="highway" v="footway" /><tag k="oneway" v="no" /></way><way id="115" timestamp="2026-03-30T16:41:05Z" uid="1" user="OSMnx" version="1" changeset="1"><nd ref="6448654233" /><nd ref="6448654236" /><tag k="highway" v="footway" /><tag k="oneway" v="no" /></way><way id="116" timestamp="2026-03-30T16:41:05Z" uid="1" user="OSMnx" version="1" changeset="1"><nd ref="6448654234" /><nd ref="6448654232" /><tag k="highway" v="footway" /><tag k="oneway" v="no" /></way><way id="117" timestamp="2026-03-30T16:41:05Z" uid="1" user="OSMnx" version="1" changeset="1"><nd ref="6448654234" /><nd ref="6448654233" /><tag k="highway" v="footway" /><tag k="oneway" v="no" /></way><way id="118" timestamp="2026-03-30T16:41:05Z" uid="1" user="OSMnx" version="1" changeset="1"><nd ref="6448654234" /><nd ref="6448654262" /><tag k="highway" v="footway" /><tag k="oneway" v="no" /></way><way id="119" timestamp="2026-03-30T16:41:05Z" uid="1" user="OSMnx" version="1" changeset="1"><nd ref="6448654234" /><nd ref="6448654282" /><tag k="highway" v="footway" /><tag k="oneway" v="no" /></way><way id="120" timestamp="2026-03-30T16:41:05Z" uid="1" user="OSMnx" version="1" changeset="1"><nd ref="6448654235" /><nd ref="6448654241" /><tag k="highway" v="steps" /><tag k="oneway" v="no" /></way><way id="121" timestamp="2026-03-30T16:41:05Z" uid="1" user="OSMnx" version="1" changeset="1"><nd ref="6448654235" /><nd ref="6448654232" /><tag k="highway" v="footway" /><tag k="oneway" v="no" /></way><way id="122" timestamp="2026-03-30T16:41:05Z" uid="1" user="OSMnx" version="1" changeset="1"><nd ref="6448654236" /><nd ref="6448654233" /><tag k="highway" v="footway" /><tag k="oneway" v="no" /></way><way id="123" timestamp="2026-03-30T16:41:05Z" uid="1" user="OSMnx" version="1" changeset="1"><nd ref="6448654236" /><nd ref="6448654242" /><tag k="highway" v="steps" /><tag k="oneway" v="no" /></way><way id="124" timestamp="2026-03-30T16:41:05Z" uid="1" user="OSMnx" version="1" changeset="1"><nd ref="6448654237" /><nd ref="6448654228" /><tag k="highway" v="footway" /><tag k="oneway" v="no" /></way><way id="125" timestamp="2026-03-30T16:41:05Z" uid="1" user="OSMnx" version="1" changeset="1"><nd ref="6448654237" /><nd ref="6448654238" /><tag k="highway" v="footway" /><tag k="oneway" v="no" /></way><way id="126" timestamp="2026-03-30T16:41:05Z" uid="1" user="OSMnx" version="1" changeset="1"><nd ref="6448654238" /><nd ref="6448654237" /><tag k="highway" v="footway" /><tag k="oneway" v="no" /></way><way id="127" timestamp="2026-03-30T16:41:05Z" uid="1" user="OSMnx" version="1" changeset="1"><nd ref="6448654238" /><nd ref="6448654239" /><tag k="highway" v="footway" /><tag k="oneway" v="no" /></way><way id="128" timestamp="2026-03-30T16:41:05Z" uid="1" user="OSMnx" version="1" changeset="1"><nd ref="6448654239" /><nd ref="6448654238" /><tag k="highway" v="footway" /><tag k="oneway" v="no" /></way><way id="129" timestamp="2026-03-30T16:41:05Z" uid="1" user="OSMnx" version="1" changeset="1"><nd ref="6448654239" /><nd ref="6448654240" /><tag k="highway" v="footway" /><tag k="oneway" v="no" /></way><way id="130" timestamp="2026-03-30T16:41:05Z" uid="1" user="OSMnx" version="1" changeset="1"><nd ref="6448654240" /><nd ref="6448654239" /><tag k="highway" v="footway" /><tag k="oneway" v="no" /></way><way id="131" timestamp="2026-03-30T16:41:05Z" uid="1" user="OSMnx" version="1" changeset="1"><nd ref="6448654240" /><nd ref="6448654230" /><tag k="highway" v="footway" /><tag k="oneway" v="no" /></way><way id="132" timestamp="2026-03-30T16:41:05Z" uid="1" user="OSMnx" version="1" changeset="1"><nd ref="6448654241" /><nd ref="6448654235" /><tag k="highway" v="steps" /><tag k="oneway" v="no" /></way><way id="133" timestamp="2026-03-30T16:41:05Z" uid="1" user="OSMnx" version="1" changeset="1"><nd ref="6448654241" /><nd ref="6448654230" /><tag k="highway" v="footway" /><tag k="oneway" v="no" /></way><way id="134" timestamp="2026-03-30T16:41:05Z" uid="1" user="OSMnx" version="1" changeset="1"><nd ref="6448654242" /><nd ref="6448654236" /><tag k="highway" v="steps" /><tag k="oneway" v="no" /></way><way id="135" timestamp="2026-03-30T16:41:05Z" uid="1" user="OSMnx" version="1" changeset="1"><nd ref="6448654242" /><nd ref="6448654228" /><tag k="highway" v="footway" /><tag k="oneway" v="no" /></way><way id="136" timestamp="2026-03-30T16:41:05Z" uid="1" user="OSMnx" version="1" changeset="1"><nd ref="6448654243" /><nd ref="6448654255" /><tag k="highway" v="footway" /><tag k="oneway" v="no" /></way><way id="137" timestamp="2026-03-30T16:41:05Z" uid="1" user="OSMnx" version="1" changeset="1"><nd ref="6448654243" /><nd ref="6448654256" /><tag k="highway" v="footway" /><tag k="oneway" v="no" /></way><way id="138" timestamp="2026-03-30T16:41:05Z" uid="1" user="OSMnx" version="1" changeset="1"><nd ref="6448654244" /><nd ref="6448654253" /><tag k="highway" v="footway" /><tag k="oneway" v="no" /></way><way id="139" timestamp="2026-03-30T16:41:05Z" uid="1" user="OSMnx" version="1" changeset="1"><nd ref="6448654244" /><nd ref="6448654254" /><tag k="highway" v="footway" /><tag k="oneway" v="no" /></way><way id="140" timestamp="2026-03-30T16:41:05Z" uid="1" user="OSMnx" version="1" changeset="1"><nd ref="6448654253" /><nd ref="6448654244" /><tag k="highway" v="footway" /><tag k="oneway" v="no" /></way><way id="141" timestamp="2026-03-30T16:41:05Z" uid="1" user="OSMnx" version="1" changeset="1"><nd ref="6448654254" /><nd ref="6448654244" /><tag k="highway" v="footway" /><tag k="oneway" v="no" /></way><way id="142" timestamp="2026-03-30T16:41:05Z" uid="1" user="OSMnx" version="1" changeset="1"><nd ref="6448654254" /><nd ref="6448654268" /><tag k="highway" v="footway" /><tag k="oneway" v="no" /></way><way id="143" timestamp="2026-03-30T16:41:05Z" uid="1" user="OSMnx" version="1" changeset="1"><nd ref="6448654254" /><nd ref="6448654229" /><tag k="highway" v="footway" /><tag k="oneway" v="no" /></way><way id="144" timestamp="2026-03-30T16:41:05Z" uid="1" user="OSMnx" version="1" changeset="1"><nd ref="6448654255" /><nd ref="6448654243" /><tag k="highway" v="footway" /><tag k="oneway" v="no" /></way><way id="145" timestamp="2026-03-30T16:41:05Z" uid="1" user="OSMnx" version="1" changeset="1"><nd ref="6448654256" /><nd ref="6448654243" /><tag k="highway" v="footway" /><tag k="oneway" v="no" /></way><way id="146" timestamp="2026-03-30T16:41:05Z" uid="1" user="OSMnx" version="1" changeset="1"><nd ref="6448654256" /><nd ref="6448654231" /><tag k="highway" v="footway" /><tag k="oneway" v="no" /></way><way id="147" timestamp="2026-03-30T16:41:05Z" uid="1" user="OSMnx" version="1" changeset="1"><nd ref="6448654256" /><nd ref="6448654269" /><tag k="highway" v="footway" /><tag k="oneway" v="no" /></way><way id="148" timestamp="2026-03-30T16:41:05Z" uid="1" user="OSMnx" version="1" changeset="1"><nd ref="6448654257" /><nd ref="6448654258" /><tag k="highway" v="steps" /><tag k="oneway" v="no" /></way><way id="149" timestamp="2026-03-30T16:41:05Z" uid="1" user="OSMnx" version="1" changeset="1"><nd ref="6448654257" /><nd ref="6448654229" /><tag k="highway" v="footway" /><tag k="oneway" v="no" /></way><way id="150" timestamp="2026-03-30T16:41:05Z" uid="1" user="OSMnx" version="1" changeset="1"><nd ref="6448654258" /><nd ref="6448654257" /><tag k="highway" v="steps" /><tag k="oneway" v="no" /></way><way id="151" timestamp="2026-03-30T16:41:05Z" uid="1" user="OSMnx" version="1" changeset="1"><nd ref="6448654258" /><nd ref="6448654280" /><tag k="highway" v="footway" /><tag k="oneway" v="no" /></way><way id="152" timestamp="2026-03-30T16:41:05Z" uid="1" user="OSMnx" version="1" changeset="1"><nd ref="6448654259" /><nd ref="6448654260" /><tag k="highway" v="steps" /><tag k="oneway" v="no" /></way><way id="153" timestamp="2026-03-30T16:41:05Z" uid="1" user="OSMnx" version="1" changeset="1"><nd ref="6448654259" /><nd ref="6448654231" /><tag k="highway" v="footway" /><tag k="oneway" v="no" /></way><way id="154" timestamp="2026-03-30T16:41:05Z" uid="1" user="OSMnx" version="1" changeset="1"><nd ref="6448654260" /><nd ref="6448654279" /><tag k="highway" v="footway" /><tag k="oneway" v="no" /></way><way id="155" timestamp="2026-03-30T16:41:05Z" uid="1" user="OSMnx" version="1" changeset="1"><nd ref="6448654260" /><nd ref="6448654259" /><tag k="highway" v="steps" /><tag k="oneway" v="no" /></way><way id="156" timestamp="2026-03-30T16:41:05Z" uid="1" user="OSMnx" version="1" changeset="1"><nd ref="6448654261" /><nd ref="6448654262" /><tag k="highway" v="steps" /><tag k="oneway" v="no" /></way><way id="157" timestamp="2026-03-30T16:41:05Z" uid="1" user="OSMnx" version="1" changeset="1"><nd ref="6448654261" /><nd ref="6448654270" /><tag k="highway" v="footway" /><tag k="oneway" v="no" /></way><way id="158" timestamp="2026-03-30T16:41:05Z" uid="1" user="OSMnx" version="1" changeset="1"><nd ref="6448654262" /><nd ref="6448654261" /><tag k="highway" v="steps" /><tag k="oneway" v="no" /></way><way id="159" timestamp="2026-03-30T16:41:05Z" uid="1" user="OSMnx" version="1" changeset="1"><nd ref="6448654262" /><nd ref="6448654234" /><tag k="highway" v="footway" /><tag k="oneway" v="no" /></way><way id="160" timestamp="2026-03-30T16:41:05Z" uid="1" user="OSMnx" version="1" changeset="1"><nd ref="6448654263" /><nd ref="6448654272" /><tag k="highway" v="steps" /><tag k="oneway" v="no" /></way><way id="161" timestamp="2026-03-30T16:41:05Z" uid="1" user="OSMnx" version="1" changeset="1"><nd ref="6448654263" /><nd ref="6448654269" /><tag k="highway" v="footway" /><tag k="oneway" v="no" /></way><way id="162" timestamp="2026-03-30T16:41:05Z" uid="1" user="OSMnx" version="1" changeset="1"><nd ref="6448654264" /><nd ref="6448654274" /><tag k="highway" v="steps" /><tag k="oneway" v="no" /></way><way id="163" timestamp="2026-03-30T16:41:05Z" uid="1" user="OSMnx" version="1" changeset="1"><nd ref="6448654264" /><nd ref="6448654268" /><tag k="highway" v="footway" /><tag k="oneway" v="no" /></way><way id="164" timestamp="2026-03-30T16:41:05Z" uid="1" user="OSMnx" version="1" changeset="1"><nd ref="6448654265" /><nd ref="6448654271" /><tag k="highway" v="footway" /><tag k="oneway" v="no" /></way><way id="165" timestamp="2026-03-30T16:41:05Z" uid="1" user="OSMnx" version="1" changeset="1"><nd ref="6448654265" /><nd ref="6448654269" /><tag k="highway" v="footway" /><tag k="oneway" v="no" /></way><way id="166" timestamp="2026-03-30T16:41:05Z" uid="1" user="OSMnx" version="1" changeset="1"><nd ref="6448654266" /><nd ref="6448654281" /><tag k="highway" v="footway" /><tag k="oneway" v="no" /></way><way id="167" timestamp="2026-03-30T16:41:05Z" uid="1" user="OSMnx" version="1" changeset="1"><nd ref="6448654266" /><nd ref="6448654270" /><tag k="highway" v="footway" /><tag k="oneway" v="no" /></way><way id="168" timestamp="2026-03-30T16:41:05Z" uid="1" user="OSMnx" version="1" changeset="1"><nd ref="6448654267" /><nd ref="6448654273" /><tag k="highway" v="footway" /><tag k="oneway" v="no" /></way><way id="169" timestamp="2026-03-30T16:41:05Z" uid="1" user="OSMnx" version="1" changeset="1"><nd ref="6448654267" /><nd ref="6448654268" /><tag k="highway" v="footway" /><tag k="oneway" v="no" /></way><way id="170" timestamp="2026-03-30T16:41:05Z" uid="1" user="OSMnx" version="1" changeset="1"><nd ref="6448654268" /><nd ref="6448654267" /><tag k="highway" v="footway" /><tag k="oneway" v="no" /></way><way id="171" timestamp="2026-03-30T16:41:05Z" uid="1" user="OSMnx" version="1" changeset="1"><nd ref="6448654268" /><nd ref="6448654264" /><tag k="highway" v="footway" /><tag k="oneway" v="no" /></way><way id="172" timestamp="2026-03-30T16:41:05Z" uid="1" user="OSMnx" version="1" changeset="1"><nd ref="6448654268" /><nd ref="6448654270" /><tag k="highway" v="footway" /><tag k="oneway" v="no" /></way><way id="173" timestamp="2026-03-30T16:41:05Z" uid="1" user="OSMnx" version="1" changeset="1"><nd ref="6448654268" /><nd ref="6448654254" /><tag k="highway" v="footway" /><tag k="oneway" v="no" /></way><way id="174" timestamp="2026-03-30T16:41:05Z" uid="1" user="OSMnx" version="1" changeset="1"><nd ref="6448654269" /><nd ref="6448654265" /><tag k="highway" v="footway" /><tag k="oneway" v="no" /></way><way id="175" timestamp="2026-03-30T16:41:05Z" uid="1" user="OSMnx" version="1" changeset="1"><nd ref="6448654269" /><nd ref="6448654263" /><tag k="highway" v="footway" /><tag k="oneway" v="no" /></way><way id="176" timestamp="2026-03-30T16:41:05Z" uid="1" user="OSMnx" version="1" changeset="1"><nd ref="6448654269" /><nd ref="6448654256" /><tag k="highway" v="footway" /><tag k="oneway" v="no" /></way><way id="177" timestamp="2026-03-30T16:41:05Z" uid="1" user="OSMnx" version="1" changeset="1"><nd ref="6448654269" /><nd ref="6448654270" /><tag k="highway" v="footway" /><tag k="oneway" v="no" /></way><way id="178" timestamp="2026-03-30T16:41:05Z" uid="1" user="OSMnx" version="1" changeset="1"><nd ref="6448654270" /><nd ref="6448654269" /><tag k="highway" v="footway" /><tag k="oneway" v="no" /></way><way id="179" timestamp="2026-03-30T16:41:05Z" uid="1" user="OSMnx" version="1" changeset="1"><nd ref="6448654270" /><nd ref="6448654268" /><tag k="highway" v="footway" /><tag k="oneway" v="no" /></way><way id="180" timestamp="2026-03-30T16:41:05Z" uid="1" user="OSMnx" version="1" changeset="1"><nd ref="6448654270" /><nd ref="6448654266" /><tag k="highway" v="footway" /><tag k="oneway" v="no" /></way><way id="181" timestamp="2026-03-30T16:41:05Z" uid="1" user="OSMnx" version="1" changeset="1"><nd ref="6448654270" /><nd ref="6448654261" /><tag k="highway" v="footway" /><tag k="oneway" v="no" /></way><way id="182" timestamp="2026-03-30T16:41:05Z" uid="1" user="OSMnx" version="1" changeset="1"><nd ref="6448654271" /><nd ref="6448654265" /><tag k="highway" v="footway" /><tag k="oneway" v="no" /></way><way id="183" timestamp="2026-03-30T16:41:05Z" uid="1" user="OSMnx" version="1" changeset="1"><nd ref="6448654272" /><nd ref="6448654232" /><tag k="highway" v="footway" /><tag k="oneway" v="no" /></way><way id="184" timestamp="2026-03-30T16:41:05Z" uid="1" user="OSMnx" version="1" changeset="1"><nd ref="6448654272" /><nd ref="6448654263" /><tag k="highway" v="steps" /><tag k="oneway" v="no" /></way><way id="185" timestamp="2026-03-30T16:41:05Z" uid="1" user="OSMnx" version="1" changeset="1"><nd ref="6448654273" /><nd ref="6448654267" /><tag k="highway" v="footway" /><tag k="oneway" v="no" /></way><way id="186" timestamp="2026-03-30T16:41:05Z" uid="1" user="OSMnx" version="1" changeset="1"><nd ref="6448654274" /><nd ref="6448654233" /><tag k="highway" v="footway" /><tag k="oneway" v="no" /></way><way id="187" timestamp="2026-03-30T16:41:05Z" uid="1" user="OSMnx" version="1" changeset="1"><nd ref="6448654274" /><nd ref="6448654264" /><tag k="highway" v="steps" /><tag k="oneway" v="no" /></way><way id="188" timestamp="2026-03-30T16:41:05Z" uid="1" user="OSMnx" version="1" changeset="1"><nd ref="6448654279" /><nd ref="6448654260" /><tag k="highway" v="footway" /><tag k="oneway" v="no" /></way><way id="189" timestamp="2026-03-30T16:41:05Z" uid="1" user="OSMnx" version="1" changeset="1"><nd ref="6448654280" /><nd ref="6448654258" /><tag k="highway" v="footway" /><tag k="oneway" v="no" /></way><way id="190" timestamp="2026-03-30T16:41:05Z" uid="1" user="OSMnx" version="1" changeset="1"><nd ref="6448654281" /><nd ref="6448654266" /><tag k="highway" v="footway" /><tag k="oneway" v="no" /></way><way id="191" timestamp="2026-03-30T16:41:05Z" uid="1" user="OSMnx" version="1" changeset="1"><nd ref="6448654281" /><nd ref="8809675603" /><tag k="highway" v="footway" /><tag k="oneway" v="no" /></way><way id="192" timestamp="2026-03-30T16:41:05Z" uid="1" user="OSMnx" version="1" changeset="1"><nd ref="6448654282" /><nd ref="6448654234" /><tag k="highway" v="footway" /><tag k="oneway" v="no" /></way><way id="193" timestamp="2026-03-30T16:41:05Z" uid="1" user="OSMnx" version="1" changeset="1"><nd ref="6448666067" /><nd ref="733789295" /><tag k="highway" v="tertiary" /><tag k="lanes" v="2" /><tag k="name" v="南池子大街" /><tag k="oneway" v="no" /></way><way id="194" timestamp="2026-03-30T16:41:05Z" uid="1" user="OSMnx" version="1" changeset="1"><nd ref="6448666069" /><nd ref="6448666075" /><tag k="highway" v="service" /><tag k="oneway" v="no" /></way><way id="195" timestamp="2026-03-30T16:41:05Z" uid="1" user="OSMnx" version="1" changeset="1"><nd ref="6448666069" /><nd ref="8809675599" /><tag k="highway" v="service" /><tag k="oneway" v="no" /></way><way id="196" timestamp="2026-03-30T16:41:05Z" uid="1" user="OSMnx" version="1" changeset="1"><nd ref="6448666070" /><nd ref="6448666071" /><tag k="highway" v="service" /><tag k="oneway" v="no" /></way><way id="197" timestamp="2026-03-30T16:41:05Z" uid="1" user="OSMnx" version="1" changeset="1"><nd ref="6448666071" /><nd ref="6448666070" /><tag k="highway" v="service" /><tag k="oneway" v="no" /></way><way id="198" timestamp="2026-03-30T16:41:05Z" uid="1" user="OSMnx" version="1" changeset="1"><nd ref="6448666071" /><nd ref="1858572384" /><tag k="highway" v="service" /><tag k="oneway" v="no" /></way><way id="199" timestamp="2026-03-30T16:41:05Z" uid="1" user="OSMnx" version="1" changeset="1"><nd ref="6448666072" /><nd ref="1858572384" /><tag k="highway" v="service" /><tag k="oneway" v="no" /></way><way id="200" timestamp="2026-03-30T16:41:05Z" uid="1" user="OSMnx" version="1" changeset="1"><nd ref="6448666072" /><nd ref="6448666073" /><tag k="highway" v="service" /><tag k="oneway" v="no" /></way><way id="201" timestamp="2026-03-30T16:41:05Z" uid="1" user="OSMnx" version="1" changeset="1"><nd ref="6448666073" /><nd ref="6448666072" /><tag k="highway" v="service" /><tag k="oneway" v="no" /></way><way id="202" timestamp="2026-03-30T16:41:05Z" uid="1" user="OSMnx" version="1" changeset="1"><nd ref="6448666073" /><nd ref="6448666074" /><tag k="highway" v="service" /><tag k="oneway" v="no" /></way><way id="203" timestamp="2026-03-30T16:41:05Z" uid="1" user="OSMnx" version="1" changeset="1"><nd ref="6448666074" /><nd ref="6448666073" /><tag k="highway" v="service" /><tag k="oneway" v="no" /></way><way id="204" timestamp="2026-03-30T16:41:05Z" uid="1" user="OSMnx" version="1" changeset="1"><nd ref="6448666074" /><nd ref="6448666075" /><tag k="highway" v="service" /><tag k="oneway" v="no" /></way><way id="205" timestamp="2026-03-30T16:41:05Z" uid="1" user="OSMnx" version="1" changeset="1"><nd ref="6448666075" /><nd ref="6448666074" /><tag k="highway" v="service" /><tag k="oneway" v="no" /></way><way id="206" timestamp="2026-03-30T16:41:05Z" uid="1" user="OSMnx" version="1" changeset="1"><nd ref="6448666075" /><nd ref="6448666069" /><tag k="highway" v="service" /><tag k="oneway" v="no" /></way><way id="207" timestamp="2026-03-30T16:41:05Z" uid="1" user="OSMnx" version="1" changeset="1"><nd ref="6448666076" /><nd ref="733789032" /><tag k="highway" v="tertiary" /><tag k="lanes" v="2" /><tag k="name" v="南池子大街" /><tag k="oneway" v="no" /></way><way id="208" timestamp="2026-03-30T16:41:05Z" uid="1" user="OSMnx" version="1" changeset="1"><nd ref="6448666076" /><nd ref="733789295" /><tag k="highway" v="tertiary" /><tag k="lanes" v="2" /><tag k="name" v="南池子大街" /><tag k="oneway" v="no" /></way><way id="209" timestamp="2026-03-30T16:41:05Z" uid="1" user="OSMnx" version="1" changeset="1"><nd ref="6448666076" /><nd ref="8809675599" /><tag k="highway" v="service" /><tag k="oneway" v="no" /></way><way id="210" timestamp="2026-03-30T16:41:05Z" uid="1" user="OSMnx" version="1" changeset="1"><nd ref="8742615452" /><nd ref="8742615453" /><tag k="highway" v="footway" /><tag k="oneway" v="no" /></way><way id="211" timestamp="2026-03-30T16:41:05Z" uid="1" user="OSMnx" version="1" changeset="1"><nd ref="8742615452" /><nd ref="6098824839" /><tag k="highway" v="footway" /><tag k="oneway" v="no" /></way><way id="212" timestamp="2026-03-30T16:41:05Z" uid="1" user="OSMnx" version="1" changeset="1"><nd ref="8742615453" /><nd ref="733788263" /><tag k="highway" v="service" /><tag k="oneway" v="no" /></way><way id="213" timestamp="2026-03-30T16:41:05Z" uid="1" user="OSMnx" version="1" changeset="1"><nd ref="8742615453" /><nd ref="12387991233" /><tag k="highway" v="service" /><tag k="oneway" v="no" /></way><way id="214" timestamp="2026-03-30T16:41:05Z" uid="1" user="OSMnx" version="1" changeset="1"><nd ref="8742615453" /><nd ref="8742615452" /><tag k="highway" v="footway" /><tag k="oneway" v="no" /></way><way id="215" timestamp="2026-03-30T16:41:05Z" uid="1" user="OSMnx" version="1" changeset="1"><nd ref="8809675597" /><nd ref="8809675599" /><tag k="highway" v="footway" /><tag k="oneway" v="no" /></way><way id="216" timestamp="2026-03-30T16:41:05Z" uid="1" user="OSMnx" version="1" changeset="1"><nd ref="8809675598" /><nd ref="8809675599" /><tag k="highway" v="footway" /><tag k="oneway" v="no" /></way><way id="217" timestamp="2026-03-30T16:41:05Z" uid="1" user="OSMnx" version="1" changeset="1"><nd ref="8809675598" /><nd ref="8809675600" /><tag k="highway" v="footway" /><tag k="oneway" v="no" /></way><way id="218" timestamp="2026-03-30T16:41:05Z" uid="1" user="OSMnx" version="1" changeset="1"><nd ref="8809675599" /><nd ref="6448666069" /><tag k="highway" v="service" /><tag k="oneway" v="no" /></way><way id="219" timestamp="2026-03-30T16:41:05Z" uid="1" user="OSMnx" version="1" changeset="1"><nd ref="8809675599" /><nd ref="6448666076" /><tag k="highway" v="service" /><tag k="oneway" v="no" /></way><way id="220" timestamp="2026-03-30T16:41:05Z" uid="1" user="OSMnx" version="1" changeset="1"><nd ref="8809675599" /><nd ref="8809675598" /><tag k="highway" v="footway" /><tag k="oneway" v="no" /></way><way id="221" timestamp="2026-03-30T16:41:05Z" uid="1" user="OSMnx" version="1" changeset="1"><nd ref="8809675599" /><nd ref="8809675597" /><tag k="highway" v="footway" /><tag k="oneway" v="no" /></way><way id="222" timestamp="2026-03-30T16:41:05Z" uid="1" user="OSMnx" version="1" changeset="1"><nd ref="8809675600" /><nd ref="8809675601" /><tag k="highway" v="footway" /><tag k="oneway" v="no" /></way><way id="223" timestamp="2026-03-30T16:41:05Z" uid="1" user="OSMnx" version="1" changeset="1"><nd ref="8809675600" /><nd ref="8809675598" /><tag k="highway" v="footway" /><tag k="oneway" v="no" /></way><way id="224" timestamp="2026-03-30T16:41:05Z" uid="1" user="OSMnx" version="1" changeset="1"><nd ref="8809675601" /><nd ref="8809675602" /><tag k="highway" v="footway" /><tag k="oneway" v="no" /></way><way id="225" timestamp="2026-03-30T16:41:05Z" uid="1" user="OSMnx" version="1" changeset="1"><nd ref="8809675601" /><nd ref="8809675600" /><tag k="highway" v="footway" /><tag k="oneway" v="no" /></way><way id="226" timestamp="2026-03-30T16:41:05Z" uid="1" user="OSMnx" version="1" changeset="1"><nd ref="8809675602" /><nd ref="8809675601" /><tag k="highway" v="footway" /><tag k="oneway" v="no" /></way><way id="227" timestamp="2026-03-30T16:41:05Z" uid="1" user="OSMnx" version="1" changeset="1"><nd ref="8809675602" /><nd ref="8809675604" /><tag k="highway" v="footway" /><tag k="oneway" v="no" /></way><way id="228" timestamp="2026-03-30T16:41:05Z" uid="1" user="OSMnx" version="1" changeset="1"><nd ref="8809675603" /><nd ref="8809675604" /><tag k="highway" v="footway" /><tag k="oneway" v="no" /></way><way id="229" timestamp="2026-03-30T16:41:05Z" uid="1" user="OSMnx" version="1" changeset="1"><nd ref="8809675603" /><nd ref="6448654281" /><tag k="highway" v="footway" /><tag k="oneway" v="no" /></way><way id="230" timestamp="2026-03-30T16:41:05Z" uid="1" user="OSMnx" version="1" changeset="1"><nd ref="8809675604" /><nd ref="8809675602" /><tag k="highway" v="footway" /><tag k="oneway" v="no" /></way><way id="231" timestamp="2026-03-30T16:41:05Z" uid="1" user="OSMnx" version="1" changeset="1"><nd ref="8809675604" /><nd ref="8809675603" /><tag k="highway" v="footway" /><tag k="oneway" v="no" /></way><way id="232" timestamp="2026-03-30T16:41:05Z" uid="1" user="OSMnx" version="1" changeset="1"><nd ref="12387991233" /><nd ref="8742615453" /><tag k="highway" v="service" /><tag k="oneway" v="no" /></way><way id="233" timestamp="2026-03-30T16:41:05Z" uid="1" user="OSMnx" version="1" changeset="1"><nd ref="12387991233" /><nd ref="733788152" /><tag k="highway" v="service" /><tag k="oneway" v="no" /></way></osm>