<?xml version='1.0' encoding='utf-8'?>
<osm version="0.6" generator="OSMnx 1.8.0"><node id="2574617705" timestamp="2026-03-31T20:23:12Z" uid="1" user="OSMnx" version="1" changeset="1" lat="42.279968" lon="119.899246" /><node id="4260123114" timestamp="2026-03-31T20:23:12Z" uid="1" user="OSMnx" version="1" changeset="1" lat="42.279972" lon="119.899348" /><node id="5368761400" timestamp="2026-03-31T20:23:12Z" uid="1" user="OSMnx" version="1" changeset="1" lat="42.277649" lon="119.905068" /><node id="5368761402" timestamp="2026-03-31T20:23:12Z" uid="1" user="OSMnx" version="1" changeset="1" lat="42.277512" lon="119.905023" /><node id="5368761403" timestamp="2026-03-31T20:23:12Z" uid="1" user="OSMnx" version="1" changeset="1" lat="42.277816" lon="119.905127" /><node id="5368761404" timestamp="2026-03-31T20:23:12Z" uid="1" user="OSMnx" version="1" changeset="1" lat="42.278124" lon="119.905195" /><node id="5368761908" timestamp="2026-03-31T20:23:12Z" uid="1" user="OSMnx" version="1" changeset="1" lat="42.283899" lon="119.896958" /><node id="5368761909" timestamp="2026-03-31T20:23:12Z" uid="1" user="OSMnx" version="1" changeset="1" lat="42.284029" lon="119.895616" /><node id="5368761910" timestamp="2026-03-31T20:23:12Z" uid="1" user="OSMnx" version="1" changeset="1" lat="42.283973" lon="119.895606" /><node id="5368761911" timestamp="2026-03-31T20:23:12Z" uid="1" user="OSMnx" version="1" changeset="1" lat="42.284066" lon="119.894646" /><node id="5368761913" timestamp="2026-03-31T20:23:12Z" uid="1" user="OSMnx" version="1" changeset="1" lat="42.282843" lon="119.895392" /><node id="5368761914" timestamp="2026-03-31T20:23:12Z" uid="1" user="OSMnx" version="1" changeset="1" lat="42.284064" lon="119.895623" /><node id="5368762703" timestamp="2026-03-31T20:23:12Z" uid="1" user="OSMnx" version="1" changeset="1" lat="42.282735" lon="119.896779" /><node id="5368762704" timestamp="2026-03-31T20:23:12Z" uid="1" user="OSMnx" version="1" changeset="1" lat="42.282885" lon="119.894842" /><node id="5368762880" timestamp="2026-03-31T20:23:12Z" uid="1" user="OSMnx" version="1" changeset="1" lat="42.281082" lon="119.902198" /><node id="5368762881" timestamp="2026-03-31T20:23:12Z" uid="1" user="OSMnx" version="1" changeset="1" lat="42.28121" lon="119.900844" /><node id="5368762882" timestamp="2026-03-31T20:23:12Z" uid="1" user="OSMnx" version="1" changeset="1" lat="42.281335" lon="119.899582" /><node id="5368762883" timestamp="2026-03-31T20:23:12Z" uid="1" user="OSMnx" version="1" changeset="1" lat="42.279951" lon="119.900635" /><node id="5368762886" timestamp="2026-03-31T20:23:12Z" uid="1" user="OSMnx" version="1" changeset="1" lat="42.278845" lon="119.901827" /><node id="5368762887" timestamp="2026-03-31T20:23:12Z" uid="1" user="OSMnx" version="1" changeset="1" lat="42.279812" lon="119.901973" /><node id="5368762888" timestamp="2026-03-31T20:23:12Z" uid="1" user="OSMnx" version="1" changeset="1" lat="42.281012" lon="119.902186" /><node id="5368762889" timestamp="2026-03-31T20:23:12Z" uid="1" user="OSMnx" version="1" changeset="1" lat="42.28146" lon="119.902261" /><node id="5368762890" timestamp="2026-03-31T20:23:12Z" uid="1" user="OSMnx" version="1" changeset="1" lat="42.281774" lon="119.90232" /><node id="5368762891" timestamp="2026-03-31T20:23:12Z" uid="1" user="OSMnx" version="1" changeset="1" lat="42.282341" lon="119.902449" /><node id="5368762892" timestamp="2026-03-31T20:23:12Z" uid="1" user="OSMnx" version="1" changeset="1" lat="42.283478" lon="119.902685" /><node id="5368762912" timestamp="2026-03-31T20:23:12Z" uid="1" user="OSMnx" version="1" changeset="1" lat="42.27945" lon="119.905452" /><node id="5368762916" timestamp="2026-03-31T20:23:12Z" uid="1" user="OSMnx" version="1" changeset="1" lat="42.276132" lon="119.895982" /><node id="5368762917" timestamp="2026-03-31T20:23:12Z" uid="1" user="OSMnx" version="1" changeset="1" lat="42.276704" lon="119.896216" /><node id="5368762918" timestamp="2026-03-31T20:23:12Z" uid="1" user="OSMnx" version="1" changeset="1" lat="42.277144" lon="119.89636" /><node id="5368762919" timestamp="2026-03-31T20:23:12Z" uid="1" user="OSMnx" version="1" changeset="1" lat="42.277394" lon="119.896441" /><node id="5368762920" timestamp="2026-03-31T20:23:12Z" uid="1" user="OSMnx" version="1" changeset="1" lat="42.2779" lon="119.896535" /><node id="5368763021" timestamp="2026-03-31T20:23:12Z" uid="1" user="OSMnx" version="1" changeset="1" lat="42.280069" lon="119.899262" /><node id="5368763022" timestamp="2026-03-31T20:23:12Z" uid="1" user="OSMnx" version="1" changeset="1" lat="42.280066" lon="119.899364" /><node id="5368763023" timestamp="2026-03-31T20:23:12Z" uid="1" user="OSMnx" version="1" changeset="1" lat="42.280061" lon="119.899575" /><node id="5368763024" timestamp="2026-03-31T20:23:12Z" uid="1" user="OSMnx" version="1" changeset="1" lat="42.279463" lon="119.905324" /><node id="5368763026" timestamp="2026-03-31T20:23:12Z" uid="1" user="OSMnx" version="1" changeset="1" lat="42.282508" lon="119.905721" /><node id="5368763038" timestamp="2026-03-31T20:23:12Z" uid="1" user="OSMnx" version="1" changeset="1" lat="42.276316" lon="119.898745" /><node id="5368763043" timestamp="2026-03-31T20:23:12Z" uid="1" user="OSMnx" version="1" changeset="1" lat="42.275814" lon="119.898536" /><node id="5368763083" timestamp="2026-03-31T20:23:12Z" uid="1" user="OSMnx" version="1" changeset="1" lat="42.28024" lon="119.896384" /><node id="5368763084" timestamp="2026-03-31T20:23:12Z" uid="1" user="OSMnx" version="1" changeset="1" lat="42.280231" lon="119.896512" /><node id="5368763085" timestamp="2026-03-31T20:23:12Z" uid="1" user="OSMnx" version="1" changeset="1" lat="42.283628" lon="119.89705" /><node id="5368763090" timestamp="2026-03-31T20:23:12Z" uid="1" user="OSMnx" version="1" changeset="1" lat="42.280073" lon="119.899061" /><node id="5368763091" timestamp="2026-03-31T20:23:12Z" uid="1" user="OSMnx" version="1" changeset="1" lat="42.280234" lon="119.896937" /><node id="5368763092" timestamp="2026-03-31T20:23:12Z" uid="1" user="OSMnx" version="1" changeset="1" lat="42.283372" lon="119.896883" /><node id="5368763098" timestamp="2026-03-31T20:23:12Z" uid="1" user="OSMnx" version="1" changeset="1" lat="42.280258" lon="119.896135" /><node id="5368884227" timestamp="2026-03-31T20:23:12Z" uid="1" user="OSMnx" version="1" changeset="1" lat="42.284055" lon="119.894759" /><node id="5368884235" timestamp="2026-03-31T20:23:12Z" uid="1" user="OSMnx" version="1" changeset="1" lat="42.282113" lon="119.894268" /><node id="5368884236" timestamp="2026-03-31T20:23:12Z" uid="1" user="OSMnx" version="1" changeset="1" lat="42.28231" lon="119.894322" /><node id="5368884237" timestamp="2026-03-31T20:23:12Z" uid="1" user="OSMnx" version="1" changeset="1" lat="42.282526" lon="119.894365" /><node id="5368884238" timestamp="2026-03-31T20:23:12Z" uid="1" user="OSMnx" version="1" changeset="1" lat="42.282932" lon="119.894388" /><node id="5369137326" timestamp="2026-03-31T20:23:12Z" uid="1" user="OSMnx" version="1" changeset="1" lat="42.281168" lon="119.896531" /><node id="5369137327" timestamp="2026-03-31T20:23:12Z" uid="1" user="OSMnx" version="1" changeset="1" lat="42.281222" lon="119.896001" /><node id="5369137335" timestamp="2026-03-31T20:23:12Z" uid="1" user="OSMnx" version="1" changeset="1" lat="42.280339" lon="119.894922" /><node id="5369137336" timestamp="2026-03-31T20:23:12Z" uid="1" user="OSMnx" version="1" changeset="1" lat="42.28048" lon="119.894928" /><node id="5369137337" timestamp="2026-03-31T20:23:12Z" uid="1" user="OSMnx" version="1" changeset="1" lat="42.280641" lon="119.894915" /><node id="5369137338" timestamp="2026-03-31T20:23:12Z" uid="1" user="OSMnx" version="1" changeset="1" lat="42.28099" lon="119.894842" /><node id="5369137339" timestamp="2026-03-31T20:23:12Z" uid="1" user="OSMnx" version="1" changeset="1" lat="42.281462" lon="119.894695" /><node id="5369137340" timestamp="2026-03-31T20:23:12Z" uid="1" user="OSMnx" version="1" changeset="1" lat="42.282154" lon="119.894279" /><node id="5369137352" timestamp="2026-03-31T20:23:12Z" uid="1" user="OSMnx" version="1" changeset="1" lat="42.282785" lon="119.896141" /><node id="5369137353" timestamp="2026-03-31T20:23:12Z" uid="1" user="OSMnx" version="1" changeset="1" lat="42.283959" lon="119.896334" /><node id="5369137368" timestamp="2026-03-31T20:23:12Z" uid="1" user="OSMnx" version="1" changeset="1" lat="42.283112" lon="119.894826" /><node id="5369137370" timestamp="2026-03-31T20:23:12Z" uid="1" user="OSMnx" version="1" changeset="1" lat="42.283817" lon="119.894776" /><node id="5369137372" timestamp="2026-03-31T20:23:12Z" uid="1" user="OSMnx" version="1" changeset="1" lat="42.283272" lon="119.894815" /><node id="5369137374" timestamp="2026-03-31T20:23:12Z" uid="1" user="OSMnx" version="1" changeset="1" lat="42.283635" lon="119.894789" /><node id="5369137985" timestamp="2026-03-31T20:23:12Z" uid="1" user="OSMnx" version="1" changeset="1" lat="42.283452" lon="119.894802" /><node id="5369138032" timestamp="2026-03-31T20:23:12Z" uid="1" user="OSMnx" version="1" changeset="1" lat="42.283913" lon="119.904603" /><node id="5369138033" timestamp="2026-03-31T20:23:12Z" uid="1" user="OSMnx" version="1" changeset="1" lat="42.283885" lon="119.904589" /><node id="5369138034" timestamp="2026-03-31T20:23:12Z" uid="1" user="OSMnx" version="1" changeset="1" lat="42.283875" lon="119.904546" /><node id="5369138035" timestamp="2026-03-31T20:23:12Z" uid="1" user="OSMnx" version="1" changeset="1" lat="42.283885" lon="119.904426" /><node id="5369138036" timestamp="2026-03-31T20:23:12Z" uid="1" user="OSMnx" version="1" changeset="1" lat="42.283844" lon="119.904375" /><node id="5369138037" timestamp="2026-03-31T20:23:12Z" uid="1" user="OSMnx" version="1" changeset="1" lat="42.283231" lon="119.904198" /><node id="5369138068" timestamp="2026-03-31T20:23:12Z" uid="1" user="OSMnx" version="1" changeset="1" lat="42.280705" lon="119.904571" /><node id="5369138069" timestamp="2026-03-31T20:23:12Z" uid="1" user="OSMnx" version="1" changeset="1" lat="42.281188" lon="119.904648" /><node id="5369138070" timestamp="2026-03-31T20:23:12Z" uid="1" user="OSMnx" version="1" changeset="1" lat="42.280629" lon="119.905476" /><node id="5369138071" timestamp="2026-03-31T20:23:12Z" uid="1" user="OSMnx" version="1" changeset="1" lat="42.280746" lon="119.90409" /><node id="5369138077" timestamp="2026-03-31T20:23:12Z" uid="1" user="OSMnx" version="1" changeset="1" lat="42.281345" lon="119.90398" /><node id="5369138078" timestamp="2026-03-31T20:23:12Z" uid="1" user="OSMnx" version="1" changeset="1" lat="42.282445" lon="119.904214" /><node id="5369138079" timestamp="2026-03-31T20:23:12Z" uid="1" user="OSMnx" version="1" changeset="1" lat="42.283224" lon="119.904391" /><node id="5369138080" timestamp="2026-03-31T20:23:12Z" uid="1" user="OSMnx" version="1" changeset="1" lat="42.280893" lon="119.903841" /><node id="5369138081" timestamp="2026-03-31T20:23:12Z" uid="1" user="OSMnx" version="1" changeset="1" lat="42.280954" lon="119.903294" /><node id="5369138082" timestamp="2026-03-31T20:23:12Z" uid="1" user="OSMnx" version="1" changeset="1" lat="42.281972" lon="119.903471" /><node id="5369138083" timestamp="2026-03-31T20:23:12Z" uid="1" user="OSMnx" version="1" changeset="1" lat="42.283249" lon="119.903701" /><node id="5369138084" timestamp="2026-03-31T20:23:12Z" uid="1" user="OSMnx" version="1" changeset="1" lat="42.283125" lon="119.905816" /><node id="5369138085" timestamp="2026-03-31T20:23:12Z" uid="1" user="OSMnx" version="1" changeset="1" lat="42.283226" lon="119.904545" /><node id="5369138086" timestamp="2026-03-31T20:23:12Z" uid="1" user="OSMnx" version="1" changeset="1" lat="42.283254" lon="119.903551" /><node id="5369138087" timestamp="2026-03-31T20:23:12Z" uid="1" user="OSMnx" version="1" changeset="1" lat="42.283246" lon="119.903342" /><node id="5369138088" timestamp="2026-03-31T20:23:12Z" uid="1" user="OSMnx" version="1" changeset="1" lat="42.283209" lon="119.90317" /><node id="5369138089" timestamp="2026-03-31T20:23:12Z" uid="1" user="OSMnx" version="1" changeset="1" lat="42.283205" lon="119.902996" /><node id="5369138090" timestamp="2026-03-31T20:23:12Z" uid="1" user="OSMnx" version="1" changeset="1" lat="42.283251" lon="119.902638" /><node id="5369138091" timestamp="2026-03-31T20:23:12Z" uid="1" user="OSMnx" version="1" changeset="1" lat="42.283382" lon="119.902665" /><node id="5369138092" timestamp="2026-03-31T20:23:12Z" uid="1" user="OSMnx" version="1" changeset="1" lat="42.283519" lon="119.901228" /><node id="5369138093" timestamp="2026-03-31T20:23:12Z" uid="1" user="OSMnx" version="1" changeset="1" lat="42.283625" lon="119.899976" /><node id="5369138094" timestamp="2026-03-31T20:23:12Z" uid="1" user="OSMnx" version="1" changeset="1" lat="42.282231" lon="119.902424" /><node id="5369138095" timestamp="2026-03-31T20:23:12Z" uid="1" user="OSMnx" version="1" changeset="1" lat="42.282359" lon="119.901035" /><node id="5369138096" timestamp="2026-03-31T20:23:12Z" uid="1" user="OSMnx" version="1" changeset="1" lat="42.282457" lon="119.899775" /><node id="5369138101" timestamp="2026-03-31T20:23:12Z" uid="1" user="OSMnx" version="1" changeset="1" lat="42.280442" lon="119.898581" /><node id="5369138102" timestamp="2026-03-31T20:23:12Z" uid="1" user="OSMnx" version="1" changeset="1" lat="42.281394" lon="119.89873" /><node id="5369138103" timestamp="2026-03-31T20:23:12Z" uid="1" user="OSMnx" version="1" changeset="1" lat="42.281328" lon="119.899464" /><node id="5369138104" timestamp="2026-03-31T20:23:12Z" uid="1" user="OSMnx" version="1" changeset="1" lat="42.281449" lon="119.89812" /><node id="5369138105" timestamp="2026-03-31T20:23:12Z" uid="1" user="OSMnx" version="1" changeset="1" lat="42.280161" lon="119.897901" /><node id="5369138106" timestamp="2026-03-31T20:23:12Z" uid="1" user="OSMnx" version="1" changeset="1" lat="42.282611" lon="119.898317" /><node id="5369138116" timestamp="2026-03-31T20:23:12Z" uid="1" user="OSMnx" version="1" changeset="1" lat="42.282725" lon="119.896907" /><node id="5369138117" timestamp="2026-03-31T20:23:12Z" uid="1" user="OSMnx" version="1" changeset="1" lat="42.282503" lon="119.899653" /><node id="5369242064" timestamp="2026-03-31T20:23:12Z" uid="1" user="OSMnx" version="1" changeset="1" lat="42.275558" lon="119.904037" /><node id="5369242080" timestamp="2026-03-31T20:23:12Z" uid="1" user="OSMnx" version="1" changeset="1" lat="42.276273" lon="119.901285" /><node id="5369242081" timestamp="2026-03-31T20:23:12Z" uid="1" user="OSMnx" version="1" changeset="1" lat="42.276366" lon="119.900612" /><node id="5369242082" timestamp="2026-03-31T20:23:12Z" uid="1" user="OSMnx" version="1" changeset="1" lat="42.276614" lon="119.901384" /><node id="5369242083" timestamp="2026-03-31T20:23:12Z" uid="1" user="OSMnx" version="1" changeset="1" lat="42.276711" lon="119.900698" /><node id="5369242084" timestamp="2026-03-31T20:23:12Z" uid="1" user="OSMnx" version="1" changeset="1" lat="42.276638" lon="119.90068" /><node id="5369242085" timestamp="2026-03-31T20:23:12Z" uid="1" user="OSMnx" version="1" changeset="1" lat="42.276821" lon="119.899466" /><node id="5369242086" timestamp="2026-03-31T20:23:12Z" uid="1" user="OSMnx" version="1" changeset="1" lat="42.276329" lon="119.900602" /><node id="5369242087" timestamp="2026-03-31T20:23:12Z" uid="1" user="OSMnx" version="1" changeset="1" lat="42.276505" lon="119.899415" /><node id="5369242088" timestamp="2026-03-31T20:23:12Z" uid="1" user="OSMnx" version="1" changeset="1" lat="42.276026" lon="119.900527" /><node id="5369242089" timestamp="2026-03-31T20:23:12Z" uid="1" user="OSMnx" version="1" changeset="1" lat="42.276934" lon="119.900754" /><node id="5369242090" timestamp="2026-03-31T20:23:12Z" uid="1" user="OSMnx" version="1" changeset="1" lat="42.276282" lon="119.898738" /><node id="5369242091" timestamp="2026-03-31T20:23:12Z" uid="1" user="OSMnx" version="1" changeset="1" lat="42.275582" lon="119.903844" /><node id="5369242092" timestamp="2026-03-31T20:23:12Z" uid="1" user="OSMnx" version="1" changeset="1" lat="42.275816" lon="119.901942" /><node id="5369242093" timestamp="2026-03-31T20:23:12Z" uid="1" user="OSMnx" version="1" changeset="1" lat="42.275922" lon="119.901255" /><node id="5369242094" timestamp="2026-03-31T20:23:12Z" uid="1" user="OSMnx" version="1" changeset="1" lat="42.276299" lon="119.898618" /><node id="5369242095" timestamp="2026-03-31T20:23:12Z" uid="1" user="OSMnx" version="1" changeset="1" lat="42.276636" lon="119.896188" /><node id="5369242954" timestamp="2026-03-31T20:23:12Z" uid="1" user="OSMnx" version="1" changeset="1" lat="42.275329" lon="119.894543" /><node id="5369242958" timestamp="2026-03-31T20:23:12Z" uid="1" user="OSMnx" version="1" changeset="1" lat="42.276616" lon="119.89618" /><node id="5369242967" timestamp="2026-03-31T20:23:12Z" uid="1" user="OSMnx" version="1" changeset="1" lat="42.275345" lon="119.894287" /><node id="5369242970" timestamp="2026-03-31T20:23:12Z" uid="1" user="OSMnx" version="1" changeset="1" lat="42.275268" lon="119.895536" /><node id="5369242988" timestamp="2026-03-31T20:23:12Z" uid="1" user="OSMnx" version="1" changeset="1" lat="42.278762" lon="119.894944" /><node id="5369242989" timestamp="2026-03-31T20:23:12Z" uid="1" user="OSMnx" version="1" changeset="1" lat="42.279044" lon="119.894991" /><node id="5369242990" timestamp="2026-03-31T20:23:12Z" uid="1" user="OSMnx" version="1" changeset="1" lat="42.279091" lon="119.89581" /><node id="5369242991" timestamp="2026-03-31T20:23:12Z" uid="1" user="OSMnx" version="1" changeset="1" lat="42.279039" lon="119.895652" /><node id="5369242992" timestamp="2026-03-31T20:23:12Z" uid="1" user="OSMnx" version="1" changeset="1" lat="42.278998" lon="119.895566" /><node id="5369242993" timestamp="2026-03-31T20:23:12Z" uid="1" user="OSMnx" version="1" changeset="1" lat="42.279097" lon="119.894343" /><node id="5369242994" timestamp="2026-03-31T20:23:12Z" uid="1" user="OSMnx" version="1" changeset="1" lat="42.279563" lon="119.895296" /><node id="5369242995" timestamp="2026-03-31T20:23:12Z" uid="1" user="OSMnx" version="1" changeset="1" lat="42.279464" lon="119.896462" /><node id="5369242996" timestamp="2026-03-31T20:23:12Z" uid="1" user="OSMnx" version="1" changeset="1" lat="42.279511" lon="119.89591" /><node id="5369242997" timestamp="2026-03-31T20:23:12Z" uid="1" user="OSMnx" version="1" changeset="1" lat="42.279122" lon="119.895851" /><node id="5369242998" timestamp="2026-03-31T20:23:12Z" uid="1" user="OSMnx" version="1" changeset="1" lat="42.279042" lon="119.896732" /><node id="5369243044" timestamp="2026-03-31T20:23:12Z" uid="1" user="OSMnx" version="1" changeset="1" lat="42.279172" lon="119.896754" /><node id="5369243045" timestamp="2026-03-31T20:23:12Z" uid="1" user="OSMnx" version="1" changeset="1" lat="42.279093" lon="119.89754" /><node id="5369243046" timestamp="2026-03-31T20:23:12Z" uid="1" user="OSMnx" version="1" changeset="1" lat="42.280175" lon="119.897719" /><node id="5369243047" timestamp="2026-03-31T20:23:12Z" uid="1" user="OSMnx" version="1" changeset="1" lat="42.278676" lon="119.898133" /><node id="5369243048" timestamp="2026-03-31T20:23:12Z" uid="1" user="OSMnx" version="1" changeset="1" lat="42.280127" lon="119.898346" /><way id="0" timestamp="2026-03-31T20:23:12Z" uid="1" user="OSMnx" version="1" changeset="1"><nd ref="2574617705" /><nd ref="5369242094" /><tag k="highway" v="secondary" /><tag k="oneway" v="yes" /></way><way id="1" timestamp="2026-03-31T20:23:12Z" uid="1" user="OSMnx" version="1" changeset="1"><nd ref="4260123114" /><nd ref="5368763022" /><tag k="highway" v="secondary" /><tag k="oneway" v="yes" /></way><way id="2" timestamp="2026-03-31T20:23:12Z" uid="1" user="OSMnx" version="1" changeset="1"><nd ref="5368761400" /><nd ref="5368761402" /><tag k="highway" v="unclassified" /><tag k="oneway" v="no" /></way><way id="3" timestamp="2026-03-31T20:23:12Z" uid="1" user="OSMnx" version="1" changeset="1"><nd ref="5368761400" /><nd ref="5368761403" /><tag k="highway" v="unclassified" /><tag k="oneway" v="no" /></way><way id="4" timestamp="2026-03-31T20:23:12Z" uid="1" user="OSMnx" version="1" changeset="1"><nd ref="5368761402" /><nd ref="5369242064" /><tag k="highway" v="unclassified" /><tag k="oneway" v="no" /></way><way id="5" timestamp="2026-03-31T20:23:12Z" uid="1" user="OSMnx" version="1" changeset="1"><nd ref="5368761402" /><nd ref="5368761400" /><tag k="highway" v="unclassified" /><tag k="oneway" v="no" /></way><way id="6" timestamp="2026-03-31T20:23:12Z" uid="1" user="OSMnx" version="1" changeset="1"><nd ref="5368761403" /><nd ref="5368761400" /><tag k="highway" v="unclassified" /><tag k="oneway" v="no" /></way><way id="7" timestamp="2026-03-31T20:23:12Z" uid="1" user="OSMnx" version="1" changeset="1"><nd ref="5368761403" /><nd ref="5368761404" /><tag k="highway" v="unclassified" /><tag k="oneway" v="no" /></way><way id="8" timestamp="2026-03-31T20:23:12Z" uid="1" user="OSMnx" version="1" changeset="1"><nd ref="5368761404" /><nd ref="5368761403" /><tag k="highway" v="unclassified" /><tag k="oneway" v="no" /></way><way id="9" timestamp="2026-03-31T20:23:12Z" uid="1" user="OSMnx" version="1" changeset="1"><nd ref="5368761404" /><nd ref="5368763024" /><tag k="highway" v="unclassified" /><tag k="oneway" v="no" /></way><way id="10" timestamp="2026-03-31T20:23:12Z" uid="1" user="OSMnx" version="1" changeset="1"><nd ref="5368761908" /><nd ref="5369137353" /><tag k="highway" v="residential" /><tag k="oneway" v="no" /></way><way id="11" timestamp="2026-03-31T20:23:12Z" uid="1" user="OSMnx" version="1" changeset="1"><nd ref="5368761908" /><nd ref="5368763092" /><tag k="highway" v="tertiary" /><tag k="oneway" v="yes" /></way><way id="12" timestamp="2026-03-31T20:23:12Z" uid="1" user="OSMnx" version="1" changeset="1"><nd ref="5368761909" /><nd ref="5369137353" /><tag k="highway" v="residential" /><tag k="oneway" v="no" /></way><way id="13" timestamp="2026-03-31T20:23:12Z" uid="1" user="OSMnx" version="1" changeset="1"><nd ref="5368761909" /><nd ref="5368761910" /><tag k="highway" v="residential" /><tag k="oneway" v="no" /></way><way id="14" timestamp="2026-03-31T20:23:12Z" uid="1" user="OSMnx" version="1" changeset="1"><nd ref="5368761909" /><nd ref="5368761914" /><tag k="highway" v="residential" /><tag k="oneway" v="no" /></way><way id="15" timestamp="2026-03-31T20:23:12Z" uid="1" user="OSMnx" version="1" changeset="1"><nd ref="5368761910" /><nd ref="5368884227" /><tag k="highway" v="residential" /><tag k="oneway" v="no" /></way><way id="16" timestamp="2026-03-31T20:23:12Z" uid="1" user="OSMnx" version="1" changeset="1"><nd ref="5368761910" /><nd ref="5368761913" /><tag k="highway" v="residential" /><tag k="oneway" v="no" /></way><way id="17" timestamp="2026-03-31T20:23:12Z" uid="1" user="OSMnx" version="1" changeset="1"><nd ref="5368761910" /><nd ref="5368761909" /><tag k="highway" v="residential" /><tag k="oneway" v="no" /></way><way id="18" timestamp="2026-03-31T20:23:12Z" uid="1" user="OSMnx" version="1" changeset="1"><nd ref="5368761911" /><nd ref="5368884227" /><tag k="highway" v="residential" /><tag k="oneway" v="no" /></way><way id="19" timestamp="2026-03-31T20:23:12Z" uid="1" user="OSMnx" version="1" changeset="1"><nd ref="5368761913" /><nd ref="5368761910" /><tag k="highway" v="residential" /><tag k="oneway" v="no" /></way><way id="20" timestamp="2026-03-31T20:23:12Z" uid="1" user="OSMnx" version="1" changeset="1"><nd ref="5368761913" /><nd ref="5369137352" /><tag k="highway" v="unclassified" /><tag k="oneway" v="no" /></way><way id="21" timestamp="2026-03-31T20:23:12Z" uid="1" user="OSMnx" version="1" changeset="1"><nd ref="5368761913" /><nd ref="5368762704" /><tag k="highway" v="unclassified" /><tag k="oneway" v="no" /></way><way id="22" timestamp="2026-03-31T20:23:12Z" uid="1" user="OSMnx" version="1" changeset="1"><nd ref="5368761914" /><nd ref="5368761909" /><tag k="highway" v="residential" /><tag k="oneway" v="no" /></way><way id="23" timestamp="2026-03-31T20:23:12Z" uid="1" user="OSMnx" version="1" changeset="1"><nd ref="5368762703" /><nd ref="5369138116" /><tag k="highway" v="unclassified" /><tag k="oneway" v="no" /></way><way id="24" timestamp="2026-03-31T20:23:12Z" uid="1" user="OSMnx" version="1" changeset="1"><nd ref="5368762703" /><nd ref="5369137352" /><tag k="highway" v="unclassified" /><tag k="oneway" v="no" /></way><way id="25" timestamp="2026-03-31T20:23:12Z" uid="1" user="OSMnx" version="1" changeset="1"><nd ref="5368762703" /><nd ref="5369137326" /><tag k="highway" v="tertiary" /><tag k="oneway" v="yes" /></way><way id="26" timestamp="2026-03-31T20:23:12Z" uid="1" user="OSMnx" version="1" changeset="1"><nd ref="5368762704" /><nd ref="5368761913" /><tag k="highway" v="unclassified" /><tag k="oneway" v="no" /></way><way id="27" timestamp="2026-03-31T20:23:12Z" uid="1" user="OSMnx" version="1" changeset="1"><nd ref="5368762704" /><nd ref="5368884238" /><tag k="highway" v="unclassified" /><tag k="oneway" v="no" /></way><way id="28" timestamp="2026-03-31T20:23:12Z" uid="1" user="OSMnx" version="1" changeset="1"><nd ref="5368762704" /><nd ref="5369137368" /><tag k="highway" v="residential" /><tag k="oneway" v="no" /></way><way id="29" timestamp="2026-03-31T20:23:12Z" uid="1" user="OSMnx" version="1" changeset="1"><nd ref="5368762880" /><nd ref="5369138081" /><tag k="highway" v="residential" /><tag k="oneway" v="no" /></way><way id="30" timestamp="2026-03-31T20:23:12Z" uid="1" user="OSMnx" version="1" changeset="1"><nd ref="5368762880" /><nd ref="5368762881" /><tag k="highway" v="residential" /><tag k="oneway" v="no" /></way><way id="31" timestamp="2026-03-31T20:23:12Z" uid="1" user="OSMnx" version="1" changeset="1"><nd ref="5368762880" /><nd ref="5368762888" /><tag k="highway" v="unclassified" /><tag k="oneway" v="no" /></way><way id="32" timestamp="2026-03-31T20:23:12Z" uid="1" user="OSMnx" version="1" changeset="1"><nd ref="5368762880" /><nd ref="5368762889" /><tag k="highway" v="unclassified" /><tag k="oneway" v="no" /></way><way id="33" timestamp="2026-03-31T20:23:12Z" uid="1" user="OSMnx" version="1" changeset="1"><nd ref="5368762881" /><nd ref="5368762880" /><tag k="highway" v="residential" /><tag k="oneway" v="no" /></way><way id="34" timestamp="2026-03-31T20:23:12Z" uid="1" user="OSMnx" version="1" changeset="1"><nd ref="5368762881" /><nd ref="5368762882" /><tag k="highway" v="residential" /><tag k="oneway" v="no" /></way><way id="35" timestamp="2026-03-31T20:23:12Z" uid="1" user="OSMnx" version="1" changeset="1"><nd ref="5368762881" /><nd ref="5368762883" /><tag k="highway" v="residential" /><tag k="oneway" v="no" /></way><way id="36" timestamp="2026-03-31T20:23:12Z" uid="1" user="OSMnx" version="1" changeset="1"><nd ref="5368762881" /><nd ref="5369138095" /><tag k="highway" v="residential" /><tag k="oneway" v="no" /></way><way id="37" timestamp="2026-03-31T20:23:12Z" uid="1" user="OSMnx" version="1" changeset="1"><nd ref="5368762882" /><nd ref="5368762881" /><tag k="highway" v="residential" /><tag k="oneway" v="no" /></way><way id="38" timestamp="2026-03-31T20:23:12Z" uid="1" user="OSMnx" version="1" changeset="1"><nd ref="5368762882" /><nd ref="5369138096" /><tag k="highway" v="secondary" /><tag k="oneway" v="yes" /></way><way id="39" timestamp="2026-03-31T20:23:12Z" uid="1" user="OSMnx" version="1" changeset="1"><nd ref="5368762883" /><nd ref="5368762887" /><tag k="highway" v="tertiary" /><tag k="oneway" v="no" /></way><way id="40" timestamp="2026-03-31T20:23:12Z" uid="1" user="OSMnx" version="1" changeset="1"><nd ref="5368762883" /><nd ref="5368763023" /><tag k="highway" v="tertiary" /><tag k="oneway" v="no" /></way><way id="41" timestamp="2026-03-31T20:23:12Z" uid="1" user="OSMnx" version="1" changeset="1"><nd ref="5368762883" /><nd ref="5368762881" /><tag k="highway" v="residential" /><tag k="oneway" v="no" /></way><way id="42" timestamp="2026-03-31T20:23:12Z" uid="1" user="OSMnx" version="1" changeset="1"><nd ref="5368762886" /><nd ref="5368762887" /><tag k="highway" v="unclassified" /><tag k="oneway" v="no" /></way><way id="43" timestamp="2026-03-31T20:23:12Z" uid="1" user="OSMnx" version="1" changeset="1"><nd ref="5368762887" /><nd ref="5368763024" /><tag k="highway" v="tertiary" /><tag k="oneway" v="no" /></way><way id="44" timestamp="2026-03-31T20:23:12Z" uid="1" user="OSMnx" version="1" changeset="1"><nd ref="5368762887" /><nd ref="5368762883" /><tag k="highway" v="tertiary" /><tag k="oneway" v="no" /></way><way id="45" timestamp="2026-03-31T20:23:12Z" uid="1" user="OSMnx" version="1" changeset="1"><nd ref="5368762887" /><nd ref="5368762886" /><tag k="highway" v="unclassified" /><tag k="oneway" v="no" /></way><way id="46" timestamp="2026-03-31T20:23:12Z" uid="1" user="OSMnx" version="1" changeset="1"><nd ref="5368762887" /><nd ref="5368762888" /><tag k="highway" v="unclassified" /><tag k="oneway" v="no" /></way><way id="47" timestamp="2026-03-31T20:23:12Z" uid="1" user="OSMnx" version="1" changeset="1"><nd ref="5368762888" /><nd ref="5368762887" /><tag k="highway" v="unclassified" /><tag k="oneway" v="no" /></way><way id="48" timestamp="2026-03-31T20:23:12Z" uid="1" user="OSMnx" version="1" changeset="1"><nd ref="5368762888" /><nd ref="5368762880" /><tag k="highway" v="unclassified" /><tag k="oneway" v="no" /></way><way id="49" timestamp="2026-03-31T20:23:12Z" uid="1" user="OSMnx" version="1" changeset="1"><nd ref="5368762889" /><nd ref="5368762880" /><tag k="highway" v="unclassified" /><tag k="oneway" v="no" /></way><way id="50" timestamp="2026-03-31T20:23:12Z" uid="1" user="OSMnx" version="1" changeset="1"><nd ref="5368762889" /><nd ref="5368762890" /><tag k="highway" v="unclassified" /><tag k="oneway" v="no" /></way><way id="51" timestamp="2026-03-31T20:23:12Z" uid="1" user="OSMnx" version="1" changeset="1"><nd ref="5368762890" /><nd ref="5368762889" /><tag k="highway" v="unclassified" /><tag k="oneway" v="no" /></way><way id="52" timestamp="2026-03-31T20:23:12Z" uid="1" user="OSMnx" version="1" changeset="1"><nd ref="5368762890" /><nd ref="5369138094" /><tag k="highway" v="unclassified" /><tag k="oneway" v="no" /></way><way id="53" timestamp="2026-03-31T20:23:12Z" uid="1" user="OSMnx" version="1" changeset="1"><nd ref="5368762891" /><nd ref="5369138094" /><tag k="highway" v="unclassified" /><tag k="oneway" v="no" /></way><way id="54" timestamp="2026-03-31T20:23:12Z" uid="1" user="OSMnx" version="1" changeset="1"><nd ref="5368762891" /><nd ref="5369138090" /><tag k="highway" v="unclassified" /><tag k="oneway" v="no" /></way><way id="55" timestamp="2026-03-31T20:23:12Z" uid="1" user="OSMnx" version="1" changeset="1"><nd ref="5368762892" /><nd ref="5369138091" /><tag k="highway" v="unclassified" /><tag k="oneway" v="no" /></way><way id="56" timestamp="2026-03-31T20:23:12Z" uid="1" user="OSMnx" version="1" changeset="1"><nd ref="5368762912" /><nd ref="5368763024" /><tag k="highway" v="tertiary" /><tag k="oneway" v="no" /></way><way id="57" timestamp="2026-03-31T20:23:12Z" uid="1" user="OSMnx" version="1" changeset="1"><nd ref="5368762916" /><nd ref="5369242970" /><tag k="highway" v="unclassified" /><tag k="oneway" v="no" /></way><way id="58" timestamp="2026-03-31T20:23:12Z" uid="1" user="OSMnx" version="1" changeset="1"><nd ref="5368762916" /><nd ref="5369242958" /><tag k="highway" v="unclassified" /><tag k="oneway" v="no" /></way><way id="59" timestamp="2026-03-31T20:23:12Z" uid="1" user="OSMnx" version="1" changeset="1"><nd ref="5368762917" /><nd ref="5369242095" /><tag k="highway" v="unclassified" /><tag k="oneway" v="no" /></way><way id="60" timestamp="2026-03-31T20:23:12Z" uid="1" user="OSMnx" version="1" changeset="1"><nd ref="5368762917" /><nd ref="5368762918" /><tag k="highway" v="unclassified" /><tag k="oneway" v="no" /></way><way id="61" timestamp="2026-03-31T20:23:12Z" uid="1" user="OSMnx" version="1" changeset="1"><nd ref="5368762918" /><nd ref="5368762917" /><tag k="highway" v="unclassified" /><tag k="oneway" v="no" /></way><way id="62" timestamp="2026-03-31T20:23:12Z" uid="1" user="OSMnx" version="1" changeset="1"><nd ref="5368762918" /><nd ref="5368762919" /><tag k="highway" v="unclassified" /><tag k="oneway" v="no" /></way><way id="63" timestamp="2026-03-31T20:23:12Z" uid="1" user="OSMnx" version="1" changeset="1"><nd ref="5368762919" /><nd ref="5368762918" /><tag k="highway" v="unclassified" /><tag k="oneway" v="no" /></way><way id="64" timestamp="2026-03-31T20:23:12Z" uid="1" user="OSMnx" version="1" changeset="1"><nd ref="5368762919" /><nd ref="5368762920" /><tag k="highway" v="unclassified" /><tag k="oneway" v="no" /></way><way id="65" timestamp="2026-03-31T20:23:12Z" uid="1" user="OSMnx" version="1" changeset="1"><nd ref="5368762920" /><nd ref="5368762919" /><tag k="highway" v="unclassified" /><tag k="oneway" v="no" /></way><way id="66" timestamp="2026-03-31T20:23:12Z" uid="1" user="OSMnx" version="1" changeset="1"><nd ref="5368762920" /><nd ref="5369242998" /><tag k="highway" v="unclassified" /><tag k="oneway" v="no" /></way><way id="67" timestamp="2026-03-31T20:23:12Z" uid="1" user="OSMnx" version="1" changeset="1"><nd ref="5368763021" /><nd ref="5368763022" /><tag k="highway" v="tertiary" /><tag k="oneway" v="no" /></way><way id="68" timestamp="2026-03-31T20:23:12Z" uid="1" user="OSMnx" version="1" changeset="1"><nd ref="5368763021" /><nd ref="5368763090" /><tag k="highway" v="tertiary" /><tag k="oneway" v="no" /></way><way id="69" timestamp="2026-03-31T20:23:12Z" uid="1" user="OSMnx" version="1" changeset="1"><nd ref="5368763021" /><nd ref="2574617705" /><tag k="highway" v="secondary" /><tag k="oneway" v="yes" /></way><way id="70" timestamp="2026-03-31T20:23:12Z" uid="1" user="OSMnx" version="1" changeset="1"><nd ref="5368763022" /><nd ref="5368763023" /><tag k="highway" v="tertiary" /><tag k="oneway" v="no" /></way><way id="71" timestamp="2026-03-31T20:23:12Z" uid="1" user="OSMnx" version="1" changeset="1"><nd ref="5368763022" /><nd ref="5368763021" /><tag k="highway" v="tertiary" /><tag k="oneway" v="no" /></way><way id="72" timestamp="2026-03-31T20:23:12Z" uid="1" user="OSMnx" version="1" changeset="1"><nd ref="5368763022" /><nd ref="5368762882" /><tag k="highway" v="secondary" /><tag k="oneway" v="yes" /></way><way id="73" timestamp="2026-03-31T20:23:12Z" uid="1" user="OSMnx" version="1" changeset="1"><nd ref="5368763023" /><nd ref="5368762883" /><tag k="highway" v="tertiary" /><tag k="oneway" v="no" /></way><way id="74" timestamp="2026-03-31T20:23:12Z" uid="1" user="OSMnx" version="1" changeset="1"><nd ref="5368763023" /><nd ref="5368763022" /><tag k="highway" v="tertiary" /><tag k="oneway" v="no" /></way><way id="75" timestamp="2026-03-31T20:23:12Z" uid="1" user="OSMnx" version="1" changeset="1"><nd ref="5368763024" /><nd ref="5368761404" /><tag k="highway" v="unclassified" /><tag k="oneway" v="no" /></way><way id="76" timestamp="2026-03-31T20:23:12Z" uid="1" user="OSMnx" version="1" changeset="1"><nd ref="5368763024" /><nd ref="5368762912" /><tag k="highway" v="tertiary" /><tag k="oneway" v="no" /></way><way id="77" timestamp="2026-03-31T20:23:12Z" uid="1" user="OSMnx" version="1" changeset="1"><nd ref="5368763024" /><nd ref="5368762887" /><tag k="highway" v="tertiary" /><tag k="oneway" v="no" /></way><way id="78" timestamp="2026-03-31T20:23:12Z" uid="1" user="OSMnx" version="1" changeset="1"><nd ref="5368763024" /><nd ref="5369138070" /><tag k="highway" v="tertiary" /><tag k="oneway" v="no" /></way><way id="79" timestamp="2026-03-31T20:23:12Z" uid="1" user="OSMnx" version="1" changeset="1"><nd ref="5368763026" /><nd ref="5369138070" /><tag k="highway" v="tertiary" /><tag k="oneway" v="no" /></way><way id="80" timestamp="2026-03-31T20:23:12Z" uid="1" user="OSMnx" version="1" changeset="1"><nd ref="5368763026" /><nd ref="5369138084" /><tag k="highway" v="tertiary" /><tag k="oneway" v="no" /></way><way id="81" timestamp="2026-03-31T20:23:12Z" uid="1" user="OSMnx" version="1" changeset="1"><nd ref="5368763038" /><nd ref="4260123114" /><tag k="highway" v="secondary" /><tag k="oneway" v="yes" /></way><way id="82" timestamp="2026-03-31T20:23:12Z" uid="1" user="OSMnx" version="1" changeset="1"><nd ref="5368763083" /><nd ref="5368763084" /><tag k="highway" v="tertiary" /><tag k="oneway" v="no" /></way><way id="83" timestamp="2026-03-31T20:23:12Z" uid="1" user="OSMnx" version="1" changeset="1"><nd ref="5368763083" /><nd ref="5368763098" /><tag k="highway" v="tertiary" /><tag k="oneway" v="no" /></way><way id="84" timestamp="2026-03-31T20:23:12Z" uid="1" user="OSMnx" version="1" changeset="1"><nd ref="5368763084" /><nd ref="5368763091" /><tag k="highway" v="tertiary" /><tag k="oneway" v="no" /></way><way id="85" timestamp="2026-03-31T20:23:12Z" uid="1" user="OSMnx" version="1" changeset="1"><nd ref="5368763084" /><nd ref="5368763083" /><tag k="highway" v="tertiary" /><tag k="oneway" v="no" /></way><way id="86" timestamp="2026-03-31T20:23:12Z" uid="1" user="OSMnx" version="1" changeset="1"><nd ref="5368763084" /><nd ref="5369138116" /><tag k="highway" v="tertiary" /><tag k="oneway" v="yes" /></way><way id="87" timestamp="2026-03-31T20:23:12Z" uid="1" user="OSMnx" version="1" changeset="1"><nd ref="5368763090" /><nd ref="5368763021" /><tag k="highway" v="tertiary" /><tag k="oneway" v="no" /></way><way id="88" timestamp="2026-03-31T20:23:12Z" uid="1" user="OSMnx" version="1" changeset="1"><nd ref="5368763090" /><nd ref="5369243048" /><tag k="highway" v="tertiary" /><tag k="oneway" v="no" /></way><way id="89" timestamp="2026-03-31T20:23:12Z" uid="1" user="OSMnx" version="1" changeset="1"><nd ref="5368763091" /><nd ref="5369243046" /><tag k="highway" v="tertiary" /><tag k="oneway" v="no" /></way><way id="90" timestamp="2026-03-31T20:23:12Z" uid="1" user="OSMnx" version="1" changeset="1"><nd ref="5368763091" /><nd ref="5368763084" /><tag k="highway" v="tertiary" /><tag k="oneway" v="no" /></way><way id="91" timestamp="2026-03-31T20:23:12Z" uid="1" user="OSMnx" version="1" changeset="1"><nd ref="5368763091" /><nd ref="5369243044" /><tag k="highway" v="unclassified" /><tag k="oneway" v="no" /></way><way id="92" timestamp="2026-03-31T20:23:12Z" uid="1" user="OSMnx" version="1" changeset="1"><nd ref="5368763092" /><nd ref="5368762703" /><tag k="highway" v="tertiary" /><tag k="oneway" v="yes" /></way><way id="93" timestamp="2026-03-31T20:23:12Z" uid="1" user="OSMnx" version="1" changeset="1"><nd ref="5368763098" /><nd ref="5368763083" /><tag k="highway" v="tertiary" /><tag k="oneway" v="no" /></way><way id="94" timestamp="2026-03-31T20:23:12Z" uid="1" user="OSMnx" version="1" changeset="1"><nd ref="5368763098" /><nd ref="5369137335" /><tag k="highway" v="tertiary" /><tag k="oneway" v="no" /></way><way id="95" timestamp="2026-03-31T20:23:12Z" uid="1" user="OSMnx" version="1" changeset="1"><nd ref="5368884227" /><nd ref="5368761910" /><tag k="highway" v="residential" /><tag k="oneway" v="no" /></way><way id="96" timestamp="2026-03-31T20:23:12Z" uid="1" user="OSMnx" version="1" changeset="1"><nd ref="5368884227" /><nd ref="5368761911" /><tag k="highway" v="residential" /><tag k="oneway" v="no" /></way><way id="97" timestamp="2026-03-31T20:23:12Z" uid="1" user="OSMnx" version="1" changeset="1"><nd ref="5368884227" /><nd ref="5369137370" /><tag k="highway" v="residential" /><tag k="oneway" v="no" /></way><way id="98" timestamp="2026-03-31T20:23:12Z" uid="1" user="OSMnx" version="1" changeset="1"><nd ref="5368884235" /><nd ref="5369137340" /><tag k="highway" v="residential" /><tag k="oneway" v="no" /></way><way id="99" timestamp="2026-03-31T20:23:12Z" uid="1" user="OSMnx" version="1" changeset="1"><nd ref="5368884236" /><nd ref="5369137340" /><tag k="highway" v="residential" /><tag k="oneway" v="no" /></way><way id="100" timestamp="2026-03-31T20:23:12Z" uid="1" user="OSMnx" version="1" changeset="1"><nd ref="5368884236" /><nd ref="5368884237" /><tag k="highway" v="residential" /><tag k="oneway" v="no" /></way><way id="101" timestamp="2026-03-31T20:23:12Z" uid="1" user="OSMnx" version="1" changeset="1"><nd ref="5368884237" /><nd ref="5368884236" /><tag k="highway" v="residential" /><tag k="oneway" v="no" /></way><way id="102" timestamp="2026-03-31T20:23:12Z" uid="1" user="OSMnx" version="1" changeset="1"><nd ref="5368884237" /><nd ref="5368884238" /><tag k="highway" v="residential" /><tag k="oneway" v="no" /></way><way id="103" timestamp="2026-03-31T20:23:12Z" uid="1" user="OSMnx" version="1" changeset="1"><nd ref="5368884238" /><nd ref="5368762704" /><tag k="highway" v="unclassified" /><tag k="oneway" v="no" /></way><way id="104" timestamp="2026-03-31T20:23:12Z" uid="1" user="OSMnx" version="1" changeset="1"><nd ref="5368884238" /><nd ref="5368884237" /><tag k="highway" v="residential" /><tag k="oneway" v="no" /></way><way id="105" timestamp="2026-03-31T20:23:12Z" uid="1" user="OSMnx" version="1" changeset="1"><nd ref="5369137326" /><nd ref="5368763083" /><tag k="highway" v="tertiary" /><tag k="oneway" v="yes" /></way><way id="106" timestamp="2026-03-31T20:23:12Z" uid="1" user="OSMnx" version="1" changeset="1"><nd ref="5369137326" /><nd ref="5369137327" /><tag k="highway" v="service" /><tag k="oneway" v="no" /></way><way id="107" timestamp="2026-03-31T20:23:12Z" uid="1" user="OSMnx" version="1" changeset="1"><nd ref="5369137327" /><nd ref="5369137326" /><tag k="highway" v="service" /><tag k="oneway" v="no" /></way><way id="108" timestamp="2026-03-31T20:23:12Z" uid="1" user="OSMnx" version="1" changeset="1"><nd ref="5369137335" /><nd ref="5368763098" /><tag k="highway" v="tertiary" /><tag k="oneway" v="no" /></way><way id="109" timestamp="2026-03-31T20:23:12Z" uid="1" user="OSMnx" version="1" changeset="1"><nd ref="5369137335" /><nd ref="5369137336" /><tag k="highway" v="residential" /><tag k="oneway" v="no" /></way><way id="110" timestamp="2026-03-31T20:23:12Z" uid="1" user="OSMnx" version="1" changeset="1"><nd ref="5369137336" /><nd ref="5369137335" /><tag k="highway" v="residential" /><tag k="oneway" v="no" /></way><way id="111" timestamp="2026-03-31T20:23:12Z" uid="1" user="OSMnx" version="1" changeset="1"><nd ref="5369137336" /><nd ref="5369137337" /><tag k="highway" v="residential" /><tag k="oneway" v="no" /></way><way id="112" timestamp="2026-03-31T20:23:12Z" uid="1" user="OSMnx" version="1" changeset="1"><nd ref="5369137337" /><nd ref="5369137336" /><tag k="highway" v="residential" /><tag k="oneway" v="no" /></way><way id="113" timestamp="2026-03-31T20:23:12Z" uid="1" user="OSMnx" version="1" changeset="1"><nd ref="5369137337" /><nd ref="5369137338" /><tag k="highway" v="residential" /><tag k="oneway" v="no" /></way><way id="114" timestamp="2026-03-31T20:23:12Z" uid="1" user="OSMnx" version="1" changeset="1"><nd ref="5369137338" /><nd ref="5369137337" /><tag k="highway" v="residential" /><tag k="oneway" v="no" /></way><way id="115" timestamp="2026-03-31T20:23:12Z" uid="1" user="OSMnx" version="1" changeset="1"><nd ref="5369137338" /><nd ref="5369137339" /><tag k="highway" v="residential" /><tag k="oneway" v="no" /></way><way id="116" timestamp="2026-03-31T20:23:12Z" uid="1" user="OSMnx" version="1" changeset="1"><nd ref="5369137339" /><nd ref="5369137338" /><tag k="highway" v="residential" /><tag k="oneway" v="no" /></way><way id="117" timestamp="2026-03-31T20:23:12Z" uid="1" user="OSMnx" version="1" changeset="1"><nd ref="5369137340" /><nd ref="5368884235" /><tag k="highway" v="residential" /><tag k="oneway" v="no" /></way><way id="118" timestamp="2026-03-31T20:23:12Z" uid="1" user="OSMnx" version="1" changeset="1"><nd ref="5369137340" /><nd ref="5368884236" /><tag k="highway" v="residential" /><tag k="oneway" v="no" /></way><way id="119" timestamp="2026-03-31T20:23:12Z" uid="1" user="OSMnx" version="1" changeset="1"><nd ref="5369137352" /><nd ref="5368762703" /><tag k="highway" v="unclassified" /><tag k="oneway" v="no" /></way><way id="120" timestamp="2026-03-31T20:23:12Z" uid="1" user="OSMnx" version="1" changeset="1"><nd ref="5369137352" /><nd ref="5368761913" /><tag k="highway" v="unclassified" /><tag k="oneway" v="no" /></way><way id="121" timestamp="2026-03-31T20:23:12Z" uid="1" user="OSMnx" version="1" changeset="1"><nd ref="5369137352" /><nd ref="5369137353" /><tag k="highway" v="residential" /><tag k="oneway" v="no" /></way><way id="122" timestamp="2026-03-31T20:23:12Z" uid="1" user="OSMnx" version="1" changeset="1"><nd ref="5369137353" /><nd ref="5368761908" /><tag k="highway" v="residential" /><tag k="oneway" v="no" /></way><way id="123" timestamp="2026-03-31T20:23:12Z" uid="1" user="OSMnx" version="1" changeset="1"><nd ref="5369137353" /><nd ref="5368761909" /><tag k="highway" v="residential" /><tag k="oneway" v="no" /></way><way id="124" timestamp="2026-03-31T20:23:12Z" uid="1" user="OSMnx" version="1" changeset="1"><nd ref="5369137353" /><nd ref="5369137352" /><tag k="highway" v="residential" /><tag k="oneway" v="no" /></way><way id="125" timestamp="2026-03-31T20:23:12Z" uid="1" user="OSMnx" version="1" changeset="1"><nd ref="5369137368" /><nd ref="5368762704" /><tag k="highway" v="residential" /><tag k="oneway" v="no" /></way><way id="126" timestamp="2026-03-31T20:23:12Z" uid="1" user="OSMnx" version="1" changeset="1"><nd ref="5369137368" /><nd ref="5369137372" /><tag k="highway" v="residential" /><tag k="oneway" v="no" /></way><way id="127" timestamp="2026-03-31T20:23:12Z" uid="1" user="OSMnx" version="1" changeset="1"><nd ref="5369137370" /><nd ref="5369137374" /><tag k="highway" v="residential" /><tag k="oneway" v="no" /></way><way id="128" timestamp="2026-03-31T20:23:12Z" uid="1" user="OSMnx" version="1" changeset="1"><nd ref="5369137370" /><nd ref="5368884227" /><tag k="highway" v="residential" /><tag k="oneway" v="no" /></way><way id="129" timestamp="2026-03-31T20:23:12Z" uid="1" user="OSMnx" version="1" changeset="1"><nd ref="5369137372" /><nd ref="5369137368" /><tag k="highway" v="residential" /><tag k="oneway" v="no" /></way><way id="130" timestamp="2026-03-31T20:23:12Z" uid="1" user="OSMnx" version="1" changeset="1"><nd ref="5369137372" /><nd ref="5369137985" /><tag k="highway" v="residential" /><tag k="oneway" v="no" /></way><way id="131" timestamp="2026-03-31T20:23:12Z" uid="1" user="OSMnx" version="1" changeset="1"><nd ref="5369137374" /><nd ref="5369137985" /><tag k="highway" v="residential" /><tag k="oneway" v="no" /></way><way id="132" timestamp="2026-03-31T20:23:12Z" uid="1" user="OSMnx" version="1" changeset="1"><nd ref="5369137374" /><nd ref="5369137370" /><tag k="highway" v="residential" /><tag k="oneway" v="no" /></way><way id="133" timestamp="2026-03-31T20:23:12Z" uid="1" user="OSMnx" version="1" changeset="1"><nd ref="5369137985" /><nd ref="5369137372" /><tag k="highway" v="residential" /><tag k="oneway" v="no" /></way><way id="134" timestamp="2026-03-31T20:23:12Z" uid="1" user="OSMnx" version="1" changeset="1"><nd ref="5369137985" /><nd ref="5369137374" /><tag k="highway" v="residential" /><tag k="oneway" v="no" /></way><way id="135" timestamp="2026-03-31T20:23:12Z" uid="1" user="OSMnx" version="1" changeset="1"><nd ref="5369138032" /><nd ref="5369138033" /><tag k="highway" v="residential" /><tag k="oneway" v="no" /></way><way id="136" timestamp="2026-03-31T20:23:12Z" uid="1" user="OSMnx" version="1" changeset="1"><nd ref="5369138033" /><nd ref="5369138032" /><tag k="highway" v="residential" /><tag k="oneway" v="no" /></way><way id="137" timestamp="2026-03-31T20:23:12Z" uid="1" user="OSMnx" version="1" changeset="1"><nd ref="5369138033" /><nd ref="5369138034" /><tag k="highway" v="residential" /><tag k="oneway" v="no" /></way><way id="138" timestamp="2026-03-31T20:23:12Z" uid="1" user="OSMnx" version="1" changeset="1"><nd ref="5369138034" /><nd ref="5369138033" /><tag k="highway" v="residential" /><tag k="oneway" v="no" /></way><way id="139" timestamp="2026-03-31T20:23:12Z" uid="1" user="OSMnx" version="1" changeset="1"><nd ref="5369138034" /><nd ref="5369138035" /><tag k="highway" v="residential" /><tag k="oneway" v="no" /></way><way id="140" timestamp="2026-03-31T20:23:12Z" uid="1" user="OSMnx" version="1" changeset="1"><nd ref="5369138035" /><nd ref="5369138034" /><tag k="highway" v="residential" /><tag k="oneway" v="no" /></way><way id="141" timestamp="2026-03-31T20:23:12Z" uid="1" user="OSMnx" version="1" changeset="1"><nd ref="5369138035" /><nd ref="5369138036" /><tag k="highway" v="residential" /><tag k="oneway" v="no" /></way><way id="142" timestamp="2026-03-31T20:23:12Z" uid="1" user="OSMnx" version="1" changeset="1"><nd ref="5369138036" /><nd ref="5369138035" /><tag k="highway" v="residential" /><tag k="oneway" v="no" /></way><way id="143" timestamp="2026-03-31T20:23:12Z" uid="1" user="OSMnx" version="1" changeset="1"><nd ref="5369138036" /><nd ref="5369138037" /><tag k="highway" v="residential" /><tag k="oneway" v="no" /></way><way id="144" timestamp="2026-03-31T20:23:12Z" uid="1" user="OSMnx" version="1" changeset="1"><nd ref="5369138037" /><nd ref="5369138036" /><tag k="highway" v="residential" /><tag k="oneway" v="no" /></way><way id="145" timestamp="2026-03-31T20:23:12Z" uid="1" user="OSMnx" version="1" changeset="1"><nd ref="5369138037" /><nd ref="5369138079" /><tag k="highway" v="residential" /><tag k="oneway" v="no" /></way><way id="146" timestamp="2026-03-31T20:23:12Z" uid="1" user="OSMnx" version="1" changeset="1"><nd ref="5369138037" /><nd ref="5369138083" /><tag k="highway" v="residential" /><tag k="oneway" v="no" /></way><way id="147" timestamp="2026-03-31T20:23:12Z" uid="1" user="OSMnx" version="1" changeset="1"><nd ref="5369138068" /><nd ref="5369138069" /><tag k="highway" v="service" /><tag k="oneway" v="no" /></way><way id="148" timestamp="2026-03-31T20:23:12Z" uid="1" user="OSMnx" version="1" changeset="1"><nd ref="5369138068" /><nd ref="5369138070" /><tag k="highway" v="service" /><tag k="oneway" v="no" /></way><way id="149" timestamp="2026-03-31T20:23:12Z" uid="1" user="OSMnx" version="1" changeset="1"><nd ref="5369138068" /><nd ref="5369138071" /><tag k="highway" v="service" /><tag k="oneway" v="no" /></way><way id="150" timestamp="2026-03-31T20:23:12Z" uid="1" user="OSMnx" version="1" changeset="1"><nd ref="5369138069" /><nd ref="5369138068" /><tag k="highway" v="service" /><tag k="oneway" v="no" /></way><way id="151" timestamp="2026-03-31T20:23:12Z" uid="1" user="OSMnx" version="1" changeset="1"><nd ref="5369138070" /><nd ref="5368763024" /><tag k="highway" v="tertiary" /><tag k="oneway" v="no" /></way><way id="152" timestamp="2026-03-31T20:23:12Z" uid="1" user="OSMnx" version="1" changeset="1"><nd ref="5369138070" /><nd ref="5368763026" /><tag k="highway" v="tertiary" /><tag k="oneway" v="no" /></way><way id="153" timestamp="2026-03-31T20:23:12Z" uid="1" user="OSMnx" version="1" changeset="1"><nd ref="5369138070" /><nd ref="5369138068" /><tag k="highway" v="service" /><tag k="oneway" v="no" /></way><way id="154" timestamp="2026-03-31T20:23:12Z" uid="1" user="OSMnx" version="1" changeset="1"><nd ref="5369138071" /><nd ref="5369138068" /><tag k="highway" v="service" /><tag k="oneway" v="no" /></way><way id="155" timestamp="2026-03-31T20:23:12Z" uid="1" user="OSMnx" version="1" changeset="1"><nd ref="5369138077" /><nd ref="5369138080" /><tag k="highway" v="residential" /><tag k="oneway" v="no" /></way><way id="156" timestamp="2026-03-31T20:23:12Z" uid="1" user="OSMnx" version="1" changeset="1"><nd ref="5369138077" /><nd ref="5369138078" /><tag k="highway" v="residential" /><tag k="oneway" v="no" /></way><way id="157" timestamp="2026-03-31T20:23:12Z" uid="1" user="OSMnx" version="1" changeset="1"><nd ref="5369138078" /><nd ref="5369138077" /><tag k="highway" v="residential" /><tag k="oneway" v="no" /></way><way id="158" timestamp="2026-03-31T20:23:12Z" uid="1" user="OSMnx" version="1" changeset="1"><nd ref="5369138078" /><nd ref="5369138079" /><tag k="highway" v="residential" /><tag k="oneway" v="no" /></way><way id="159" timestamp="2026-03-31T20:23:12Z" uid="1" user="OSMnx" version="1" changeset="1"><nd ref="5369138079" /><nd ref="5369138078" /><tag k="highway" v="residential" /><tag k="oneway" v="no" /></way><way id="160" timestamp="2026-03-31T20:23:12Z" uid="1" user="OSMnx" version="1" changeset="1"><nd ref="5369138079" /><nd ref="5369138085" /><tag k="highway" v="residential" /><tag k="oneway" v="no" /></way><way id="161" timestamp="2026-03-31T20:23:12Z" uid="1" user="OSMnx" version="1" changeset="1"><nd ref="5369138079" /><nd ref="5369138037" /><tag k="highway" v="residential" /><tag k="oneway" v="no" /></way><way id="162" timestamp="2026-03-31T20:23:12Z" uid="1" user="OSMnx" version="1" changeset="1"><nd ref="5369138080" /><nd ref="5369138081" /><tag k="highway" v="residential" /><tag k="oneway" v="no" /></way><way id="163" timestamp="2026-03-31T20:23:12Z" uid="1" user="OSMnx" version="1" changeset="1"><nd ref="5369138080" /><nd ref="5369138077" /><tag k="highway" v="residential" /><tag k="oneway" v="no" /></way><way id="164" timestamp="2026-03-31T20:23:12Z" uid="1" user="OSMnx" version="1" changeset="1"><nd ref="5369138081" /><nd ref="5369138080" /><tag k="highway" v="residential" /><tag k="oneway" v="no" /></way><way id="165" timestamp="2026-03-31T20:23:12Z" uid="1" user="OSMnx" version="1" changeset="1"><nd ref="5369138081" /><nd ref="5368762880" /><tag k="highway" v="residential" /><tag k="oneway" v="no" /></way><way id="166" timestamp="2026-03-31T20:23:12Z" uid="1" user="OSMnx" version="1" changeset="1"><nd ref="5369138081" /><nd ref="5369138082" /><tag k="highway" v="residential" /><tag k="oneway" v="no" /></way><way id="167" timestamp="2026-03-31T20:23:12Z" uid="1" user="OSMnx" version="1" changeset="1"><nd ref="5369138082" /><nd ref="5369138081" /><tag k="highway" v="residential" /><tag k="oneway" v="no" /></way><way id="168" timestamp="2026-03-31T20:23:12Z" uid="1" user="OSMnx" version="1" changeset="1"><nd ref="5369138082" /><nd ref="5369138083" /><tag k="highway" v="residential" /><tag k="oneway" v="no" /></way><way id="169" timestamp="2026-03-31T20:23:12Z" uid="1" user="OSMnx" version="1" changeset="1"><nd ref="5369138083" /><nd ref="5369138082" /><tag k="highway" v="residential" /><tag k="oneway" v="no" /></way><way id="170" timestamp="2026-03-31T20:23:12Z" uid="1" user="OSMnx" version="1" changeset="1"><nd ref="5369138083" /><nd ref="5369138037" /><tag k="highway" v="residential" /><tag k="oneway" v="no" /></way><way id="171" timestamp="2026-03-31T20:23:12Z" uid="1" user="OSMnx" version="1" changeset="1"><nd ref="5369138083" /><nd ref="5369138086" /><tag k="highway" v="residential" /><tag k="oneway" v="no" /></way><way id="172" timestamp="2026-03-31T20:23:12Z" uid="1" user="OSMnx" version="1" changeset="1"><nd ref="5369138084" /><nd ref="5368763026" /><tag k="highway" v="tertiary" /><tag k="oneway" v="no" /></way><way id="173" timestamp="2026-03-31T20:23:12Z" uid="1" user="OSMnx" version="1" changeset="1"><nd ref="5369138084" /><nd ref="5369138085" /><tag k="highway" v="residential" /><tag k="oneway" v="no" /></way><way id="174" timestamp="2026-03-31T20:23:12Z" uid="1" user="OSMnx" version="1" changeset="1"><nd ref="5369138085" /><nd ref="5369138084" /><tag k="highway" v="residential" /><tag k="oneway" v="no" /></way><way id="175" timestamp="2026-03-31T20:23:12Z" uid="1" user="OSMnx" version="1" changeset="1"><nd ref="5369138085" /><nd ref="5369138079" /><tag k="highway" v="residential" /><tag k="oneway" v="no" /></way><way id="176" timestamp="2026-03-31T20:23:12Z" uid="1" user="OSMnx" version="1" changeset="1"><nd ref="5369138086" /><nd ref="5369138083" /><tag k="highway" v="residential" /><tag k="oneway" v="no" /></way><way id="177" timestamp="2026-03-31T20:23:12Z" uid="1" user="OSMnx" version="1" changeset="1"><nd ref="5369138086" /><nd ref="5369138087" /><tag k="highway" v="residential" /><tag k="oneway" v="no" /></way><way id="178" timestamp="2026-03-31T20:23:12Z" uid="1" user="OSMnx" version="1" changeset="1"><nd ref="5369138087" /><nd ref="5369138086" /><tag k="highway" v="residential" /><tag k="oneway" v="no" /></way><way id="179" timestamp="2026-03-31T20:23:12Z" uid="1" user="OSMnx" version="1" changeset="1"><nd ref="5369138087" /><nd ref="5369138088" /><tag k="highway" v="residential" /><tag k="oneway" v="no" /></way><way id="180" timestamp="2026-03-31T20:23:12Z" uid="1" user="OSMnx" version="1" changeset="1"><nd ref="5369138088" /><nd ref="5369138087" /><tag k="highway" v="residential" /><tag k="oneway" v="no" /></way><way id="181" timestamp="2026-03-31T20:23:12Z" uid="1" user="OSMnx" version="1" changeset="1"><nd ref="5369138088" /><nd ref="5369138089" /><tag k="highway" v="residential" /><tag k="oneway" v="no" /></way><way id="182" timestamp="2026-03-31T20:23:12Z" uid="1" user="OSMnx" version="1" changeset="1"><nd ref="5369138089" /><nd ref="5369138088" /><tag k="highway" v="residential" /><tag k="oneway" v="no" /></way><way id="183" timestamp="2026-03-31T20:23:12Z" uid="1" user="OSMnx" version="1" changeset="1"><nd ref="5369138089" /><nd ref="5369138090" /><tag k="highway" v="residential" /><tag k="oneway" v="no" /></way><way id="184" timestamp="2026-03-31T20:23:12Z" uid="1" user="OSMnx" version="1" changeset="1"><nd ref="5369138090" /><nd ref="5368762891" /><tag k="highway" v="unclassified" /><tag k="oneway" v="no" /></way><way id="185" timestamp="2026-03-31T20:23:12Z" uid="1" user="OSMnx" version="1" changeset="1"><nd ref="5369138090" /><nd ref="5369138091" /><tag k="highway" v="unclassified" /><tag k="oneway" v="no" /></way><way id="186" timestamp="2026-03-31T20:23:12Z" uid="1" user="OSMnx" version="1" changeset="1"><nd ref="5369138090" /><nd ref="5369138089" /><tag k="highway" v="residential" /><tag k="oneway" v="no" /></way><way id="187" timestamp="2026-03-31T20:23:12Z" uid="1" user="OSMnx" version="1" changeset="1"><nd ref="5369138091" /><nd ref="5369138090" /><tag k="highway" v="unclassified" /><tag k="oneway" v="no" /></way><way id="188" timestamp="2026-03-31T20:23:12Z" uid="1" user="OSMnx" version="1" changeset="1"><nd ref="5369138091" /><nd ref="5368762892" /><tag k="highway" v="unclassified" /><tag k="oneway" v="no" /></way><way id="189" timestamp="2026-03-31T20:23:12Z" uid="1" user="OSMnx" version="1" changeset="1"><nd ref="5369138091" /><nd ref="5369138092" /><tag k="highway" v="residential" /><tag k="oneway" v="no" /></way><way id="190" timestamp="2026-03-31T20:23:12Z" uid="1" user="OSMnx" version="1" changeset="1"><nd ref="5369138092" /><nd ref="5369138095" /><tag k="highway" v="residential" /><tag k="oneway" v="no" /></way><way id="191" timestamp="2026-03-31T20:23:12Z" uid="1" user="OSMnx" version="1" changeset="1"><nd ref="5369138092" /><nd ref="5369138091" /><tag k="highway" v="residential" /><tag k="oneway" v="no" /></way><way id="192" timestamp="2026-03-31T20:23:12Z" uid="1" user="OSMnx" version="1" changeset="1"><nd ref="5369138092" /><nd ref="5369138093" /><tag k="highway" v="residential" /><tag k="oneway" v="no" /></way><way id="193" timestamp="2026-03-31T20:23:12Z" uid="1" user="OSMnx" version="1" changeset="1"><nd ref="5369138093" /><nd ref="5369138092" /><tag k="highway" v="residential" /><tag k="oneway" v="no" /></way><way id="194" timestamp="2026-03-31T20:23:12Z" uid="1" user="OSMnx" version="1" changeset="1"><nd ref="5369138094" /><nd ref="5368762890" /><tag k="highway" v="unclassified" /><tag k="oneway" v="no" /></way><way id="195" timestamp="2026-03-31T20:23:12Z" uid="1" user="OSMnx" version="1" changeset="1"><nd ref="5369138094" /><nd ref="5368762891" /><tag k="highway" v="unclassified" /><tag k="oneway" v="no" /></way><way id="196" timestamp="2026-03-31T20:23:12Z" uid="1" user="OSMnx" version="1" changeset="1"><nd ref="5369138094" /><nd ref="5369138095" /><tag k="highway" v="residential" /><tag k="oneway" v="no" /></way><way id="197" timestamp="2026-03-31T20:23:12Z" uid="1" user="OSMnx" version="1" changeset="1"><nd ref="5369138095" /><nd ref="5368762881" /><tag k="highway" v="residential" /><tag k="oneway" v="no" /></way><way id="198" timestamp="2026-03-31T20:23:12Z" uid="1" user="OSMnx" version="1" changeset="1"><nd ref="5369138095" /><nd ref="5369138092" /><tag k="highway" v="residential" /><tag k="oneway" v="no" /></way><way id="199" timestamp="2026-03-31T20:23:12Z" uid="1" user="OSMnx" version="1" changeset="1"><nd ref="5369138095" /><nd ref="5369138094" /><tag k="highway" v="residential" /><tag k="oneway" v="no" /></way><way id="200" timestamp="2026-03-31T20:23:12Z" uid="1" user="OSMnx" version="1" changeset="1"><nd ref="5369138095" /><nd ref="5369138096" /><tag k="highway" v="residential" /><tag k="oneway" v="no" /></way><way id="201" timestamp="2026-03-31T20:23:12Z" uid="1" user="OSMnx" version="1" changeset="1"><nd ref="5369138096" /><nd ref="5369138093" /><tag k="highway" v="secondary" /><tag k="oneway" v="yes" /></way><way id="202" timestamp="2026-03-31T20:23:12Z" uid="1" user="OSMnx" version="1" changeset="1"><nd ref="5369138096" /><nd ref="5369138095" /><tag k="highway" v="residential" /><tag k="oneway" v="no" /></way><way id="203" timestamp="2026-03-31T20:23:12Z" uid="1" user="OSMnx" version="1" changeset="1"><nd ref="5369138101" /><nd ref="5369138102" /><tag k="highway" v="service" /><tag k="oneway" v="no" /></way><way id="204" timestamp="2026-03-31T20:23:12Z" uid="1" user="OSMnx" version="1" changeset="1"><nd ref="5369138102" /><nd ref="5369138101" /><tag k="highway" v="service" /><tag k="oneway" v="no" /></way><way id="205" timestamp="2026-03-31T20:23:12Z" uid="1" user="OSMnx" version="1" changeset="1"><nd ref="5369138102" /><nd ref="5369138103" /><tag k="highway" v="residential" /><tag k="oneway" v="no" /></way><way id="206" timestamp="2026-03-31T20:23:12Z" uid="1" user="OSMnx" version="1" changeset="1"><nd ref="5369138102" /><nd ref="5369138104" /><tag k="highway" v="residential" /><tag k="oneway" v="no" /></way><way id="207" timestamp="2026-03-31T20:23:12Z" uid="1" user="OSMnx" version="1" changeset="1"><nd ref="5369138103" /><nd ref="5368763021" /><tag k="highway" v="secondary" /><tag k="oneway" v="yes" /></way><way id="208" timestamp="2026-03-31T20:23:12Z" uid="1" user="OSMnx" version="1" changeset="1"><nd ref="5369138103" /><nd ref="5369138102" /><tag k="highway" v="residential" /><tag k="oneway" v="no" /></way><way id="209" timestamp="2026-03-31T20:23:12Z" uid="1" user="OSMnx" version="1" changeset="1"><nd ref="5369138104" /><nd ref="5369138102" /><tag k="highway" v="residential" /><tag k="oneway" v="no" /></way><way id="210" timestamp="2026-03-31T20:23:12Z" uid="1" user="OSMnx" version="1" changeset="1"><nd ref="5369138104" /><nd ref="5369138105" /><tag k="highway" v="unclassified" /><tag k="oneway" v="no" /></way><way id="211" timestamp="2026-03-31T20:23:12Z" uid="1" user="OSMnx" version="1" changeset="1"><nd ref="5369138104" /><nd ref="5369138106" /><tag k="highway" v="unclassified" /><tag k="oneway" v="no" /></way><way id="212" timestamp="2026-03-31T20:23:12Z" uid="1" user="OSMnx" version="1" changeset="1"><nd ref="5369138105" /><nd ref="5369243048" /><tag k="highway" v="tertiary" /><tag k="oneway" v="no" /></way><way id="213" timestamp="2026-03-31T20:23:12Z" uid="1" user="OSMnx" version="1" changeset="1"><nd ref="5369138105" /><nd ref="5369243046" /><tag k="highway" v="tertiary" /><tag k="oneway" v="no" /></way><way id="214" timestamp="2026-03-31T20:23:12Z" uid="1" user="OSMnx" version="1" changeset="1"><nd ref="5369138105" /><nd ref="5369138104" /><tag k="highway" v="unclassified" /><tag k="oneway" v="no" /></way><way id="215" timestamp="2026-03-31T20:23:12Z" uid="1" user="OSMnx" version="1" changeset="1"><nd ref="5369138106" /><nd ref="5369138117" /><tag k="highway" v="unclassified" /><tag k="oneway" v="no" /></way><way id="216" timestamp="2026-03-31T20:23:12Z" uid="1" user="OSMnx" version="1" changeset="1"><nd ref="5369138106" /><nd ref="5369138116" /><tag k="highway" v="unclassified" /><tag k="oneway" v="no" /></way><way id="217" timestamp="2026-03-31T20:23:12Z" uid="1" user="OSMnx" version="1" changeset="1"><nd ref="5369138106" /><nd ref="5369138104" /><tag k="highway" v="unclassified" /><tag k="oneway" v="no" /></way><way id="218" timestamp="2026-03-31T20:23:12Z" uid="1" user="OSMnx" version="1" changeset="1"><nd ref="5369138116" /><nd ref="5369138106" /><tag k="highway" v="unclassified" /><tag k="oneway" v="no" /></way><way id="219" timestamp="2026-03-31T20:23:12Z" uid="1" user="OSMnx" version="1" changeset="1"><nd ref="5369138116" /><nd ref="5368762703" /><tag k="highway" v="unclassified" /><tag k="oneway" v="no" /></way><way id="220" timestamp="2026-03-31T20:23:12Z" uid="1" user="OSMnx" version="1" changeset="1"><nd ref="5369138116" /><nd ref="5368763085" /><tag k="highway" v="tertiary" /><tag k="oneway" v="yes" /></way><way id="221" timestamp="2026-03-31T20:23:12Z" uid="1" user="OSMnx" version="1" changeset="1"><nd ref="5369138117" /><nd ref="5369138106" /><tag k="highway" v="unclassified" /><tag k="oneway" v="no" /></way><way id="222" timestamp="2026-03-31T20:23:12Z" uid="1" user="OSMnx" version="1" changeset="1"><nd ref="5369138117" /><nd ref="5369138103" /><tag k="highway" v="secondary" /><tag k="oneway" v="yes" /></way><way id="223" timestamp="2026-03-31T20:23:12Z" uid="1" user="OSMnx" version="1" changeset="1"><nd ref="5369242064" /><nd ref="5368761402" /><tag k="highway" v="unclassified" /><tag k="oneway" v="no" /></way><way id="224" timestamp="2026-03-31T20:23:12Z" uid="1" user="OSMnx" version="1" changeset="1"><nd ref="5369242064" /><nd ref="5369242091" /><tag k="highway" v="unclassified" /><tag k="oneway" v="no" /></way><way id="225" timestamp="2026-03-31T20:23:12Z" uid="1" user="OSMnx" version="1" changeset="1"><nd ref="5369242080" /><nd ref="5369242081" /><tag k="highway" v="service" /><tag k="oneway" v="no" /></way><way id="226" timestamp="2026-03-31T20:23:12Z" uid="1" user="OSMnx" version="1" changeset="1"><nd ref="5369242081" /><nd ref="5369242080" /><tag k="highway" v="service" /><tag k="oneway" v="no" /></way><way id="227" timestamp="2026-03-31T20:23:12Z" uid="1" user="OSMnx" version="1" changeset="1"><nd ref="5369242081" /><nd ref="5369242086" /><tag k="highway" v="service" /><tag k="oneway" v="no" /></way><way id="228" timestamp="2026-03-31T20:23:12Z" uid="1" user="OSMnx" version="1" changeset="1"><nd ref="5369242081" /><nd ref="5369242084" /><tag k="highway" v="service" /><tag k="oneway" v="no" /></way><way id="229" timestamp="2026-03-31T20:23:12Z" uid="1" user="OSMnx" version="1" changeset="1"><nd ref="5369242082" /><nd ref="5369242083" /><tag k="highway" v="service" /><tag k="oneway" v="no" /></way><way id="230" timestamp="2026-03-31T20:23:12Z" uid="1" user="OSMnx" version="1" changeset="1"><nd ref="5369242083" /><nd ref="5369242082" /><tag k="highway" v="service" /><tag k="oneway" v="no" /></way><way id="231" timestamp="2026-03-31T20:23:12Z" uid="1" user="OSMnx" version="1" changeset="1"><nd ref="5369242083" /><nd ref="5369242084" /><tag k="highway" v="service" /><tag k="oneway" v="no" /></way><way id="232" timestamp="2026-03-31T20:23:12Z" uid="1" user="OSMnx" version="1" changeset="1"><nd ref="5369242083" /><nd ref="5369242089" /><tag k="highway" v="service" /><tag k="oneway" v="no" /></way><way id="233" timestamp="2026-03-31T20:23:12Z" uid="1" user="OSMnx" version="1" changeset="1"><nd ref="5369242084" /><nd ref="5369242085" /><tag k="highway" v="service" /><tag k="oneway" v="no" /></way><way id="234" timestamp="2026-03-31T20:23:12Z" uid="1" user="OSMnx" version="1" changeset="1"><nd ref="5369242084" /><nd ref="5369242081" /><tag k="highway" v="service" /><tag k="oneway" v="no" /></way><way id="235" timestamp="2026-03-31T20:23:12Z" uid="1" user="OSMnx" version="1" changeset="1"><nd ref="5369242084" /><nd ref="5369242083" /><tag k="highway" v="service" /><tag k="oneway" v="no" /></way><way id="236" timestamp="2026-03-31T20:23:12Z" uid="1" user="OSMnx" version="1" changeset="1"><nd ref="5369242085" /><nd ref="5369242084" /><tag k="highway" v="service" /><tag k="oneway" v="no" /></way><way id="237" timestamp="2026-03-31T20:23:12Z" uid="1" user="OSMnx" version="1" changeset="1"><nd ref="5369242086" /><nd ref="5369242087" /><tag k="highway" v="service" /><tag k="oneway" v="no" /></way><way id="238" timestamp="2026-03-31T20:23:12Z" uid="1" user="OSMnx" version="1" changeset="1"><nd ref="5369242086" /><nd ref="5369242088" /><tag k="highway" v="service" /><tag k="oneway" v="no" /></way><way id="239" timestamp="2026-03-31T20:23:12Z" uid="1" user="OSMnx" version="1" changeset="1"><nd ref="5369242086" /><nd ref="5369242081" /><tag k="highway" v="service" /><tag k="oneway" v="no" /></way><way id="240" timestamp="2026-03-31T20:23:12Z" uid="1" user="OSMnx" version="1" changeset="1"><nd ref="5369242087" /><nd ref="5369242086" /><tag k="highway" v="service" /><tag k="oneway" v="no" /></way><way id="241" timestamp="2026-03-31T20:23:12Z" uid="1" user="OSMnx" version="1" changeset="1"><nd ref="5369242088" /><nd ref="5369242086" /><tag k="highway" v="service" /><tag k="oneway" v="no" /></way><way id="242" timestamp="2026-03-31T20:23:12Z" uid="1" user="OSMnx" version="1" changeset="1"><nd ref="5369242088" /><nd ref="5369242093" /><tag k="highway" v="unclassified" /><tag k="oneway" v="no" /></way><way id="243" timestamp="2026-03-31T20:23:12Z" uid="1" user="OSMnx" version="1" changeset="1"><nd ref="5369242088" /><nd ref="5369242090" /><tag k="highway" v="unclassified" /><tag k="oneway" v="no" /></way><way id="244" timestamp="2026-03-31T20:23:12Z" uid="1" user="OSMnx" version="1" changeset="1"><nd ref="5369242089" /><nd ref="5369242083" /><tag k="highway" v="service" /><tag k="oneway" v="no" /></way><way id="245" timestamp="2026-03-31T20:23:12Z" uid="1" user="OSMnx" version="1" changeset="1"><nd ref="5369242090" /><nd ref="5368763038" /><tag k="highway" v="secondary" /><tag k="oneway" v="yes" /></way><way id="246" timestamp="2026-03-31T20:23:12Z" uid="1" user="OSMnx" version="1" changeset="1"><nd ref="5369242090" /><nd ref="5369242088" /><tag k="highway" v="unclassified" /><tag k="oneway" v="no" /></way><way id="247" timestamp="2026-03-31T20:23:12Z" uid="1" user="OSMnx" version="1" changeset="1"><nd ref="5369242090" /><nd ref="5369242094" /><tag k="highway" v="unclassified" /><tag k="oneway" v="no" /></way><way id="248" timestamp="2026-03-31T20:23:12Z" uid="1" user="OSMnx" version="1" changeset="1"><nd ref="5369242091" /><nd ref="5369242064" /><tag k="highway" v="unclassified" /><tag k="oneway" v="no" /></way><way id="249" timestamp="2026-03-31T20:23:12Z" uid="1" user="OSMnx" version="1" changeset="1"><nd ref="5369242091" /><nd ref="5369242092" /><tag k="highway" v="unclassified" /><tag k="oneway" v="no" /></way><way id="250" timestamp="2026-03-31T20:23:12Z" uid="1" user="OSMnx" version="1" changeset="1"><nd ref="5369242092" /><nd ref="5369242091" /><tag k="highway" v="unclassified" /><tag k="oneway" v="no" /></way><way id="251" timestamp="2026-03-31T20:23:12Z" uid="1" user="OSMnx" version="1" changeset="1"><nd ref="5369242092" /><nd ref="5369242093" /><tag k="highway" v="unclassified" /><tag k="oneway" v="no" /></way><way id="252" timestamp="2026-03-31T20:23:12Z" uid="1" user="OSMnx" version="1" changeset="1"><nd ref="5369242093" /><nd ref="5369242092" /><tag k="highway" v="unclassified" /><tag k="oneway" v="no" /></way><way id="253" timestamp="2026-03-31T20:23:12Z" uid="1" user="OSMnx" version="1" changeset="1"><nd ref="5369242093" /><nd ref="5369242088" /><tag k="highway" v="unclassified" /><tag k="oneway" v="no" /></way><way id="254" timestamp="2026-03-31T20:23:12Z" uid="1" user="OSMnx" version="1" changeset="1"><nd ref="5369242094" /><nd ref="5368763043" /><tag k="highway" v="secondary" /><tag k="oneway" v="yes" /></way><way id="255" timestamp="2026-03-31T20:23:12Z" uid="1" user="OSMnx" version="1" changeset="1"><nd ref="5369242094" /><nd ref="5369242090" /><tag k="highway" v="unclassified" /><tag k="oneway" v="no" /></way><way id="256" timestamp="2026-03-31T20:23:12Z" uid="1" user="OSMnx" version="1" changeset="1"><nd ref="5369242094" /><nd ref="5369242095" /><tag k="highway" v="unclassified" /><tag k="oneway" v="no" /></way><way id="257" timestamp="2026-03-31T20:23:12Z" uid="1" user="OSMnx" version="1" changeset="1"><nd ref="5369242095" /><nd ref="5369242958" /><tag k="highway" v="unclassified" /><tag k="oneway" v="no" /></way><way id="258" timestamp="2026-03-31T20:23:12Z" uid="1" user="OSMnx" version="1" changeset="1"><nd ref="5369242095" /><nd ref="5368762917" /><tag k="highway" v="unclassified" /><tag k="oneway" v="no" /></way><way id="259" timestamp="2026-03-31T20:23:12Z" uid="1" user="OSMnx" version="1" changeset="1"><nd ref="5369242095" /><nd ref="5369242094" /><tag k="highway" v="unclassified" /><tag k="oneway" v="no" /></way><way id="260" timestamp="2026-03-31T20:23:12Z" uid="1" user="OSMnx" version="1" changeset="1"><nd ref="5369242954" /><nd ref="5369242970" /><tag k="highway" v="residential" /><tag k="oneway" v="no" /></way><way id="261" timestamp="2026-03-31T20:23:12Z" uid="1" user="OSMnx" version="1" changeset="1"><nd ref="5369242954" /><nd ref="5369242967" /><tag k="highway" v="residential" /><tag k="oneway" v="no" /></way><way id="262" timestamp="2026-03-31T20:23:12Z" uid="1" user="OSMnx" version="1" changeset="1"><nd ref="5369242958" /><nd ref="5368762916" /><tag k="highway" v="unclassified" /><tag k="oneway" v="no" /></way><way id="263" timestamp="2026-03-31T20:23:12Z" uid="1" user="OSMnx" version="1" changeset="1"><nd ref="5369242958" /><nd ref="5369242095" /><tag k="highway" v="unclassified" /><tag k="oneway" v="no" /></way><way id="264" timestamp="2026-03-31T20:23:12Z" uid="1" user="OSMnx" version="1" changeset="1"><nd ref="5369242967" /><nd ref="5369242954" /><tag k="highway" v="residential" /><tag k="oneway" v="no" /></way><way id="265" timestamp="2026-03-31T20:23:12Z" uid="1" user="OSMnx" version="1" changeset="1"><nd ref="5369242970" /><nd ref="5368762916" /><tag k="highway" v="unclassified" /><tag k="oneway" v="no" /></way><way id="266" timestamp="2026-03-31T20:23:12Z" uid="1" user="OSMnx" version="1" changeset="1"><nd ref="5369242970" /><nd ref="5369242954" /><tag k="highway" v="residential" /><tag k="oneway" v="no" /></way><way id="267" timestamp="2026-03-31T20:23:12Z" uid="1" user="OSMnx" version="1" changeset="1"><nd ref="5369242988" /><nd ref="5369242989" /><tag k="highway" v="service" /><tag k="oneway" v="no" /></way><way id="268" timestamp="2026-03-31T20:23:12Z" uid="1" user="OSMnx" version="1" changeset="1"><nd ref="5369242989" /><nd ref="5369242988" /><tag k="highway" v="service" /><tag k="oneway" v="no" /></way><way id="269" timestamp="2026-03-31T20:23:12Z" uid="1" user="OSMnx" version="1" changeset="1"><nd ref="5369242989" /><nd ref="5369242992" /><tag k="highway" v="service" /><tag k="oneway" v="no" /></way><way id="270" timestamp="2026-03-31T20:23:12Z" uid="1" user="OSMnx" version="1" changeset="1"><nd ref="5369242989" /><nd ref="5369242993" /><tag k="highway" v="service" /><tag k="oneway" v="no" /></way><way id="271" timestamp="2026-03-31T20:23:12Z" uid="1" user="OSMnx" version="1" changeset="1"><nd ref="5369242990" /><nd ref="5369242997" /><tag k="highway" v="service" /><tag k="oneway" v="no" /></way><way id="272" timestamp="2026-03-31T20:23:12Z" uid="1" user="OSMnx" version="1" changeset="1"><nd ref="5369242990" /><nd ref="5369242991" /><tag k="highway" v="service" /><tag k="oneway" v="no" /></way><way id="273" timestamp="2026-03-31T20:23:12Z" uid="1" user="OSMnx" version="1" changeset="1"><nd ref="5369242991" /><nd ref="5369242990" /><tag k="highway" v="service" /><tag k="oneway" v="no" /></way><way id="274" timestamp="2026-03-31T20:23:12Z" uid="1" user="OSMnx" version="1" changeset="1"><nd ref="5369242991" /><nd ref="5369242992" /><tag k="highway" v="service" /><tag k="oneway" v="no" /></way><way id="275" timestamp="2026-03-31T20:23:12Z" uid="1" user="OSMnx" version="1" changeset="1"><nd ref="5369242992" /><nd ref="5369242991" /><tag k="highway" v="service" /><tag k="oneway" v="no" /></way><way id="276" timestamp="2026-03-31T20:23:12Z" uid="1" user="OSMnx" version="1" changeset="1"><nd ref="5369242992" /><nd ref="5369242989" /><tag k="highway" v="service" /><tag k="oneway" v="no" /></way><way id="277" timestamp="2026-03-31T20:23:12Z" uid="1" user="OSMnx" version="1" changeset="1"><nd ref="5369242993" /><nd ref="5369242989" /><tag k="highway" v="service" /><tag k="oneway" v="no" /></way><way id="278" timestamp="2026-03-31T20:23:12Z" uid="1" user="OSMnx" version="1" changeset="1"><nd ref="5369242994" /><nd ref="5369242996" /><tag k="highway" v="service" /><tag k="oneway" v="no" /></way><way id="279" timestamp="2026-03-31T20:23:12Z" uid="1" user="OSMnx" version="1" changeset="1"><nd ref="5369242995" /><nd ref="5369242996" /><tag k="highway" v="service" /><tag k="oneway" v="no" /></way><way id="280" timestamp="2026-03-31T20:23:12Z" uid="1" user="OSMnx" version="1" changeset="1"><nd ref="5369242996" /><nd ref="5369242995" /><tag k="highway" v="service" /><tag k="oneway" v="no" /></way><way id="281" timestamp="2026-03-31T20:23:12Z" uid="1" user="OSMnx" version="1" changeset="1"><nd ref="5369242996" /><nd ref="5369242994" /><tag k="highway" v="service" /><tag k="oneway" v="no" /></way><way id="282" timestamp="2026-03-31T20:23:12Z" uid="1" user="OSMnx" version="1" changeset="1"><nd ref="5369242996" /><nd ref="5369242997" /><tag k="highway" v="service" /><tag k="oneway" v="no" /></way><way id="283" timestamp="2026-03-31T20:23:12Z" uid="1" user="OSMnx" version="1" changeset="1"><nd ref="5369242997" /><nd ref="5369242990" /><tag k="highway" v="service" /><tag k="oneway" v="no" /></way><way id="284" timestamp="2026-03-31T20:23:12Z" uid="1" user="OSMnx" version="1" changeset="1"><nd ref="5369242997" /><nd ref="5369242996" /><tag k="highway" v="service" /><tag k="oneway" v="no" /></way><way id="285" timestamp="2026-03-31T20:23:12Z" uid="1" user="OSMnx" version="1" changeset="1"><nd ref="5369242997" /><nd ref="5369242998" /><tag k="highway" v="service" /><tag k="oneway" v="no" /></way><way id="286" timestamp="2026-03-31T20:23:12Z" uid="1" user="OSMnx" version="1" changeset="1"><nd ref="5369242998" /><nd ref="5368762920" /><tag k="highway" v="unclassified" /><tag k="oneway" v="no" /></way><way id="287" timestamp="2026-03-31T20:23:12Z" uid="1" user="OSMnx" version="1" changeset="1"><nd ref="5369242998" /><nd ref="5369243044" /><tag k="highway" v="unclassified" /><tag k="oneway" v="no" /></way><way id="288" timestamp="2026-03-31T20:23:12Z" uid="1" user="OSMnx" version="1" changeset="1"><nd ref="5369242998" /><nd ref="5369242997" /><tag k="highway" v="service" /><tag k="oneway" v="no" /></way><way id="289" timestamp="2026-03-31T20:23:12Z" uid="1" user="OSMnx" version="1" changeset="1"><nd ref="5369243044" /><nd ref="5369242998" /><tag k="highway" v="unclassified" /><tag k="oneway" v="no" /></way><way id="290" timestamp="2026-03-31T20:23:12Z" uid="1" user="OSMnx" version="1" changeset="1"><nd ref="5369243044" /><nd ref="5368763091" /><tag k="highway" v="unclassified" /><tag k="oneway" v="no" /></way><way id="291" timestamp="2026-03-31T20:23:12Z" uid="1" user="OSMnx" version="1" changeset="1"><nd ref="5369243044" /><nd ref="5369243045" /><tag k="highway" v="service" /><tag k="oneway" v="no" /></way><way id="292" timestamp="2026-03-31T20:23:12Z" uid="1" user="OSMnx" version="1" changeset="1"><nd ref="5369243045" /><nd ref="5369243044" /><tag k="highway" v="service" /><tag k="oneway" v="no" /></way><way id="293" timestamp="2026-03-31T20:23:12Z" uid="1" user="OSMnx" version="1" changeset="1"><nd ref="5369243045" /><nd ref="5369243046" /><tag k="highway" v="service" /><tag k="oneway" v="no" /></way><way id="294" timestamp="2026-03-31T20:23:12Z" uid="1" user="OSMnx" version="1" changeset="1"><nd ref="5369243046" /><nd ref="5369138105" /><tag k="highway" v="tertiary" /><tag k="oneway" v="no" /></way><way id="295" timestamp="2026-03-31T20:23:12Z" uid="1" user="OSMnx" version="1" changeset="1"><nd ref="5369243046" /><nd ref="5368763091" /><tag k="highway" v="tertiary" /><tag k="oneway" v="no" /></way><way id="296" timestamp="2026-03-31T20:23:12Z" uid="1" user="OSMnx" version="1" changeset="1"><nd ref="5369243046" /><nd ref="5369243045" /><tag k="highway" v="service" /><tag k="oneway" v="no" /></way><way id="297" timestamp="2026-03-31T20:23:12Z" uid="1" user="OSMnx" version="1" changeset="1"><nd ref="5369243047" /><nd ref="5369243048" /><tag k="highway" v="service" /><tag k="oneway" v="no" /></way><way id="298" timestamp="2026-03-31T20:23:12Z" uid="1" user="OSMnx" version="1" changeset="1"><nd ref="5369243048" /><nd ref="5368763090" /><tag k="highway" v="tertiary" /><tag k="oneway" v="no" /></way><way id="299" timestamp="2026-03-31T20:23:12Z" uid="1" user="OSMnx" version="1" changeset="1"><nd ref="5369243048" /><nd ref="5369138105" /><tag k="highway" v="tertiary" /><tag k="oneway" v="no" /></way><way id="300" timestamp="2026-03-31T20:23:12Z" uid="1" user="OSMnx" version="1" changeset="1"><nd ref="5369243048" /><nd ref="5369243047" /><tag k="highway" v="service" /><tag k="oneway" v="no" /></way></osm>