<?xml version='1.0' encoding='utf-8'?>
<osm version="0.6" generator="OSMnx 1.8.0"><node id="10144781734" timestamp="2026-03-30T15:58:16Z" uid="1" user="OSMnx" version="1" changeset="1" lat="26.697818" lon="99.906284" /><node id="10144781735" timestamp="2026-03-30T15:58:16Z" uid="1" user="OSMnx" version="1" changeset="1" lat="26.697835" lon="99.906889" /><node id="10144781736" timestamp="2026-03-30T15:58:16Z" uid="1" user="OSMnx" version="1" changeset="1" lat="26.697868" lon="99.907187" /><node id="10144781737" timestamp="2026-03-30T15:58:16Z" uid="1" user="OSMnx" version="1" changeset="1" lat="26.697876" lon="99.907503" /><node id="10144781738" timestamp="2026-03-30T15:58:16Z" uid="1" user="OSMnx" version="1" changeset="1" lat="26.697918" lon="99.907652" /><node id="10144781739" timestamp="2026-03-30T15:58:16Z" uid="1" user="OSMnx" version="1" changeset="1" lat="26.698051" lon="99.907894" /><node id="10144781740" timestamp="2026-03-30T15:58:16Z" uid="1" user="OSMnx" version="1" changeset="1" lat="26.698142" lon="99.908006" /><node id="10144781741" timestamp="2026-03-30T15:58:16Z" uid="1" user="OSMnx" version="1" changeset="1" lat="26.69825" lon="99.90808" /><node id="10144781742" timestamp="2026-03-30T15:58:16Z" uid="1" user="OSMnx" version="1" changeset="1" lat="26.698492" lon="99.908164" /><node id="10144781743" timestamp="2026-03-30T15:58:16Z" uid="1" user="OSMnx" version="1" changeset="1" lat="26.6986" lon="99.908238" /><node id="10144781744" timestamp="2026-03-30T15:58:16Z" uid="1" user="OSMnx" version="1" changeset="1" lat="26.698733" lon="99.90849" /><node id="10144781745" timestamp="2026-03-30T15:58:16Z" uid="1" user="OSMnx" version="1" changeset="1" lat="26.698907" lon="99.908722" /><node id="10144781746" timestamp="2026-03-30T15:58:16Z" uid="1" user="OSMnx" version="1" changeset="1" lat="26.699007" lon="99.908816" /><node id="10144781747" timestamp="2026-03-30T15:58:16Z" uid="1" user="OSMnx" version="1" changeset="1" lat="26.699223" lon="99.908946" /><node id="10144781748" timestamp="2026-03-30T15:58:16Z" uid="1" user="OSMnx" version="1" changeset="1" lat="26.699273" lon="99.909234" /><node id="10144781749" timestamp="2026-03-30T15:58:16Z" uid="1" user="OSMnx" version="1" changeset="1" lat="26.699282" lon="99.909374" /><node id="10144781750" timestamp="2026-03-30T15:58:16Z" uid="1" user="OSMnx" version="1" changeset="1" lat="26.699215" lon="99.909504" /><node id="10144781751" timestamp="2026-03-30T15:58:16Z" uid="1" user="OSMnx" version="1" changeset="1" lat="26.699107" lon="99.909597" /><node id="10144781752" timestamp="2026-03-30T15:58:16Z" uid="1" user="OSMnx" version="1" changeset="1" lat="26.699032" lon="99.909718" /><node id="10144781753" timestamp="2026-03-30T15:58:16Z" uid="1" user="OSMnx" version="1" changeset="1" lat="26.699057" lon="99.909867" /><node id="10144781754" timestamp="2026-03-30T15:58:16Z" uid="1" user="OSMnx" version="1" changeset="1" lat="26.699115" lon="99.909998" /><node id="10144781755" timestamp="2026-03-30T15:58:16Z" uid="1" user="OSMnx" version="1" changeset="1" lat="26.699132" lon="99.910286" /><node id="10144781756" timestamp="2026-03-30T15:58:16Z" uid="1" user="OSMnx" version="1" changeset="1" lat="26.699207" lon="99.910407" /><node id="10144781757" timestamp="2026-03-30T15:58:16Z" uid="1" user="OSMnx" version="1" changeset="1" lat="26.699414" lon="99.910593" /><node id="10144781758" timestamp="2026-03-30T15:58:16Z" uid="1" user="OSMnx" version="1" changeset="1" lat="26.699523" lon="99.910668" /><node id="10144781759" timestamp="2026-03-30T15:58:16Z" uid="1" user="OSMnx" version="1" changeset="1" lat="26.699747" lon="99.910789" /><node id="10144781760" timestamp="2026-03-30T15:58:16Z" uid="1" user="OSMnx" version="1" changeset="1" lat="26.700105" lon="99.910873" /><node id="10144781761" timestamp="2026-03-30T15:58:16Z" uid="1" user="OSMnx" version="1" changeset="1" lat="26.700229" lon="99.910938" /><node id="10144781762" timestamp="2026-03-30T15:58:16Z" uid="1" user="OSMnx" version="1" changeset="1" lat="26.700346" lon="99.911031" /><node id="10144781763" timestamp="2026-03-30T15:58:16Z" uid="1" user="OSMnx" version="1" changeset="1" lat="26.70087" lon="99.911044" /><node id="10144781764" timestamp="2026-03-30T15:58:16Z" uid="1" user="OSMnx" version="1" changeset="1" lat="26.701008" lon="99.911066" /><node id="10144781765" timestamp="2026-03-30T15:58:16Z" uid="1" user="OSMnx" version="1" changeset="1" lat="26.701246" lon="99.911309" /><node id="10144781766" timestamp="2026-03-30T15:58:16Z" uid="1" user="OSMnx" version="1" changeset="1" lat="26.701384" lon="99.911365" /><node id="10144781767" timestamp="2026-03-30T15:58:16Z" uid="1" user="OSMnx" version="1" changeset="1" lat="26.701967" lon="99.911342" /><node id="10144781768" timestamp="2026-03-30T15:58:16Z" uid="1" user="OSMnx" version="1" changeset="1" lat="26.702106" lon="99.91142" /><node id="10144781769" timestamp="2026-03-30T15:58:16Z" uid="1" user="OSMnx" version="1" changeset="1" lat="26.702234" lon="99.91173" /><node id="10144781770" timestamp="2026-03-30T15:58:16Z" uid="1" user="OSMnx" version="1" changeset="1" lat="26.702373" lon="99.911796" /><node id="10144781771" timestamp="2026-03-30T15:58:16Z" uid="1" user="OSMnx" version="1" changeset="1" lat="26.702521" lon="99.911785" /><node id="10144781772" timestamp="2026-03-30T15:58:16Z" uid="1" user="OSMnx" version="1" changeset="1" lat="26.70258" lon="99.911951" /><node id="10144781773" timestamp="2026-03-30T15:58:16Z" uid="1" user="OSMnx" version="1" changeset="1" lat="26.70262" lon="99.912283" /><node id="10144781774" timestamp="2026-03-30T15:58:16Z" uid="1" user="OSMnx" version="1" changeset="1" lat="26.702758" lon="99.912361" /><node id="10144781775" timestamp="2026-03-30T15:58:16Z" uid="1" user="OSMnx" version="1" changeset="1" lat="26.702907" lon="99.912328" /><node id="10144781776" timestamp="2026-03-30T15:58:16Z" uid="1" user="OSMnx" version="1" changeset="1" lat="26.703045" lon="99.912261" /><node id="10144781777" timestamp="2026-03-30T15:58:16Z" uid="1" user="OSMnx" version="1" changeset="1" lat="26.703342" lon="99.912184" /><node id="10144781778" timestamp="2026-03-30T15:58:16Z" uid="1" user="OSMnx" version="1" changeset="1" lat="26.703846" lon="99.911874" /><node id="10144781779" timestamp="2026-03-30T15:58:16Z" uid="1" user="OSMnx" version="1" changeset="1" lat="26.704054" lon="99.911619" /><node id="10144781780" timestamp="2026-03-30T15:58:16Z" uid="1" user="OSMnx" version="1" changeset="1" lat="26.704163" lon="99.911497" /><node id="10144781781" timestamp="2026-03-30T15:58:16Z" uid="1" user="OSMnx" version="1" changeset="1" lat="26.704291" lon="99.911398" /><node id="10144781782" timestamp="2026-03-30T15:58:16Z" uid="1" user="OSMnx" version="1" changeset="1" lat="26.70475" lon="99.910859" /><node id="10144781783" timestamp="2026-03-30T15:58:16Z" uid="1" user="OSMnx" version="1" changeset="1" lat="26.704945" lon="99.91078" /><node id="10144781784" timestamp="2026-03-30T15:58:16Z" uid="1" user="OSMnx" version="1" changeset="1" lat="26.705351" lon="99.910734" /><node id="10144781785" timestamp="2026-03-30T15:58:16Z" uid="1" user="OSMnx" version="1" changeset="1" lat="26.705561" lon="99.910686" /><node id="10144781786" timestamp="2026-03-30T15:58:16Z" uid="1" user="OSMnx" version="1" changeset="1" lat="26.705756" lon="99.910593" /><node id="10144781787" timestamp="2026-03-30T15:58:16Z" uid="1" user="OSMnx" version="1" changeset="1" lat="26.705938" lon="99.910467" /><node id="10144781788" timestamp="2026-03-30T15:58:16Z" uid="1" user="OSMnx" version="1" changeset="1" lat="26.706036" lon="99.91028" /><way id="0" timestamp="2026-03-30T15:58:16Z" uid="1" user="OSMnx" version="1" changeset="1"><nd ref="10144781734" /><nd ref="10144781735" /><tag k="highway" v="unclassified" /><tag k="oneway" v="no" /></way><way id="1" timestamp="2026-03-30T15:58:16Z" uid="1" user="OSMnx" version="1" changeset="1"><nd ref="10144781735" /><nd ref="10144781734" /><tag k="highway" v="unclassified" /><tag k="oneway" v="no" /></way><way id="2" timestamp="2026-03-30T15:58:16Z" uid="1" user="OSMnx" version="1" changeset="1"><nd ref="10144781735" /><nd ref="10144781736" /><tag k="highway" v="unclassified" /><tag k="oneway" v="no" /></way><way id="3" timestamp="2026-03-30T15:58:16Z" uid="1" user="OSMnx" version="1" changeset="1"><nd ref="10144781736" /><nd ref="10144781735" /><tag k="highway" v="unclassified" /><tag k="oneway" v="no" /></way><way id="4" timestamp="2026-03-30T15:58:16Z" uid="1" user="OSMnx" version="1" changeset="1"><nd ref="10144781736" /><nd ref="10144781737" /><tag k="highway" v="unclassified" /><tag k="oneway" v="no" /></way><way id="5" timestamp="2026-03-30T15:58:16Z" uid="1" user="OSMnx" version="1" changeset="1"><nd ref="10144781737" /><nd ref="10144781736" /><tag k="highway" v="unclassified" /><tag k="oneway" v="no" /></way><way id="6" timestamp="2026-03-30T15:58:16Z" uid="1" user="OSMnx" version="1" changeset="1"><nd ref="10144781737" /><nd ref="10144781738" /><tag k="highway" v="unclassified" /><tag k="oneway" v="no" /></way><way id="7" timestamp="2026-03-30T15:58:16Z" uid="1" user="OSMnx" version="1" changeset="1"><nd ref="10144781738" /><nd ref="10144781737" /><tag k="highway" v="unclassified" /><tag k="oneway" v="no" /></way><way id="8" timestamp="2026-03-30T15:58:16Z" uid="1" user="OSMnx" version="1" changeset="1"><nd ref="10144781738" /><nd ref="10144781739" /><tag k="highway" v="unclassified" /><tag k="oneway" v="no" /></way><way id="9" timestamp="2026-03-30T15:58:16Z" uid="1" user="OSMnx" version="1" changeset="1"><nd ref="10144781739" /><nd ref="10144781738" /><tag k="highway" v="unclassified" /><tag k="oneway" v="no" /></way><way id="10" timestamp="2026-03-30T15:58:16Z" uid="1" user="OSMnx" version="1" changeset="1"><nd ref="10144781739" /><nd ref="10144781740" /><tag k="highway" v="unclassified" /><tag k="oneway" v="no" /></way><way id="11" timestamp="2026-03-30T15:58:16Z" uid="1" user="OSMnx" version="1" changeset="1"><nd ref="10144781740" /><nd ref="10144781739" /><tag k="highway" v="unclassified" /><tag k="oneway" v="no" /></way><way id="12" timestamp="2026-03-30T15:58:16Z" uid="1" user="OSMnx" version="1" changeset="1"><nd ref="10144781740" /><nd ref="10144781741" /><tag k="highway" v="unclassified" /><tag k="oneway" v="no" /></way><way id="13" timestamp="2026-03-30T15:58:16Z" uid="1" user="OSMnx" version="1" changeset="1"><nd ref="10144781741" /><nd ref="10144781740" /><tag k="highway" v="unclassified" /><tag k="oneway" v="no" /></way><way id="14" timestamp="2026-03-30T15:58:16Z" uid="1" user="OSMnx" version="1" changeset="1"><nd ref="10144781741" /><nd ref="10144781742" /><tag k="highway" v="unclassified" /><tag k="oneway" v="no" /></way><way id="15" timestamp="2026-03-30T15:58:16Z" uid="1" user="OSMnx" version="1" changeset="1"><nd ref="10144781742" /><nd ref="10144781741" /><tag k="highway" v="unclassified" /><tag k="oneway" v="no" /></way><way id="16" timestamp="2026-03-30T15:58:16Z" uid="1" user="OSMnx" version="1" changeset="1"><nd ref="10144781742" /><nd ref="10144781743" /><tag k="highway" v="unclassified" /><tag k="oneway" v="no" /></way><way id="17" timestamp="2026-03-30T15:58:16Z" uid="1" user="OSMnx" version="1" changeset="1"><nd ref="10144781743" /><nd ref="10144781742" /><tag k="highway" v="unclassified" /><tag k="oneway" v="no" /></way><way id="18" timestamp="2026-03-30T15:58:16Z" uid="1" user="OSMnx" version="1" changeset="1"><nd ref="10144781743" /><nd ref="10144781744" /><tag k="highway" v="unclassified" /><tag k="oneway" v="no" /></way><way id="19" timestamp="2026-03-30T15:58:16Z" uid="1" user="OSMnx" version="1" changeset="1"><nd ref="10144781744" /><nd ref="10144781743" /><tag k="highway" v="unclassified" /><tag k="oneway" v="no" /></way><way id="20" timestamp="2026-03-30T15:58:16Z" uid="1" user="OSMnx" version="1" changeset="1"><nd ref="10144781744" /><nd ref="10144781745" /><tag k="highway" v="unclassified" /><tag k="oneway" v="no" /></way><way id="21" timestamp="2026-03-30T15:58:16Z" uid="1" user="OSMnx" version="1" changeset="1"><nd ref="10144781745" /><nd ref="10144781744" /><tag k="highway" v="unclassified" /><tag k="oneway" v="no" /></way><way id="22" timestamp="2026-03-30T15:58:16Z" uid="1" user="OSMnx" version="1" changeset="1"><nd ref="10144781745" /><nd ref="10144781746" /><tag k="highway" v="unclassified" /><tag k="oneway" v="no" /></way><way id="23" timestamp="2026-03-30T15:58:16Z" uid="1" user="OSMnx" version="1" changeset="1"><nd ref="10144781746" /><nd ref="10144781745" /><tag k="highway" v="unclassified" /><tag k="oneway" v="no" /></way><way id="24" timestamp="2026-03-30T15:58:16Z" uid="1" user="OSMnx" version="1" changeset="1"><nd ref="10144781746" /><nd ref="10144781747" /><tag k="highway" v="unclassified" /><tag k="oneway" v="no" /></way><way id="25" timestamp="2026-03-30T15:58:16Z" uid="1" user="OSMnx" version="1" changeset="1"><nd ref="10144781747" /><nd ref="10144781746" /><tag k="highway" v="unclassified" /><tag k="oneway" v="no" /></way><way id="26" timestamp="2026-03-30T15:58:16Z" uid="1" user="OSMnx" version="1" changeset="1"><nd ref="10144781747" /><nd ref="10144781748" /><tag k="highway" v="unclassified" /><tag k="oneway" v="no" /></way><way id="27" timestamp="2026-03-30T15:58:16Z" uid="1" user="OSMnx" version="1" changeset="1"><nd ref="10144781748" /><nd ref="10144781747" /><tag k="highway" v="unclassified" /><tag k="oneway" v="no" /></way><way id="28" timestamp="2026-03-30T15:58:16Z" uid="1" user="OSMnx" version="1" changeset="1"><nd ref="10144781748" /><nd ref="10144781749" /><tag k="highway" v="unclassified" /><tag k="oneway" v="no" /></way><way id="29" timestamp="2026-03-30T15:58:16Z" uid="1" user="OSMnx" version="1" changeset="1"><nd ref="10144781749" /><nd ref="10144781748" /><tag k="highway" v="unclassified" /><tag k="oneway" v="no" /></way><way id="30" timestamp="2026-03-30T15:58:16Z" uid="1" user="OSMnx" version="1" changeset="1"><nd ref="10144781749" /><nd ref="10144781750" /><tag k="highway" v="unclassified" /><tag k="oneway" v="no" /></way><way id="31" timestamp="2026-03-30T15:58:16Z" uid="1" user="OSMnx" version="1" changeset="1"><nd ref="10144781750" /><nd ref="10144781749" /><tag k="highway" v="unclassified" /><tag k="oneway" v="no" /></way><way id="32" timestamp="2026-03-30T15:58:16Z" uid="1" user="OSMnx" version="1" changeset="1"><nd ref="10144781750" /><nd ref="10144781751" /><tag k="highway" v="unclassified" /><tag k="oneway" v="no" /></way><way id="33" timestamp="2026-03-30T15:58:16Z" uid="1" user="OSMnx" version="1" changeset="1"><nd ref="10144781751" /><nd ref="10144781750" /><tag k="highway" v="unclassified" /><tag k="oneway" v="no" /></way><way id="34" timestamp="2026-03-30T15:58:16Z" uid="1" user="OSMnx" version="1" changeset="1"><nd ref="10144781751" /><nd ref="10144781752" /><tag k="highway" v="unclassified" /><tag k="oneway" v="no" /></way><way id="35" timestamp="2026-03-30T15:58:16Z" uid="1" user="OSMnx" version="1" changeset="1"><nd ref="10144781752" /><nd ref="10144781751" /><tag k="highway" v="unclassified" /><tag k="oneway" v="no" /></way><way id="36" timestamp="2026-03-30T15:58:16Z" uid="1" user="OSMnx" version="1" changeset="1"><nd ref="10144781752" /><nd ref="10144781753" /><tag k="highway" v="unclassified" /><tag k="oneway" v="no" /></way><way id="37" timestamp="2026-03-30T15:58:16Z" uid="1" user="OSMnx" version="1" changeset="1"><nd ref="10144781753" /><nd ref="10144781752" /><tag k="highway" v="unclassified" /><tag k="oneway" v="no" /></way><way id="38" timestamp="2026-03-30T15:58:16Z" uid="1" user="OSMnx" version="1" changeset="1"><nd ref="10144781753" /><nd ref="10144781754" /><tag k="highway" v="unclassified" /><tag k="oneway" v="no" /></way><way id="39" timestamp="2026-03-30T15:58:16Z" uid="1" user="OSMnx" version="1" changeset="1"><nd ref="10144781754" /><nd ref="10144781753" /><tag k="highway" v="unclassified" /><tag k="oneway" v="no" /></way><way id="40" timestamp="2026-03-30T15:58:16Z" uid="1" user="OSMnx" version="1" changeset="1"><nd ref="10144781754" /><nd ref="10144781755" /><tag k="highway" v="unclassified" /><tag k="oneway" v="no" /></way><way id="41" timestamp="2026-03-30T15:58:16Z" uid="1" user="OSMnx" version="1" changeset="1"><nd ref="10144781755" /><nd ref="10144781754" /><tag k="highway" v="unclassified" /><tag k="oneway" v="no" /></way><way id="42" timestamp="2026-03-30T15:58:16Z" uid="1" user="OSMnx" version="1" changeset="1"><nd ref="10144781755" /><nd ref="10144781756" /><tag k="highway" v="unclassified" /><tag k="oneway" v="no" /></way><way id="43" timestamp="2026-03-30T15:58:16Z" uid="1" user="OSMnx" version="1" changeset="1"><nd ref="10144781756" /><nd ref="10144781755" /><tag k="highway" v="unclassified" /><tag k="oneway" v="no" /></way><way id="44" timestamp="2026-03-30T15:58:16Z" uid="1" user="OSMnx" version="1" changeset="1"><nd ref="10144781756" /><nd ref="10144781757" /><tag k="highway" v="unclassified" /><tag k="oneway" v="no" /></way><way id="45" timestamp="2026-03-30T15:58:16Z" uid="1" user="OSMnx" version="1" changeset="1"><nd ref="10144781757" /><nd ref="10144781756" /><tag k="highway" v="unclassified" /><tag k="oneway" v="no" /></way><way id="46" timestamp="2026-03-30T15:58:16Z" uid="1" user="OSMnx" version="1" changeset="1"><nd ref="10144781757" /><nd ref="10144781758" /><tag k="highway" v="unclassified" /><tag k="oneway" v="no" /></way><way id="47" timestamp="2026-03-30T15:58:16Z" uid="1" user="OSMnx" version="1" changeset="1"><nd ref="10144781758" /><nd ref="10144781757" /><tag k="highway" v="unclassified" /><tag k="oneway" v="no" /></way><way id="48" timestamp="2026-03-30T15:58:16Z" uid="1" user="OSMnx" version="1" changeset="1"><nd ref="10144781758" /><nd ref="10144781759" /><tag k="highway" v="unclassified" /><tag k="oneway" v="no" /></way><way id="49" timestamp="2026-03-30T15:58:16Z" uid="1" user="OSMnx" version="1" changeset="1"><nd ref="10144781759" /><nd ref="10144781758" /><tag k="highway" v="unclassified" /><tag k="oneway" v="no" /></way><way id="50" timestamp="2026-03-30T15:58:16Z" uid="1" user="OSMnx" version="1" changeset="1"><nd ref="10144781759" /><nd ref="10144781760" /><tag k="highway" v="unclassified" /><tag k="oneway" v="no" /></way><way id="51" timestamp="2026-03-30T15:58:16Z" uid="1" user="OSMnx" version="1" changeset="1"><nd ref="10144781760" /><nd ref="10144781759" /><tag k="highway" v="unclassified" /><tag k="oneway" v="no" /></way><way id="52" timestamp="2026-03-30T15:58:16Z" uid="1" user="OSMnx" version="1" changeset="1"><nd ref="10144781760" /><nd ref="10144781761" /><tag k="highway" v="unclassified" /><tag k="oneway" v="no" /></way><way id="53" timestamp="2026-03-30T15:58:16Z" uid="1" user="OSMnx" version="1" changeset="1"><nd ref="10144781761" /><nd ref="10144781760" /><tag k="highway" v="unclassified" /><tag k="oneway" v="no" /></way><way id="54" timestamp="2026-03-30T15:58:16Z" uid="1" user="OSMnx" version="1" changeset="1"><nd ref="10144781761" /><nd ref="10144781762" /><tag k="highway" v="unclassified" /><tag k="oneway" v="no" /></way><way id="55" timestamp="2026-03-30T15:58:16Z" uid="1" user="OSMnx" version="1" changeset="1"><nd ref="10144781762" /><nd ref="10144781761" /><tag k="highway" v="unclassified" /><tag k="oneway" v="no" /></way><way id="56" timestamp="2026-03-30T15:58:16Z" uid="1" user="OSMnx" version="1" changeset="1"><nd ref="10144781762" /><nd ref="10144781763" /><tag k="highway" v="unclassified" /><tag k="oneway" v="no" /></way><way id="57" timestamp="2026-03-30T15:58:16Z" uid="1" user="OSMnx" version="1" changeset="1"><nd ref="10144781763" /><nd ref="10144781762" /><tag k="highway" v="unclassified" /><tag k="oneway" v="no" /></way><way id="58" timestamp="2026-03-30T15:58:16Z" uid="1" user="OSMnx" version="1" changeset="1"><nd ref="10144781763" /><nd ref="10144781764" /><tag k="highway" v="unclassified" /><tag k="oneway" v="no" /></way><way id="59" timestamp="2026-03-30T15:58:16Z" uid="1" user="OSMnx" version="1" changeset="1"><nd ref="10144781764" /><nd ref="10144781763" /><tag k="highway" v="unclassified" /><tag k="oneway" v="no" /></way><way id="60" timestamp="2026-03-30T15:58:16Z" uid="1" user="OSMnx" version="1" changeset="1"><nd ref="10144781764" /><nd ref="10144781765" /><tag k="highway" v="unclassified" /><tag k="oneway" v="no" /></way><way id="61" timestamp="2026-03-30T15:58:16Z" uid="1" user="OSMnx" version="1" changeset="1"><nd ref="10144781765" /><nd ref="10144781764" /><tag k="highway" v="unclassified" /><tag k="oneway" v="no" /></way><way id="62" timestamp="2026-03-30T15:58:16Z" uid="1" user="OSMnx" version="1" changeset="1"><nd ref="10144781765" /><nd ref="10144781766" /><tag k="highway" v="unclassified" /><tag k="oneway" v="no" /></way><way id="63" timestamp="2026-03-30T15:58:16Z" uid="1" user="OSMnx" version="1" changeset="1"><nd ref="10144781766" /><nd ref="10144781765" /><tag k="highway" v="unclassified" /><tag k="oneway" v="no" /></way><way id="64" timestamp="2026-03-30T15:58:16Z" uid="1" user="OSMnx" version="1" changeset="1"><nd ref="10144781766" /><nd ref="10144781767" /><tag k="highway" v="unclassified" /><tag k="oneway" v="no" /></way><way id="65" timestamp="2026-03-30T15:58:16Z" uid="1" user="OSMnx" version="1" changeset="1"><nd ref="10144781767" /><nd ref="10144781766" /><tag k="highway" v="unclassified" /><tag k="oneway" v="no" /></way><way id="66" timestamp="2026-03-30T15:58:16Z" uid="1" user="OSMnx" version="1" changeset="1"><nd ref="10144781767" /><nd ref="10144781768" /><tag k="highway" v="unclassified" /><tag k="oneway" v="no" /></way><way id="67" timestamp="2026-03-30T15:58:16Z" uid="1" user="OSMnx" version="1" changeset="1"><nd ref="10144781768" /><nd ref="10144781767" /><tag k="highway" v="unclassified" /><tag k="oneway" v="no" /></way><way id="68" timestamp="2026-03-30T15:58:16Z" uid="1" user="OSMnx" version="1" changeset="1"><nd ref="10144781768" /><nd ref="10144781769" /><tag k="highway" v="unclassified" /><tag k="oneway" v="no" /></way><way id="69" timestamp="2026-03-30T15:58:16Z" uid="1" user="OSMnx" version="1" changeset="1"><nd ref="10144781769" /><nd ref="10144781768" /><tag k="highway" v="unclassified" /><tag k="oneway" v="no" /></way><way id="70" timestamp="2026-03-30T15:58:16Z" uid="1" user="OSMnx" version="1" changeset="1"><nd ref="10144781769" /><nd ref="10144781770" /><tag k="highway" v="unclassified" /><tag k="oneway" v="no" /></way><way id="71" timestamp="2026-03-30T15:58:16Z" uid="1" user="OSMnx" version="1" changeset="1"><nd ref="10144781770" /><nd ref="10144781769" /><tag k="highway" v="unclassified" /><tag k="oneway" v="no" /></way><way id="72" timestamp="2026-03-30T15:58:16Z" uid="1" user="OSMnx" version="1" changeset="1"><nd ref="10144781770" /><nd ref="10144781771" /><tag k="highway" v="unclassified" /><tag k="oneway" v="no" /></way><way id="73" timestamp="2026-03-30T15:58:16Z" uid="1" user="OSMnx" version="1" changeset="1"><nd ref="10144781771" /><nd ref="10144781770" /><tag k="highway" v="unclassified" /><tag k="oneway" v="no" /></way><way id="74" timestamp="2026-03-30T15:58:16Z" uid="1" user="OSMnx" version="1" changeset="1"><nd ref="10144781771" /><nd ref="10144781772" /><tag k="highway" v="unclassified" /><tag k="oneway" v="no" /></way><way id="75" timestamp="2026-03-30T15:58:16Z" uid="1" user="OSMnx" version="1" changeset="1"><nd ref="10144781772" /><nd ref="10144781771" /><tag k="highway" v="unclassified" /><tag k="oneway" v="no" /></way><way id="76" timestamp="2026-03-30T15:58:16Z" uid="1" user="OSMnx" version="1" changeset="1"><nd ref="10144781772" /><nd ref="10144781773" /><tag k="highway" v="unclassified" /><tag k="oneway" v="no" /></way><way id="77" timestamp="2026-03-30T15:58:16Z" uid="1" user="OSMnx" version="1" changeset="1"><nd ref="10144781773" /><nd ref="10144781772" /><tag k="highway" v="unclassified" /><tag k="oneway" v="no" /></way><way id="78" timestamp="2026-03-30T15:58:16Z" uid="1" user="OSMnx" version="1" changeset="1"><nd ref="10144781773" /><nd ref="10144781774" /><tag k="highway" v="unclassified" /><tag k="oneway" v="no" /></way><way id="79" timestamp="2026-03-30T15:58:16Z" uid="1" user="OSMnx" version="1" changeset="1"><nd ref="10144781774" /><nd ref="10144781773" /><tag k="highway" v="unclassified" /><tag k="oneway" v="no" /></way><way id="80" timestamp="2026-03-30T15:58:16Z" uid="1" user="OSMnx" version="1" changeset="1"><nd ref="10144781774" /><nd ref="10144781775" /><tag k="highway" v="unclassified" /><tag k="oneway" v="no" /></way><way id="81" timestamp="2026-03-30T15:58:16Z" uid="1" user="OSMnx" version="1" changeset="1"><nd ref="10144781775" /><nd ref="10144781774" /><tag k="highway" v="unclassified" /><tag k="oneway" v="no" /></way><way id="82" timestamp="2026-03-30T15:58:16Z" uid="1" user="OSMnx" version="1" changeset="1"><nd ref="10144781775" /><nd ref="10144781776" /><tag k="highway" v="unclassified" /><tag k="oneway" v="no" /></way><way id="83" timestamp="2026-03-30T15:58:16Z" uid="1" user="OSMnx" version="1" changeset="1"><nd ref="10144781776" /><nd ref="10144781775" /><tag k="highway" v="unclassified" /><tag k="oneway" v="no" /></way><way id="84" timestamp="2026-03-30T15:58:16Z" uid="1" user="OSMnx" version="1" changeset="1"><nd ref="10144781776" /><nd ref="10144781777" /><tag k="highway" v="unclassified" /><tag k="oneway" v="no" /></way><way id="85" timestamp="2026-03-30T15:58:16Z" uid="1" user="OSMnx" version="1" changeset="1"><nd ref="10144781777" /><nd ref="10144781776" /><tag k="highway" v="unclassified" /><tag k="oneway" v="no" /></way><way id="86" timestamp="2026-03-30T15:58:16Z" uid="1" user="OSMnx" version="1" changeset="1"><nd ref="10144781777" /><nd ref="10144781778" /><tag k="highway" v="unclassified" /><tag k="oneway" v="no" /></way><way id="87" timestamp="2026-03-30T15:58:16Z" uid="1" user="OSMnx" version="1" changeset="1"><nd ref="10144781778" /><nd ref="10144781777" /><tag k="highway" v="unclassified" /><tag k="oneway" v="no" /></way><way id="88" timestamp="2026-03-30T15:58:16Z" uid="1" user="OSMnx" version="1" changeset="1"><nd ref="10144781778" /><nd ref="10144781779" /><tag k="highway" v="unclassified" /><tag k="oneway" v="no" /></way><way id="89" timestamp="2026-03-30T15:58:16Z" uid="1" user="OSMnx" version="1" changeset="1"><nd ref="10144781779" /><nd ref="10144781778" /><tag k="highway" v="unclassified" /><tag k="oneway" v="no" /></way><way id="90" timestamp="2026-03-30T15:58:16Z" uid="1" user="OSMnx" version="1" changeset="1"><nd ref="10144781779" /><nd ref="10144781780" /><tag k="highway" v="unclassified" /><tag k="oneway" v="no" /></way><way id="91" timestamp="2026-03-30T15:58:16Z" uid="1" user="OSMnx" version="1" changeset="1"><nd ref="10144781780" /><nd ref="10144781779" /><tag k="highway" v="unclassified" /><tag k="oneway" v="no" /></way><way id="92" timestamp="2026-03-30T15:58:16Z" uid="1" user="OSMnx" version="1" changeset="1"><nd ref="10144781780" /><nd ref="10144781781" /><tag k="highway" v="unclassified" /><tag k="oneway" v="no" /></way><way id="93" timestamp="2026-03-30T15:58:16Z" uid="1" user="OSMnx" version="1" changeset="1"><nd ref="10144781781" /><nd ref="10144781780" /><tag k="highway" v="unclassified" /><tag k="oneway" v="no" /></way><way id="94" timestamp="2026-03-30T15:58:16Z" uid="1" user="OSMnx" version="1" changeset="1"><nd ref="10144781781" /><nd ref="10144781782" /><tag k="highway" v="unclassified" /><tag k="oneway" v="no" /></way><way id="95" timestamp="2026-03-30T15:58:16Z" uid="1" user="OSMnx" version="1" changeset="1"><nd ref="10144781782" /><nd ref="10144781781" /><tag k="highway" v="unclassified" /><tag k="oneway" v="no" /></way><way id="96" timestamp="2026-03-30T15:58:16Z" uid="1" user="OSMnx" version="1" changeset="1"><nd ref="10144781782" /><nd ref="10144781783" /><tag k="highway" v="unclassified" /><tag k="oneway" v="no" /></way><way id="97" timestamp="2026-03-30T15:58:16Z" uid="1" user="OSMnx" version="1" changeset="1"><nd ref="10144781783" /><nd ref="10144781782" /><tag k="highway" v="unclassified" /><tag k="oneway" v="no" /></way><way id="98" timestamp="2026-03-30T15:58:16Z" uid="1" user="OSMnx" version="1" changeset="1"><nd ref="10144781783" /><nd ref="10144781784" /><tag k="highway" v="unclassified" /><tag k="oneway" v="no" /></way><way id="99" timestamp="2026-03-30T15:58:16Z" uid="1" user="OSMnx" version="1" changeset="1"><nd ref="10144781784" /><nd ref="10144781783" /><tag k="highway" v="unclassified" /><tag k="oneway" v="no" /></way><way id="100" timestamp="2026-03-30T15:58:16Z" uid="1" user="OSMnx" version="1" changeset="1"><nd ref="10144781784" /><nd ref="10144781785" /><tag k="highway" v="unclassified" /><tag k="oneway" v="no" /></way><way id="101" timestamp="2026-03-30T15:58:16Z" uid="1" user="OSMnx" version="1" changeset="1"><nd ref="10144781785" /><nd ref="10144781784" /><tag k="highway" v="unclassified" /><tag k="oneway" v="no" /></way><way id="102" timestamp="2026-03-30T15:58:16Z" uid="1" user="OSMnx" version="1" changeset="1"><nd ref="10144781785" /><nd ref="10144781786" /><tag k="highway" v="unclassified" /><tag k="oneway" v="no" /></way><way id="103" timestamp="2026-03-30T15:58:16Z" uid="1" user="OSMnx" version="1" changeset="1"><nd ref="10144781786" /><nd ref="10144781785" /><tag k="highway" v="unclassified" /><tag k="oneway" v="no" /></way><way id="104" timestamp="2026-03-30T15:58:16Z" uid="1" user="OSMnx" version="1" changeset="1"><nd ref="10144781786" /><nd ref="10144781787" /><tag k="highway" v="unclassified" /><tag k="oneway" v="no" /></way><way id="105" timestamp="2026-03-30T15:58:16Z" uid="1" user="OSMnx" version="1" changeset="1"><nd ref="10144781787" /><nd ref="10144781786" /><tag k="highway" v="unclassified" /><tag k="oneway" v="no" /></way><way id="106" timestamp="2026-03-30T15:58:16Z" uid="1" user="OSMnx" version="1" changeset="1"><nd ref="10144781787" /><nd ref="10144781788" /><tag k="highway" v="unclassified" /><tag k="oneway" v="no" /></way><way id="107" timestamp="2026-03-30T15:58:16Z" uid="1" user="OSMnx" version="1" changeset="1"><nd ref="10144781788" /><nd ref="10144781787" /><tag k="highway" v="unclassified" /><tag k="oneway" v="no" /></way></osm>