<?xml version='1.0' encoding='utf-8'?>
<osm version="0.6" generator="OSMnx 1.8.0"><node id="2128753751" timestamp="2026-03-31T17:04:53Z" uid="1" user="OSMnx" version="1" changeset="1" lat="27.230783" lon="111.465527" /><node id="2128753792" timestamp="2026-03-31T17:04:53Z" uid="1" user="OSMnx" version="1" changeset="1" lat="27.231774" lon="111.466175" /><node id="4076134965" timestamp="2026-03-31T17:04:53Z" uid="1" user="OSMnx" version="1" changeset="1" lat="27.233855" lon="111.468505" /><node id="4076134966" timestamp="2026-03-31T17:04:53Z" uid="1" user="OSMnx" version="1" changeset="1" lat="27.233987" lon="111.467078" /><node id="7917399272" timestamp="2026-03-31T17:04:53Z" uid="1" user="OSMnx" version="1" changeset="1" lat="27.22919" lon="111.471121" /><node id="7917399273" timestamp="2026-03-31T17:04:53Z" uid="1" user="OSMnx" version="1" changeset="1" lat="27.229876" lon="111.470804" /><node id="7917399274" timestamp="2026-03-31T17:04:53Z" uid="1" user="OSMnx" version="1" changeset="1" lat="27.23042" lon="111.470488" /><node id="7917399275" timestamp="2026-03-31T17:04:53Z" uid="1" user="OSMnx" version="1" changeset="1" lat="27.230883" lon="111.47008" /><node id="7917399276" timestamp="2026-03-31T17:04:53Z" uid="1" user="OSMnx" version="1" changeset="1" lat="27.23136" lon="111.470359" /><node id="7917399277" timestamp="2026-03-31T17:04:53Z" uid="1" user="OSMnx" version="1" changeset="1" lat="27.231622" lon="111.470445" /><node id="7917399278" timestamp="2026-03-31T17:04:53Z" uid="1" user="OSMnx" version="1" changeset="1" lat="27.232147" lon="111.470396" /><node id="7917399279" timestamp="2026-03-31T17:04:53Z" uid="1" user="OSMnx" version="1" changeset="1" lat="27.23226" lon="111.470126" /><node id="7917399280" timestamp="2026-03-31T17:04:53Z" uid="1" user="OSMnx" version="1" changeset="1" lat="27.232601" lon="111.469541" /><node id="7917399281" timestamp="2026-03-31T17:04:53Z" uid="1" user="OSMnx" version="1" changeset="1" lat="27.232767" lon="111.469301" /><node id="7917399282" timestamp="2026-03-31T17:04:53Z" uid="1" user="OSMnx" version="1" changeset="1" lat="27.232917" lon="111.469108" /><node id="7917399283" timestamp="2026-03-31T17:04:53Z" uid="1" user="OSMnx" version="1" changeset="1" lat="27.23319" lon="111.468864" /><node id="7919713686" timestamp="2026-03-31T17:04:53Z" uid="1" user="OSMnx" version="1" changeset="1" lat="27.232114" lon="111.470795" /><node id="7919713691" timestamp="2026-03-31T17:04:53Z" uid="1" user="OSMnx" version="1" changeset="1" lat="27.231675" lon="111.474759" /><node id="7919713692" timestamp="2026-03-31T17:04:53Z" uid="1" user="OSMnx" version="1" changeset="1" lat="27.2321" lon="111.474158" /><node id="7919713693" timestamp="2026-03-31T17:04:53Z" uid="1" user="OSMnx" version="1" changeset="1" lat="27.232395" lon="111.473444" /><node id="7919713694" timestamp="2026-03-31T17:04:53Z" uid="1" user="OSMnx" version="1" changeset="1" lat="27.232395" lon="111.472698" /><node id="7919713695" timestamp="2026-03-31T17:04:53Z" uid="1" user="OSMnx" version="1" changeset="1" lat="27.232128" lon="111.471421" /><node id="7919713704" timestamp="2026-03-31T17:04:53Z" uid="1" user="OSMnx" version="1" changeset="1" lat="27.233156" lon="111.466732" /><node id="8680882669" timestamp="2026-03-31T17:04:53Z" uid="1" user="OSMnx" version="1" changeset="1" lat="27.230238" lon="111.474829" /><node id="8680882670" timestamp="2026-03-31T17:04:53Z" uid="1" user="OSMnx" version="1" changeset="1" lat="27.229137" lon="111.472527" /><node id="8680882671" timestamp="2026-03-31T17:04:53Z" uid="1" user="OSMnx" version="1" changeset="1" lat="27.22876" lon="111.471957" /><node id="8680882672" timestamp="2026-03-31T17:04:53Z" uid="1" user="OSMnx" version="1" changeset="1" lat="27.228527" lon="111.471602" /><node id="8680882673" timestamp="2026-03-31T17:04:53Z" uid="1" user="OSMnx" version="1" changeset="1" lat="27.228166" lon="111.471196" /><node id="8680882674" timestamp="2026-03-31T17:04:53Z" uid="1" user="OSMnx" version="1" changeset="1" lat="27.226185" lon="111.469136" /><node id="8680882675" timestamp="2026-03-31T17:04:53Z" uid="1" user="OSMnx" version="1" changeset="1" lat="27.225815" lon="111.46874" /><node id="9330108204" timestamp="2026-03-31T17:04:53Z" uid="1" user="OSMnx" version="1" changeset="1" lat="27.228956" lon="111.471097" /><node id="11383183094" timestamp="2026-03-31T17:04:53Z" uid="1" user="OSMnx" version="1" changeset="1" lat="27.233699" lon="111.468564" /><node id="11383183095" timestamp="2026-03-31T17:04:53Z" uid="1" user="OSMnx" version="1" changeset="1" lat="27.23243" lon="111.469804" /><way id="0" timestamp="2026-03-31T17:04:53Z" uid="1" user="OSMnx" version="1" changeset="1"><nd ref="2128753751" /><nd ref="2128753792" /><tag k="highway" v="secondary" /><tag k="lanes" v="4" /><tag k="name" v="戴家路" /><tag k="oneway" v="no" /></way><way id="1" timestamp="2026-03-31T17:04:53Z" uid="1" user="OSMnx" version="1" changeset="1"><nd ref="2128753792" /><nd ref="2128753751" /><tag k="highway" v="secondary" /><tag k="lanes" v="4" /><tag k="name" v="戴家路" /><tag k="oneway" v="no" /></way><way id="2" timestamp="2026-03-31T17:04:53Z" uid="1" user="OSMnx" version="1" changeset="1"><nd ref="2128753792" /><nd ref="7919713704" /><tag k="highway" v="secondary" /><tag k="lanes" v="4" /><tag k="name" v="戴家路" /><tag k="oneway" v="no" /></way><way id="3" timestamp="2026-03-31T17:04:53Z" uid="1" user="OSMnx" version="1" changeset="1"><nd ref="4076134965" /><nd ref="11383183094" /><tag k="highway" v="tertiary" /><tag k="name" v="邵水西路" /><tag k="oneway" v="no" /></way><way id="4" timestamp="2026-03-31T17:04:53Z" uid="1" user="OSMnx" version="1" changeset="1"><nd ref="4076134965" /><nd ref="4076134966" /><tag k="highway" v="tertiary" /><tag k="oneway" v="no" /></way><way id="5" timestamp="2026-03-31T17:04:53Z" uid="1" user="OSMnx" version="1" changeset="1"><nd ref="4076134966" /><nd ref="7919713704" /><tag k="highway" v="secondary" /><tag k="lanes" v="4" /><tag k="name" v="戴家路" /><tag k="oneway" v="no" /></way><way id="6" timestamp="2026-03-31T17:04:53Z" uid="1" user="OSMnx" version="1" changeset="1"><nd ref="4076134966" /><nd ref="4076134965" /><tag k="highway" v="tertiary" /><tag k="oneway" v="no" /></way><way id="7" timestamp="2026-03-31T17:04:53Z" uid="1" user="OSMnx" version="1" changeset="1"><nd ref="7917399272" /><nd ref="9330108204" /><tag k="highway" v="residential" /><tag k="oneway" v="no" /></way><way id="8" timestamp="2026-03-31T17:04:53Z" uid="1" user="OSMnx" version="1" changeset="1"><nd ref="7917399272" /><nd ref="7917399273" /><tag k="highway" v="residential" /><tag k="oneway" v="no" /></way><way id="9" timestamp="2026-03-31T17:04:53Z" uid="1" user="OSMnx" version="1" changeset="1"><nd ref="7917399273" /><nd ref="7917399272" /><tag k="highway" v="residential" /><tag k="oneway" v="no" /></way><way id="10" timestamp="2026-03-31T17:04:53Z" uid="1" user="OSMnx" version="1" changeset="1"><nd ref="7917399273" /><nd ref="7917399274" /><tag k="highway" v="residential" /><tag k="oneway" v="no" /></way><way id="11" timestamp="2026-03-31T17:04:53Z" uid="1" user="OSMnx" version="1" changeset="1"><nd ref="7917399274" /><nd ref="7917399273" /><tag k="highway" v="residential" /><tag k="oneway" v="no" /></way><way id="12" timestamp="2026-03-31T17:04:53Z" uid="1" user="OSMnx" version="1" changeset="1"><nd ref="7917399274" /><nd ref="7917399275" /><tag k="highway" v="residential" /><tag k="oneway" v="no" /></way><way id="13" timestamp="2026-03-31T17:04:53Z" uid="1" user="OSMnx" version="1" changeset="1"><nd ref="7917399275" /><nd ref="7917399274" /><tag k="highway" v="residential" /><tag k="oneway" v="no" /></way><way id="14" timestamp="2026-03-31T17:04:53Z" uid="1" user="OSMnx" version="1" changeset="1"><nd ref="7917399275" /><nd ref="7917399276" /><tag k="highway" v="residential" /><tag k="oneway" v="no" /></way><way id="15" timestamp="2026-03-31T17:04:53Z" uid="1" user="OSMnx" version="1" changeset="1"><nd ref="7917399276" /><nd ref="7917399275" /><tag k="highway" v="residential" /><tag k="oneway" v="no" /></way><way id="16" timestamp="2026-03-31T17:04:53Z" uid="1" user="OSMnx" version="1" changeset="1"><nd ref="7917399276" /><nd ref="7917399277" /><tag k="highway" v="residential" /><tag k="oneway" v="no" /></way><way id="17" timestamp="2026-03-31T17:04:53Z" uid="1" user="OSMnx" version="1" changeset="1"><nd ref="7917399277" /><nd ref="7917399276" /><tag k="highway" v="residential" /><tag k="oneway" v="no" /></way><way id="18" timestamp="2026-03-31T17:04:53Z" uid="1" user="OSMnx" version="1" changeset="1"><nd ref="7917399277" /><nd ref="7917399278" /><tag k="highway" v="residential" /><tag k="oneway" v="no" /></way><way id="19" timestamp="2026-03-31T17:04:53Z" uid="1" user="OSMnx" version="1" changeset="1"><nd ref="7917399278" /><nd ref="7919713686" /><tag k="highway" v="tertiary" /><tag k="name" v="邵水西路" /><tag k="oneway" v="no" /></way><way id="20" timestamp="2026-03-31T17:04:53Z" uid="1" user="OSMnx" version="1" changeset="1"><nd ref="7917399278" /><nd ref="7917399279" /><tag k="highway" v="tertiary" /><tag k="name" v="邵水西路" /><tag k="oneway" v="no" /></way><way id="21" timestamp="2026-03-31T17:04:53Z" uid="1" user="OSMnx" version="1" changeset="1"><nd ref="7917399278" /><nd ref="7917399277" /><tag k="highway" v="residential" /><tag k="oneway" v="no" /></way><way id="22" timestamp="2026-03-31T17:04:53Z" uid="1" user="OSMnx" version="1" changeset="1"><nd ref="7917399279" /><nd ref="7917399278" /><tag k="highway" v="tertiary" /><tag k="name" v="邵水西路" /><tag k="oneway" v="no" /></way><way id="23" timestamp="2026-03-31T17:04:53Z" uid="1" user="OSMnx" version="1" changeset="1"><nd ref="7917399279" /><nd ref="11383183095" /><tag k="highway" v="tertiary" /><tag k="name" v="邵水西路" /><tag k="oneway" v="no" /></way><way id="24" timestamp="2026-03-31T17:04:53Z" uid="1" user="OSMnx" version="1" changeset="1"><nd ref="7917399280" /><nd ref="11383183095" /><tag k="highway" v="tertiary" /><tag k="name" v="邵水西路" /><tag k="oneway" v="no" /></way><way id="25" timestamp="2026-03-31T17:04:53Z" uid="1" user="OSMnx" version="1" changeset="1"><nd ref="7917399280" /><nd ref="7917399281" /><tag k="highway" v="tertiary" /><tag k="name" v="邵水西路" /><tag k="oneway" v="no" /></way><way id="26" timestamp="2026-03-31T17:04:53Z" uid="1" user="OSMnx" version="1" changeset="1"><nd ref="7917399281" /><nd ref="7917399280" /><tag k="highway" v="tertiary" /><tag k="name" v="邵水西路" /><tag k="oneway" v="no" /></way><way id="27" timestamp="2026-03-31T17:04:53Z" uid="1" user="OSMnx" version="1" changeset="1"><nd ref="7917399281" /><nd ref="7917399282" /><tag k="highway" v="tertiary" /><tag k="name" v="邵水西路" /><tag k="oneway" v="no" /></way><way id="28" timestamp="2026-03-31T17:04:53Z" uid="1" user="OSMnx" version="1" changeset="1"><nd ref="7917399282" /><nd ref="7917399281" /><tag k="highway" v="tertiary" /><tag k="name" v="邵水西路" /><tag k="oneway" v="no" /></way><way id="29" timestamp="2026-03-31T17:04:53Z" uid="1" user="OSMnx" version="1" changeset="1"><nd ref="7917399282" /><nd ref="7917399283" /><tag k="highway" v="tertiary" /><tag k="name" v="邵水西路" /><tag k="oneway" v="no" /></way><way id="30" timestamp="2026-03-31T17:04:53Z" uid="1" user="OSMnx" version="1" changeset="1"><nd ref="7917399283" /><nd ref="7917399282" /><tag k="highway" v="tertiary" /><tag k="name" v="邵水西路" /><tag k="oneway" v="no" /></way><way id="31" timestamp="2026-03-31T17:04:53Z" uid="1" user="OSMnx" version="1" changeset="1"><nd ref="7917399283" /><nd ref="11383183094" /><tag k="highway" v="tertiary" /><tag k="name" v="邵水西路" /><tag k="oneway" v="no" /></way><way id="32" timestamp="2026-03-31T17:04:53Z" uid="1" user="OSMnx" version="1" changeset="1"><nd ref="7919713686" /><nd ref="7919713695" /><tag k="highway" v="tertiary" /><tag k="name" v="邵水西路" /><tag k="oneway" v="no" /></way><way id="33" timestamp="2026-03-31T17:04:53Z" uid="1" user="OSMnx" version="1" changeset="1"><nd ref="7919713686" /><nd ref="7917399278" /><tag k="highway" v="tertiary" /><tag k="name" v="邵水西路" /><tag k="oneway" v="no" /></way><way id="34" timestamp="2026-03-31T17:04:53Z" uid="1" user="OSMnx" version="1" changeset="1"><nd ref="7919713691" /><nd ref="7919713692" /><tag k="highway" v="tertiary" /><tag k="name" v="邵水西路" /><tag k="oneway" v="no" /></way><way id="35" timestamp="2026-03-31T17:04:53Z" uid="1" user="OSMnx" version="1" changeset="1"><nd ref="7919713692" /><nd ref="7919713691" /><tag k="highway" v="tertiary" /><tag k="name" v="邵水西路" /><tag k="oneway" v="no" /></way><way id="36" timestamp="2026-03-31T17:04:53Z" uid="1" user="OSMnx" version="1" changeset="1"><nd ref="7919713692" /><nd ref="7919713693" /><tag k="highway" v="tertiary" /><tag k="name" v="邵水西路" /><tag k="oneway" v="no" /></way><way id="37" timestamp="2026-03-31T17:04:53Z" uid="1" user="OSMnx" version="1" changeset="1"><nd ref="7919713693" /><nd ref="7919713692" /><tag k="highway" v="tertiary" /><tag k="name" v="邵水西路" /><tag k="oneway" v="no" /></way><way id="38" timestamp="2026-03-31T17:04:53Z" uid="1" user="OSMnx" version="1" changeset="1"><nd ref="7919713693" /><nd ref="7919713694" /><tag k="highway" v="tertiary" /><tag k="name" v="邵水西路" /><tag k="oneway" v="no" /></way><way id="39" timestamp="2026-03-31T17:04:53Z" uid="1" user="OSMnx" version="1" changeset="1"><nd ref="7919713694" /><nd ref="7919713693" /><tag k="highway" v="tertiary" /><tag k="name" v="邵水西路" /><tag k="oneway" v="no" /></way><way id="40" timestamp="2026-03-31T17:04:53Z" uid="1" user="OSMnx" version="1" changeset="1"><nd ref="7919713694" /><nd ref="7919713695" /><tag k="highway" v="tertiary" /><tag k="name" v="邵水西路" /><tag k="oneway" v="no" /></way><way id="41" timestamp="2026-03-31T17:04:53Z" uid="1" user="OSMnx" version="1" changeset="1"><nd ref="7919713695" /><nd ref="7919713694" /><tag k="highway" v="tertiary" /><tag k="name" v="邵水西路" /><tag k="oneway" v="no" /></way><way id="42" timestamp="2026-03-31T17:04:53Z" uid="1" user="OSMnx" version="1" changeset="1"><nd ref="7919713695" /><nd ref="7919713686" /><tag k="highway" v="tertiary" /><tag k="name" v="邵水西路" /><tag k="oneway" v="no" /></way><way id="43" timestamp="2026-03-31T17:04:53Z" uid="1" user="OSMnx" version="1" changeset="1"><nd ref="7919713704" /><nd ref="2128753792" /><tag k="highway" v="secondary" /><tag k="lanes" v="4" /><tag k="name" v="戴家路" /><tag k="oneway" v="no" /></way><way id="44" timestamp="2026-03-31T17:04:53Z" uid="1" user="OSMnx" version="1" changeset="1"><nd ref="7919713704" /><nd ref="4076134966" /><tag k="highway" v="secondary" /><tag k="lanes" v="4" /><tag k="name" v="戴家路" /><tag k="oneway" v="no" /></way><way id="45" timestamp="2026-03-31T17:04:53Z" uid="1" user="OSMnx" version="1" changeset="1"><nd ref="8680882669" /><nd ref="8680882670" /><tag k="highway" v="tertiary" /><tag k="name" v="邵水西路" /><tag k="oneway" v="no" /></way><way id="46" timestamp="2026-03-31T17:04:53Z" uid="1" user="OSMnx" version="1" changeset="1"><nd ref="8680882670" /><nd ref="8680882671" /><tag k="highway" v="tertiary" /><tag k="name" v="邵水西路" /><tag k="oneway" v="no" /></way><way id="47" timestamp="2026-03-31T17:04:53Z" uid="1" user="OSMnx" version="1" changeset="1"><nd ref="8680882670" /><nd ref="8680882669" /><tag k="highway" v="tertiary" /><tag k="name" v="邵水西路" /><tag k="oneway" v="no" /></way><way id="48" timestamp="2026-03-31T17:04:53Z" uid="1" user="OSMnx" version="1" changeset="1"><nd ref="8680882671" /><nd ref="8680882672" /><tag k="highway" v="tertiary" /><tag k="name" v="邵水西路" /><tag k="oneway" v="no" /></way><way id="49" timestamp="2026-03-31T17:04:53Z" uid="1" user="OSMnx" version="1" changeset="1"><nd ref="8680882671" /><nd ref="8680882670" /><tag k="highway" v="tertiary" /><tag k="name" v="邵水西路" /><tag k="oneway" v="no" /></way><way id="50" timestamp="2026-03-31T17:04:53Z" uid="1" user="OSMnx" version="1" changeset="1"><nd ref="8680882672" /><nd ref="8680882673" /><tag k="highway" v="tertiary" /><tag k="name" v="邵水西路" /><tag k="oneway" v="no" /></way><way id="51" timestamp="2026-03-31T17:04:53Z" uid="1" user="OSMnx" version="1" changeset="1"><nd ref="8680882672" /><nd ref="8680882671" /><tag k="highway" v="tertiary" /><tag k="name" v="邵水西路" /><tag k="oneway" v="no" /></way><way id="52" timestamp="2026-03-31T17:04:53Z" uid="1" user="OSMnx" version="1" changeset="1"><nd ref="8680882673" /><nd ref="8680882674" /><tag k="highway" v="tertiary" /><tag k="name" v="邵水西路" /><tag k="oneway" v="no" /></way><way id="53" timestamp="2026-03-31T17:04:53Z" uid="1" user="OSMnx" version="1" changeset="1"><nd ref="8680882673" /><nd ref="8680882672" /><tag k="highway" v="tertiary" /><tag k="name" v="邵水西路" /><tag k="oneway" v="no" /></way><way id="54" timestamp="2026-03-31T17:04:53Z" uid="1" user="OSMnx" version="1" changeset="1"><nd ref="8680882673" /><nd ref="9330108204" /><tag k="highway" v="residential" /><tag k="oneway" v="no" /></way><way id="55" timestamp="2026-03-31T17:04:53Z" uid="1" user="OSMnx" version="1" changeset="1"><nd ref="8680882674" /><nd ref="8680882675" /><tag k="highway" v="tertiary" /><tag k="name" v="邵水西路" /><tag k="oneway" v="no" /></way><way id="56" timestamp="2026-03-31T17:04:53Z" uid="1" user="OSMnx" version="1" changeset="1"><nd ref="8680882674" /><nd ref="8680882673" /><tag k="highway" v="tertiary" /><tag k="name" v="邵水西路" /><tag k="oneway" v="no" /></way><way id="57" timestamp="2026-03-31T17:04:53Z" uid="1" user="OSMnx" version="1" changeset="1"><nd ref="8680882675" /><nd ref="8680882674" /><tag k="highway" v="tertiary" /><tag k="name" v="邵水西路" /><tag k="oneway" v="no" /></way><way id="58" timestamp="2026-03-31T17:04:53Z" uid="1" user="OSMnx" version="1" changeset="1"><nd ref="9330108204" /><nd ref="8680882673" /><tag k="highway" v="residential" /><tag k="oneway" v="no" /></way><way id="59" timestamp="2026-03-31T17:04:53Z" uid="1" user="OSMnx" version="1" changeset="1"><nd ref="9330108204" /><nd ref="7917399272" /><tag k="highway" v="residential" /><tag k="oneway" v="no" /></way><way id="60" timestamp="2026-03-31T17:04:53Z" uid="1" user="OSMnx" version="1" changeset="1"><nd ref="11383183094" /><nd ref="7917399283" /><tag k="highway" v="tertiary" /><tag k="name" v="邵水西路" /><tag k="oneway" v="no" /></way><way id="61" timestamp="2026-03-31T17:04:53Z" uid="1" user="OSMnx" version="1" changeset="1"><nd ref="11383183094" /><nd ref="4076134965" /><tag k="highway" v="tertiary" /><tag k="name" v="邵水西路" /><tag k="oneway" v="no" /></way><way id="62" timestamp="2026-03-31T17:04:53Z" uid="1" user="OSMnx" version="1" changeset="1"><nd ref="11383183095" /><nd ref="7917399279" /><tag k="highway" v="tertiary" /><tag k="name" v="邵水西路" /><tag k="oneway" v="no" /></way><way id="63" timestamp="2026-03-31T17:04:53Z" uid="1" user="OSMnx" version="1" changeset="1"><nd ref="11383183095" /><nd ref="7917399280" /><tag k="highway" v="tertiary" /><tag k="name" v="邵水西路" /><tag k="oneway" v="no" /></way></osm>