<?xml version='1.0' encoding='utf-8'?>
<osm version="0.6" generator="OSMnx 1.8.0"><node id="3696875148" timestamp="2026-03-31T17:02:50Z" uid="1" user="OSMnx" version="1" changeset="1" lat="29.599982" lon="111.394342" /><node id="4811214401" timestamp="2026-03-31T17:02:50Z" uid="1" user="OSMnx" version="1" changeset="1" lat="29.598701" lon="111.39704" /><node id="4811214402" timestamp="2026-03-31T17:02:50Z" uid="1" user="OSMnx" version="1" changeset="1" lat="29.600811" lon="111.392626" /><node id="4811214403" timestamp="2026-03-31T17:02:50Z" uid="1" user="OSMnx" version="1" changeset="1" lat="29.601" lon="111.392137" /><node id="4811214404" timestamp="2026-03-31T17:02:50Z" uid="1" user="OSMnx" version="1" changeset="1" lat="29.601051" lon="111.391894" /><node id="4811214405" timestamp="2026-03-31T17:02:50Z" uid="1" user="OSMnx" version="1" changeset="1" lat="29.601045" lon="111.391357"><tag k="highway" v="traffic_signals" /></node><node id="4812522535" timestamp="2026-03-31T17:02:50Z" uid="1" user="OSMnx" version="1" changeset="1" lat="29.599919" lon="111.391401" /><node id="4812522536" timestamp="2026-03-31T17:02:50Z" uid="1" user="OSMnx" version="1" changeset="1" lat="29.600087" lon="111.393124" /><node id="4812522537" timestamp="2026-03-31T17:02:50Z" uid="1" user="OSMnx" version="1" changeset="1" lat="29.600457" lon="111.393411" /><node id="4838264858" timestamp="2026-03-31T17:02:50Z" uid="1" user="OSMnx" version="1" changeset="1" lat="29.601858" lon="111.392768" /><node id="4838264859" timestamp="2026-03-31T17:02:50Z" uid="1" user="OSMnx" version="1" changeset="1" lat="29.601579" lon="111.393514" /><node id="4838264860" timestamp="2026-03-31T17:02:50Z" uid="1" user="OSMnx" version="1" changeset="1" lat="29.601237" lon="111.391432" /><node id="4838264861" timestamp="2026-03-31T17:02:50Z" uid="1" user="OSMnx" version="1" changeset="1" lat="29.601477" lon="111.391542" /><node id="4838264862" timestamp="2026-03-31T17:02:50Z" uid="1" user="OSMnx" version="1" changeset="1" lat="29.601789" lon="111.391661" /><node id="4838264863" timestamp="2026-03-31T17:02:50Z" uid="1" user="OSMnx" version="1" changeset="1" lat="29.601984" lon="111.391792" /><node id="4838264864" timestamp="2026-03-31T17:02:50Z" uid="1" user="OSMnx" version="1" changeset="1" lat="29.602059" lon="111.392027" /><node id="4838264865" timestamp="2026-03-31T17:02:50Z" uid="1" user="OSMnx" version="1" changeset="1" lat="29.602024" lon="111.392315" /><node id="4838264866" timestamp="2026-03-31T17:02:50Z" uid="1" user="OSMnx" version="1" changeset="1" lat="29.601483" lon="111.393841" /><node id="4838264867" timestamp="2026-03-31T17:02:50Z" uid="1" user="OSMnx" version="1" changeset="1" lat="29.601478" lon="111.393998" /><node id="4838264868" timestamp="2026-03-31T17:02:50Z" uid="1" user="OSMnx" version="1" changeset="1" lat="29.601493" lon="111.394186" /><node id="4838264869" timestamp="2026-03-31T17:02:50Z" uid="1" user="OSMnx" version="1" changeset="1" lat="29.601531" lon="111.39434" /><node id="4838264870" timestamp="2026-03-31T17:02:50Z" uid="1" user="OSMnx" version="1" changeset="1" lat="29.601934" lon="111.394915" /><node id="4838264871" timestamp="2026-03-31T17:02:50Z" uid="1" user="OSMnx" version="1" changeset="1" lat="29.60207" lon="111.395042" /><node id="4838264872" timestamp="2026-03-31T17:02:50Z" uid="1" user="OSMnx" version="1" changeset="1" lat="29.602273" lon="111.3951" /><node id="4866742848" timestamp="2026-03-31T17:02:50Z" uid="1" user="OSMnx" version="1" changeset="1" lat="29.60125" lon="111.391042" /><node id="4866742849" timestamp="2026-03-31T17:02:50Z" uid="1" user="OSMnx" version="1" changeset="1" lat="29.601189" lon="111.390908" /><node id="4866742850" timestamp="2026-03-31T17:02:50Z" uid="1" user="OSMnx" version="1" changeset="1" lat="29.600896" lon="111.39076" /><node id="4866743503" timestamp="2026-03-31T17:02:50Z" uid="1" user="OSMnx" version="1" changeset="1" lat="29.598157" lon="111.398245" /><node id="4866743504" timestamp="2026-03-31T17:02:50Z" uid="1" user="OSMnx" version="1" changeset="1" lat="29.59877" lon="111.39708" /><node id="4866743505" timestamp="2026-03-31T17:02:50Z" uid="1" user="OSMnx" version="1" changeset="1" lat="29.600075" lon="111.394382" /><node id="4866743506" timestamp="2026-03-31T17:02:50Z" uid="1" user="OSMnx" version="1" changeset="1" lat="29.601087" lon="111.391342" /><node id="4866743538" timestamp="2026-03-31T17:02:50Z" uid="1" user="OSMnx" version="1" changeset="1" lat="29.600507" lon="111.393465" /><node id="4866743539" timestamp="2026-03-31T17:02:50Z" uid="1" user="OSMnx" version="1" changeset="1" lat="29.600866" lon="111.392652" /><node id="4866743540" timestamp="2026-03-31T17:02:50Z" uid="1" user="OSMnx" version="1" changeset="1" lat="29.601059" lon="111.392128" /><node id="4866743541" timestamp="2026-03-31T17:02:50Z" uid="1" user="OSMnx" version="1" changeset="1" lat="29.601123" lon="111.391888" /><node id="4866743542" timestamp="2026-03-31T17:02:50Z" uid="1" user="OSMnx" version="1" changeset="1" lat="29.600981" lon="111.390805" /><node id="4866743564" timestamp="2026-03-31T17:02:50Z" uid="1" user="OSMnx" version="1" changeset="1" lat="29.598098" lon="111.398163" /><node id="4940736771" timestamp="2026-03-31T17:02:50Z" uid="1" user="OSMnx" version="1" changeset="1" lat="29.600593" lon="111.389349" /><node id="4940736794" timestamp="2026-03-31T17:02:50Z" uid="1" user="OSMnx" version="1" changeset="1" lat="29.601186" lon="111.391688" /><node id="4940736795" timestamp="2026-03-31T17:02:50Z" uid="1" user="OSMnx" version="1" changeset="1" lat="29.601366" lon="111.391543" /><node id="4940736803" timestamp="2026-03-31T17:02:50Z" uid="1" user="OSMnx" version="1" changeset="1" lat="29.601362" lon="111.389434" /><node id="4940736807" timestamp="2026-03-31T17:02:50Z" uid="1" user="OSMnx" version="1" changeset="1" lat="29.599704" lon="111.390767" /><node id="4940736808" timestamp="2026-03-31T17:02:50Z" uid="1" user="OSMnx" version="1" changeset="1" lat="29.600823" lon="111.390388" /><node id="4940736809" timestamp="2026-03-31T17:02:50Z" uid="1" user="OSMnx" version="1" changeset="1" lat="29.6009" lon="111.390369" /><node id="4940736810" timestamp="2026-03-31T17:02:50Z" uid="1" user="OSMnx" version="1" changeset="1" lat="29.598793" lon="111.389269" /><node id="4940736812" timestamp="2026-03-31T17:02:50Z" uid="1" user="OSMnx" version="1" changeset="1" lat="29.600687" lon="111.389356" /><node id="4984639319" timestamp="2026-03-31T17:02:50Z" uid="1" user="OSMnx" version="1" changeset="1" lat="29.601458" lon="111.390499" /><node id="5008755515" timestamp="2026-03-31T17:02:50Z" uid="1" user="OSMnx" version="1" changeset="1" lat="29.597356" lon="111.39927" /><node id="5008755516" timestamp="2026-03-31T17:02:50Z" uid="1" user="OSMnx" version="1" changeset="1" lat="29.597291" lon="111.399216" /><node id="12460439278" timestamp="2026-03-31T17:02:50Z" uid="1" user="OSMnx" version="1" changeset="1" lat="29.599993" lon="111.392158" /><node id="12460439279" timestamp="2026-03-31T17:02:50Z" uid="1" user="OSMnx" version="1" changeset="1" lat="29.60105" lon="111.391802" /><way id="0" timestamp="2026-03-31T17:02:50Z" uid="1" user="OSMnx" version="1" changeset="1"><nd ref="3696875148" /><nd ref="4811214401" /><tag k="highway" v="primary" /><tag k="name" v="澧阳东路" /><tag k="oneway" v="yes" /></way><way id="1" timestamp="2026-03-31T17:02:50Z" uid="1" user="OSMnx" version="1" changeset="1"><nd ref="4811214401" /><nd ref="4866743564" /><tag k="highway" v="primary" /><tag k="name" v="澧阳东路" /><tag k="oneway" v="yes" /></way><way id="2" timestamp="2026-03-31T17:02:50Z" uid="1" user="OSMnx" version="1" changeset="1"><nd ref="4811214402" /><nd ref="4812522537" /><tag k="highway" v="primary" /><tag k="name" v="澧阳东路" /><tag k="oneway" v="yes" /></way><way id="3" timestamp="2026-03-31T17:02:50Z" uid="1" user="OSMnx" version="1" changeset="1"><nd ref="4811214403" /><nd ref="4811214402" /><tag k="highway" v="primary" /><tag k="name" v="澧阳东路" /><tag k="oneway" v="yes" /></way><way id="4" timestamp="2026-03-31T17:02:50Z" uid="1" user="OSMnx" version="1" changeset="1"><nd ref="4811214404" /><nd ref="4811214403" /><tag k="highway" v="primary" /><tag k="name" v="澧阳东路" /><tag k="oneway" v="yes" /></way><way id="5" timestamp="2026-03-31T17:02:50Z" uid="1" user="OSMnx" version="1" changeset="1"><nd ref="4811214405" /><nd ref="12460439279" /><tag k="highway" v="primary" /><tag k="name" v="澧阳东路" /><tag k="oneway" v="yes" /></way><way id="6" timestamp="2026-03-31T17:02:50Z" uid="1" user="OSMnx" version="1" changeset="1"><nd ref="4811214405" /><nd ref="4866743506" /><tag k="highway" v="tertiary" /><tag k="name" v="红土坡路" /><tag k="oneway" v="no" /></way><way id="7" timestamp="2026-03-31T17:02:50Z" uid="1" user="OSMnx" version="1" changeset="1"><nd ref="4812522535" /><nd ref="12460439278" /><tag k="highway" v="tertiary" /><tag k="name" v="澧滨路" /><tag k="oneway" v="no" /></way><way id="8" timestamp="2026-03-31T17:02:50Z" uid="1" user="OSMnx" version="1" changeset="1"><nd ref="4812522535" /><nd ref="4940736807" /><tag k="highway" v="tertiary" /><tag k="name" v="澧滨路" /><tag k="oneway" v="no" /></way><way id="9" timestamp="2026-03-31T17:02:50Z" uid="1" user="OSMnx" version="1" changeset="1"><nd ref="4812522536" /><nd ref="4812522537" /><tag k="highway" v="tertiary" /><tag k="name" v="澧滨路" /><tag k="oneway" v="no" /></way><way id="10" timestamp="2026-03-31T17:02:50Z" uid="1" user="OSMnx" version="1" changeset="1"><nd ref="4812522536" /><nd ref="12460439278" /><tag k="highway" v="tertiary" /><tag k="name" v="澧滨路" /><tag k="oneway" v="no" /></way><way id="11" timestamp="2026-03-31T17:02:50Z" uid="1" user="OSMnx" version="1" changeset="1"><nd ref="4812522537" /><nd ref="3696875148" /><tag k="highway" v="primary" /><tag k="name" v="澧阳东路" /><tag k="oneway" v="yes" /></way><way id="12" timestamp="2026-03-31T17:02:50Z" uid="1" user="OSMnx" version="1" changeset="1"><nd ref="4812522537" /><nd ref="4866743538" /><tag k="highway" v="tertiary" /><tag k="name" v="澧滨路" /><tag k="oneway" v="no" /></way><way id="13" timestamp="2026-03-31T17:02:50Z" uid="1" user="OSMnx" version="1" changeset="1"><nd ref="4812522537" /><nd ref="4812522536" /><tag k="highway" v="tertiary" /><tag k="name" v="澧滨路" /><tag k="oneway" v="no" /></way><way id="14" timestamp="2026-03-31T17:02:50Z" uid="1" user="OSMnx" version="1" changeset="1"><nd ref="4838264858" /><nd ref="4838264865" /><tag k="highway" v="tertiary" /><tag k="name" v="红土坡路" /><tag k="oneway" v="no" /></way><way id="15" timestamp="2026-03-31T17:02:50Z" uid="1" user="OSMnx" version="1" changeset="1"><nd ref="4838264858" /><nd ref="4838264859" /><tag k="highway" v="tertiary" /><tag k="name" v="红土坡路" /><tag k="oneway" v="no" /></way><way id="16" timestamp="2026-03-31T17:02:50Z" uid="1" user="OSMnx" version="1" changeset="1"><nd ref="4838264859" /><nd ref="4838264858" /><tag k="highway" v="tertiary" /><tag k="name" v="红土坡路" /><tag k="oneway" v="no" /></way><way id="17" timestamp="2026-03-31T17:02:50Z" uid="1" user="OSMnx" version="1" changeset="1"><nd ref="4838264859" /><nd ref="4838264866" /><tag k="highway" v="tertiary" /><tag k="name" v="红土坡路" /><tag k="oneway" v="no" /></way><way id="18" timestamp="2026-03-31T17:02:50Z" uid="1" user="OSMnx" version="1" changeset="1"><nd ref="4838264860" /><nd ref="4866743506" /><tag k="highway" v="tertiary" /><tag k="name" v="红土坡路" /><tag k="oneway" v="no" /></way><way id="19" timestamp="2026-03-31T17:02:50Z" uid="1" user="OSMnx" version="1" changeset="1"><nd ref="4838264860" /><nd ref="4940736795" /><tag k="highway" v="tertiary" /><tag k="name" v="红土坡路" /><tag k="oneway" v="no" /></way><way id="20" timestamp="2026-03-31T17:02:50Z" uid="1" user="OSMnx" version="1" changeset="1"><nd ref="4838264860" /><nd ref="4866742848" /><tag k="highway" v="service" /><tag k="oneway" v="no" /></way><way id="21" timestamp="2026-03-31T17:02:50Z" uid="1" user="OSMnx" version="1" changeset="1"><nd ref="4838264861" /><nd ref="4940736795" /><tag k="highway" v="tertiary" /><tag k="name" v="红土坡路" /><tag k="oneway" v="no" /></way><way id="22" timestamp="2026-03-31T17:02:50Z" uid="1" user="OSMnx" version="1" changeset="1"><nd ref="4838264861" /><nd ref="4838264862" /><tag k="highway" v="tertiary" /><tag k="name" v="红土坡路" /><tag k="oneway" v="no" /></way><way id="23" timestamp="2026-03-31T17:02:50Z" uid="1" user="OSMnx" version="1" changeset="1"><nd ref="4838264861" /><nd ref="4984639319" /><tag k="highway" v="tertiary" /><tag k="name" v="麒麟街" /><tag k="oneway" v="no" /></way><way id="24" timestamp="2026-03-31T17:02:50Z" uid="1" user="OSMnx" version="1" changeset="1"><nd ref="4838264862" /><nd ref="4838264861" /><tag k="highway" v="tertiary" /><tag k="name" v="红土坡路" /><tag k="oneway" v="no" /></way><way id="25" timestamp="2026-03-31T17:02:50Z" uid="1" user="OSMnx" version="1" changeset="1"><nd ref="4838264862" /><nd ref="4838264863" /><tag k="highway" v="tertiary" /><tag k="name" v="红土坡路" /><tag k="oneway" v="no" /></way><way id="26" timestamp="2026-03-31T17:02:50Z" uid="1" user="OSMnx" version="1" changeset="1"><nd ref="4838264863" /><nd ref="4838264862" /><tag k="highway" v="tertiary" /><tag k="name" v="红土坡路" /><tag k="oneway" v="no" /></way><way id="27" timestamp="2026-03-31T17:02:50Z" uid="1" user="OSMnx" version="1" changeset="1"><nd ref="4838264863" /><nd ref="4838264864" /><tag k="highway" v="tertiary" /><tag k="name" v="红土坡路" /><tag k="oneway" v="no" /></way><way id="28" timestamp="2026-03-31T17:02:50Z" uid="1" user="OSMnx" version="1" changeset="1"><nd ref="4838264864" /><nd ref="4838264863" /><tag k="highway" v="tertiary" /><tag k="name" v="红土坡路" /><tag k="oneway" v="no" /></way><way id="29" timestamp="2026-03-31T17:02:50Z" uid="1" user="OSMnx" version="1" changeset="1"><nd ref="4838264864" /><nd ref="4838264865" /><tag k="highway" v="tertiary" /><tag k="name" v="红土坡路" /><tag k="oneway" v="no" /></way><way id="30" timestamp="2026-03-31T17:02:50Z" uid="1" user="OSMnx" version="1" changeset="1"><nd ref="4838264865" /><nd ref="4838264864" /><tag k="highway" v="tertiary" /><tag k="name" v="红土坡路" /><tag k="oneway" v="no" /></way><way id="31" timestamp="2026-03-31T17:02:50Z" uid="1" user="OSMnx" version="1" changeset="1"><nd ref="4838264865" /><nd ref="4838264858" /><tag k="highway" v="tertiary" /><tag k="name" v="红土坡路" /><tag k="oneway" v="no" /></way><way id="32" timestamp="2026-03-31T17:02:50Z" uid="1" user="OSMnx" version="1" changeset="1"><nd ref="4838264866" /><nd ref="4838264859" /><tag k="highway" v="tertiary" /><tag k="name" v="红土坡路" /><tag k="oneway" v="no" /></way><way id="33" timestamp="2026-03-31T17:02:50Z" uid="1" user="OSMnx" version="1" changeset="1"><nd ref="4838264866" /><nd ref="4838264867" /><tag k="highway" v="tertiary" /><tag k="name" v="红土坡路" /><tag k="oneway" v="no" /></way><way id="34" timestamp="2026-03-31T17:02:50Z" uid="1" user="OSMnx" version="1" changeset="1"><nd ref="4838264867" /><nd ref="4838264866" /><tag k="highway" v="tertiary" /><tag k="name" v="红土坡路" /><tag k="oneway" v="no" /></way><way id="35" timestamp="2026-03-31T17:02:50Z" uid="1" user="OSMnx" version="1" changeset="1"><nd ref="4838264867" /><nd ref="4838264868" /><tag k="highway" v="tertiary" /><tag k="name" v="红土坡路" /><tag k="oneway" v="no" /></way><way id="36" timestamp="2026-03-31T17:02:50Z" uid="1" user="OSMnx" version="1" changeset="1"><nd ref="4838264868" /><nd ref="4838264867" /><tag k="highway" v="tertiary" /><tag k="name" v="红土坡路" /><tag k="oneway" v="no" /></way><way id="37" timestamp="2026-03-31T17:02:50Z" uid="1" user="OSMnx" version="1" changeset="1"><nd ref="4838264868" /><nd ref="4838264869" /><tag k="highway" v="tertiary" /><tag k="name" v="红土坡路" /><tag k="oneway" v="no" /></way><way id="38" timestamp="2026-03-31T17:02:50Z" uid="1" user="OSMnx" version="1" changeset="1"><nd ref="4838264869" /><nd ref="4838264868" /><tag k="highway" v="tertiary" /><tag k="name" v="红土坡路" /><tag k="oneway" v="no" /></way><way id="39" timestamp="2026-03-31T17:02:50Z" uid="1" user="OSMnx" version="1" changeset="1"><nd ref="4838264869" /><nd ref="4838264870" /><tag k="highway" v="tertiary" /><tag k="name" v="红土坡路" /><tag k="oneway" v="no" /></way><way id="40" timestamp="2026-03-31T17:02:50Z" uid="1" user="OSMnx" version="1" changeset="1"><nd ref="4838264870" /><nd ref="4838264869" /><tag k="highway" v="tertiary" /><tag k="name" v="红土坡路" /><tag k="oneway" v="no" /></way><way id="41" timestamp="2026-03-31T17:02:50Z" uid="1" user="OSMnx" version="1" changeset="1"><nd ref="4838264870" /><nd ref="4838264871" /><tag k="highway" v="tertiary" /><tag k="name" v="红土坡路" /><tag k="oneway" v="no" /></way><way id="42" timestamp="2026-03-31T17:02:50Z" uid="1" user="OSMnx" version="1" changeset="1"><nd ref="4838264871" /><nd ref="4838264870" /><tag k="highway" v="tertiary" /><tag k="name" v="红土坡路" /><tag k="oneway" v="no" /></way><way id="43" timestamp="2026-03-31T17:02:50Z" uid="1" user="OSMnx" version="1" changeset="1"><nd ref="4838264871" /><nd ref="4838264872" /><tag k="highway" v="tertiary" /><tag k="name" v="红土坡路" /><tag k="oneway" v="no" /></way><way id="44" timestamp="2026-03-31T17:02:50Z" uid="1" user="OSMnx" version="1" changeset="1"><nd ref="4838264872" /><nd ref="4838264871" /><tag k="highway" v="tertiary" /><tag k="name" v="红土坡路" /><tag k="oneway" v="no" /></way><way id="45" timestamp="2026-03-31T17:02:50Z" uid="1" user="OSMnx" version="1" changeset="1"><nd ref="4866742848" /><nd ref="4838264860" /><tag k="highway" v="service" /><tag k="oneway" v="no" /></way><way id="46" timestamp="2026-03-31T17:02:50Z" uid="1" user="OSMnx" version="1" changeset="1"><nd ref="4866742848" /><nd ref="4866742849" /><tag k="highway" v="service" /><tag k="oneway" v="no" /></way><way id="47" timestamp="2026-03-31T17:02:50Z" uid="1" user="OSMnx" version="1" changeset="1"><nd ref="4866742849" /><nd ref="4866742848" /><tag k="highway" v="service" /><tag k="oneway" v="no" /></way><way id="48" timestamp="2026-03-31T17:02:50Z" uid="1" user="OSMnx" version="1" changeset="1"><nd ref="4866742849" /><nd ref="4866743542" /><tag k="highway" v="service" /><tag k="oneway" v="no" /></way><way id="49" timestamp="2026-03-31T17:02:50Z" uid="1" user="OSMnx" version="1" changeset="1"><nd ref="4866742850" /><nd ref="4811214405" /><tag k="highway" v="primary" /><tag k="name" v="澧阳东路" /><tag k="oneway" v="yes" /></way><way id="50" timestamp="2026-03-31T17:02:50Z" uid="1" user="OSMnx" version="1" changeset="1"><nd ref="4866742850" /><nd ref="4866743542" /><tag k="highway" v="service" /><tag k="oneway" v="no" /></way><way id="51" timestamp="2026-03-31T17:02:50Z" uid="1" user="OSMnx" version="1" changeset="1"><nd ref="4866743503" /><nd ref="4866743504" /><tag k="highway" v="primary" /><tag k="name" v="澧阳东路" /><tag k="oneway" v="yes" /></way><way id="52" timestamp="2026-03-31T17:02:50Z" uid="1" user="OSMnx" version="1" changeset="1"><nd ref="4866743504" /><nd ref="4866743505" /><tag k="highway" v="primary" /><tag k="name" v="澧阳东路" /><tag k="oneway" v="yes" /></way><way id="53" timestamp="2026-03-31T17:02:50Z" uid="1" user="OSMnx" version="1" changeset="1"><nd ref="4866743505" /><nd ref="4866743538" /><tag k="highway" v="primary" /><tag k="name" v="澧阳东路" /><tag k="oneway" v="yes" /></way><way id="54" timestamp="2026-03-31T17:02:50Z" uid="1" user="OSMnx" version="1" changeset="1"><nd ref="4866743506" /><nd ref="4811214405" /><tag k="highway" v="tertiary" /><tag k="name" v="红土坡路" /><tag k="oneway" v="no" /></way><way id="55" timestamp="2026-03-31T17:02:50Z" uid="1" user="OSMnx" version="1" changeset="1"><nd ref="4866743506" /><nd ref="4838264860" /><tag k="highway" v="tertiary" /><tag k="name" v="红土坡路" /><tag k="oneway" v="no" /></way><way id="56" timestamp="2026-03-31T17:02:50Z" uid="1" user="OSMnx" version="1" changeset="1"><nd ref="4866743506" /><nd ref="4866743542" /><tag k="highway" v="primary" /><tag k="name" v="澧阳东路" /><tag k="oneway" v="yes" /></way><way id="57" timestamp="2026-03-31T17:02:50Z" uid="1" user="OSMnx" version="1" changeset="1"><nd ref="4866743538" /><nd ref="4812522537" /><tag k="highway" v="tertiary" /><tag k="name" v="澧滨路" /><tag k="oneway" v="no" /></way><way id="58" timestamp="2026-03-31T17:02:50Z" uid="1" user="OSMnx" version="1" changeset="1"><nd ref="4866743538" /><nd ref="4866743539" /><tag k="highway" v="primary" /><tag k="name" v="澧阳东路" /><tag k="oneway" v="yes" /></way><way id="59" timestamp="2026-03-31T17:02:50Z" uid="1" user="OSMnx" version="1" changeset="1"><nd ref="4866743539" /><nd ref="4866743540" /><tag k="highway" v="primary" /><tag k="name" v="澧阳东路" /><tag k="oneway" v="yes" /></way><way id="60" timestamp="2026-03-31T17:02:50Z" uid="1" user="OSMnx" version="1" changeset="1"><nd ref="4866743540" /><nd ref="4866743541" /><tag k="highway" v="primary" /><tag k="name" v="澧阳东路" /><tag k="oneway" v="yes" /></way><way id="61" timestamp="2026-03-31T17:02:50Z" uid="1" user="OSMnx" version="1" changeset="1"><nd ref="4866743541" /><nd ref="4866743506" /><tag k="highway" v="primary" /><tag k="name" v="澧阳东路" /><tag k="oneway" v="yes" /></way><way id="62" timestamp="2026-03-31T17:02:50Z" uid="1" user="OSMnx" version="1" changeset="1"><nd ref="4866743541" /><nd ref="4940736794" /><tag k="highway" v="tertiary" /><tag k="oneway" v="no" /></way><way id="63" timestamp="2026-03-31T17:02:50Z" uid="1" user="OSMnx" version="1" changeset="1"><nd ref="4866743542" /><nd ref="4866742849" /><tag k="highway" v="service" /><tag k="oneway" v="no" /></way><way id="64" timestamp="2026-03-31T17:02:50Z" uid="1" user="OSMnx" version="1" changeset="1"><nd ref="4866743542" /><nd ref="4866742850" /><tag k="highway" v="service" /><tag k="oneway" v="no" /></way><way id="65" timestamp="2026-03-31T17:02:50Z" uid="1" user="OSMnx" version="1" changeset="1"><nd ref="4866743542" /><nd ref="4940736809" /><tag k="highway" v="primary" /><tag k="name" v="澧阳东路" /><tag k="oneway" v="yes" /></way><way id="66" timestamp="2026-03-31T17:02:50Z" uid="1" user="OSMnx" version="1" changeset="1"><nd ref="4866743564" /><nd ref="5008755516" /><tag k="highway" v="primary" /><tag k="name" v="澧阳东路" /><tag k="oneway" v="yes" /></way><way id="67" timestamp="2026-03-31T17:02:50Z" uid="1" user="OSMnx" version="1" changeset="1"><nd ref="4940736771" /><nd ref="4940736808" /><tag k="highway" v="primary" /><tag k="name" v="澧阳东路" /><tag k="oneway" v="yes" /></way><way id="68" timestamp="2026-03-31T17:02:50Z" uid="1" user="OSMnx" version="1" changeset="1"><nd ref="4940736794" /><nd ref="4866743541" /><tag k="highway" v="tertiary" /><tag k="oneway" v="no" /></way><way id="69" timestamp="2026-03-31T17:02:50Z" uid="1" user="OSMnx" version="1" changeset="1"><nd ref="4940736794" /><nd ref="4940736795" /><tag k="highway" v="tertiary" /><tag k="oneway" v="no" /></way><way id="70" timestamp="2026-03-31T17:02:50Z" uid="1" user="OSMnx" version="1" changeset="1"><nd ref="4940736795" /><nd ref="4838264860" /><tag k="highway" v="tertiary" /><tag k="name" v="红土坡路" /><tag k="oneway" v="no" /></way><way id="71" timestamp="2026-03-31T17:02:50Z" uid="1" user="OSMnx" version="1" changeset="1"><nd ref="4940736795" /><nd ref="4838264861" /><tag k="highway" v="tertiary" /><tag k="name" v="红土坡路" /><tag k="oneway" v="no" /></way><way id="72" timestamp="2026-03-31T17:02:50Z" uid="1" user="OSMnx" version="1" changeset="1"><nd ref="4940736795" /><nd ref="4940736794" /><tag k="highway" v="tertiary" /><tag k="oneway" v="no" /></way><way id="73" timestamp="2026-03-31T17:02:50Z" uid="1" user="OSMnx" version="1" changeset="1"><nd ref="4940736803" /><nd ref="4984639319" /><tag k="highway" v="tertiary" /><tag k="name" v="麒麟街" /><tag k="oneway" v="no" /></way><way id="74" timestamp="2026-03-31T17:02:50Z" uid="1" user="OSMnx" version="1" changeset="1"><nd ref="4940736807" /><nd ref="4812522535" /><tag k="highway" v="tertiary" /><tag k="name" v="澧滨路" /><tag k="oneway" v="no" /></way><way id="75" timestamp="2026-03-31T17:02:50Z" uid="1" user="OSMnx" version="1" changeset="1"><nd ref="4940736807" /><nd ref="4940736810" /><tag k="highway" v="tertiary" /><tag k="name" v="澧滨路" /><tag k="oneway" v="no" /></way><way id="76" timestamp="2026-03-31T17:02:50Z" uid="1" user="OSMnx" version="1" changeset="1"><nd ref="4940736807" /><nd ref="4940736808" /><tag k="highway" v="tertiary" /><tag k="oneway" v="no" /></way><way id="77" timestamp="2026-03-31T17:02:50Z" uid="1" user="OSMnx" version="1" changeset="1"><nd ref="4940736808" /><nd ref="4866742850" /><tag k="highway" v="primary" /><tag k="name" v="澧阳东路" /><tag k="oneway" v="yes" /></way><way id="78" timestamp="2026-03-31T17:02:50Z" uid="1" user="OSMnx" version="1" changeset="1"><nd ref="4940736808" /><nd ref="4940736807" /><tag k="highway" v="tertiary" /><tag k="oneway" v="no" /></way><way id="79" timestamp="2026-03-31T17:02:50Z" uid="1" user="OSMnx" version="1" changeset="1"><nd ref="4940736808" /><nd ref="4940736809" /><tag k="highway" v="tertiary" /><tag k="oneway" v="no" /></way><way id="80" timestamp="2026-03-31T17:02:50Z" uid="1" user="OSMnx" version="1" changeset="1"><nd ref="4940736809" /><nd ref="4940736812" /><tag k="highway" v="primary" /><tag k="name" v="澧阳东路" /><tag k="oneway" v="yes" /></way><way id="81" timestamp="2026-03-31T17:02:50Z" uid="1" user="OSMnx" version="1" changeset="1"><nd ref="4940736809" /><nd ref="4940736808" /><tag k="highway" v="tertiary" /><tag k="oneway" v="no" /></way><way id="82" timestamp="2026-03-31T17:02:50Z" uid="1" user="OSMnx" version="1" changeset="1"><nd ref="4940736810" /><nd ref="4940736807" /><tag k="highway" v="tertiary" /><tag k="name" v="澧滨路" /><tag k="oneway" v="no" /></way><way id="83" timestamp="2026-03-31T17:02:50Z" uid="1" user="OSMnx" version="1" changeset="1"><nd ref="4984639319" /><nd ref="4838264861" /><tag k="highway" v="tertiary" /><tag k="name" v="麒麟街" /><tag k="oneway" v="no" /></way><way id="84" timestamp="2026-03-31T17:02:50Z" uid="1" user="OSMnx" version="1" changeset="1"><nd ref="4984639319" /><nd ref="4940736803" /><tag k="highway" v="tertiary" /><tag k="name" v="麒麟街" /><tag k="oneway" v="no" /></way><way id="85" timestamp="2026-03-31T17:02:50Z" uid="1" user="OSMnx" version="1" changeset="1"><nd ref="5008755515" /><nd ref="4866743503" /><tag k="highway" v="primary" /><tag k="name" v="澧阳东路" /><tag k="oneway" v="yes" /></way><way id="86" timestamp="2026-03-31T17:02:50Z" uid="1" user="OSMnx" version="1" changeset="1"><nd ref="12460439278" /><nd ref="4812522536" /><tag k="highway" v="tertiary" /><tag k="name" v="澧滨路" /><tag k="oneway" v="no" /></way><way id="87" timestamp="2026-03-31T17:02:50Z" uid="1" user="OSMnx" version="1" changeset="1"><nd ref="12460439278" /><nd ref="4812522535" /><tag k="highway" v="tertiary" /><tag k="name" v="澧滨路" /><tag k="oneway" v="no" /></way><way id="88" timestamp="2026-03-31T17:02:50Z" uid="1" user="OSMnx" version="1" changeset="1"><nd ref="12460439278" /><nd ref="12460439279" /><tag k="highway" v="living_street" /><tag k="oneway" v="no" /></way><way id="89" timestamp="2026-03-31T17:02:50Z" uid="1" user="OSMnx" version="1" changeset="1"><nd ref="12460439279" /><nd ref="4811214404" /><tag k="highway" v="primary" /><tag k="name" v="澧阳东路" /><tag k="oneway" v="yes" /></way><way id="90" timestamp="2026-03-31T17:02:50Z" uid="1" user="OSMnx" version="1" changeset="1"><nd ref="12460439279" /><nd ref="12460439278" /><tag k="highway" v="living_street" /><tag k="oneway" v="no" /></way></osm>