<?xml version='1.0' encoding='utf-8'?>
<osm version="0.6" generator="OSMnx 1.8.0"><node id="2574617705" timestamp="2026-03-31T20:56:23Z" uid="1" user="OSMnx" version="1" changeset="1" lat="42.279968" lon="119.899246" /><node id="4260123114" timestamp="2026-03-31T20:56:23Z" uid="1" user="OSMnx" version="1" changeset="1" lat="42.279972" lon="119.899348" /><node id="5368762714" timestamp="2026-03-31T20:56:23Z" uid="1" user="OSMnx" version="1" changeset="1" lat="42.273304" lon="119.894831" /><node id="5368762715" timestamp="2026-03-31T20:56:23Z" uid="1" user="OSMnx" version="1" changeset="1" lat="42.273399" lon="119.893981" /><node id="5368762716" timestamp="2026-03-31T20:56:23Z" uid="1" user="OSMnx" version="1" changeset="1" lat="42.273728" lon="119.891776" /><node id="5368762913" timestamp="2026-03-31T20:56:23Z" uid="1" user="OSMnx" version="1" changeset="1" lat="42.274445" lon="119.895137" /><node id="5368762914" timestamp="2026-03-31T20:56:23Z" uid="1" user="OSMnx" version="1" changeset="1" lat="42.274602" lon="119.895191" /><node id="5368762915" timestamp="2026-03-31T20:56:23Z" uid="1" user="OSMnx" version="1" changeset="1" lat="42.274911" lon="119.895352" /><node id="5368762916" timestamp="2026-03-31T20:56:23Z" uid="1" user="OSMnx" version="1" changeset="1" lat="42.276132" lon="119.895982" /><node id="5368762917" timestamp="2026-03-31T20:56:23Z" uid="1" user="OSMnx" version="1" changeset="1" lat="42.276704" lon="119.896216" /><node id="5368762918" timestamp="2026-03-31T20:56:23Z" uid="1" user="OSMnx" version="1" changeset="1" lat="42.277144" lon="119.89636" /><node id="5368762919" timestamp="2026-03-31T20:56:23Z" uid="1" user="OSMnx" version="1" changeset="1" lat="42.277394" lon="119.896441" /><node id="5368762920" timestamp="2026-03-31T20:56:23Z" uid="1" user="OSMnx" version="1" changeset="1" lat="42.2779" lon="119.896535" /><node id="5368763021" timestamp="2026-03-31T20:56:23Z" uid="1" user="OSMnx" version="1" changeset="1" lat="42.280069" lon="119.899262" /><node id="5368763022" timestamp="2026-03-31T20:56:23Z" uid="1" user="OSMnx" version="1" changeset="1" lat="42.280066" lon="119.899364" /><node id="5368763038" timestamp="2026-03-31T20:56:23Z" uid="1" user="OSMnx" version="1" changeset="1" lat="42.276316" lon="119.898745" /><node id="5368763043" timestamp="2026-03-31T20:56:23Z" uid="1" user="OSMnx" version="1" changeset="1" lat="42.275814" lon="119.898536" /><node id="5368763083" timestamp="2026-03-31T20:56:23Z" uid="1" user="OSMnx" version="1" changeset="1" lat="42.28024" lon="119.896384" /><node id="5368763084" timestamp="2026-03-31T20:56:23Z" uid="1" user="OSMnx" version="1" changeset="1" lat="42.280231" lon="119.896512" /><node id="5368763090" timestamp="2026-03-31T20:56:23Z" uid="1" user="OSMnx" version="1" changeset="1" lat="42.280073" lon="119.899061" /><node id="5368763091" timestamp="2026-03-31T20:56:23Z" uid="1" user="OSMnx" version="1" changeset="1" lat="42.280234" lon="119.896937" /><node id="5368763097" timestamp="2026-03-31T20:56:23Z" uid="1" user="OSMnx" version="1" changeset="1" lat="42.280472" lon="119.892929" /><node id="5368763098" timestamp="2026-03-31T20:56:23Z" uid="1" user="OSMnx" version="1" changeset="1" lat="42.280258" lon="119.896135" /><node id="5368763099" timestamp="2026-03-31T20:56:23Z" uid="1" user="OSMnx" version="1" changeset="1" lat="42.280506" lon="119.892415" /><node id="5368884229" timestamp="2026-03-31T20:56:23Z" uid="1" user="OSMnx" version="1" changeset="1" lat="42.281538" lon="119.893108" /><node id="5368884230" timestamp="2026-03-31T20:56:23Z" uid="1" user="OSMnx" version="1" changeset="1" lat="42.281607" lon="119.893316" /><node id="5368884231" timestamp="2026-03-31T20:56:23Z" uid="1" user="OSMnx" version="1" changeset="1" lat="42.28172" lon="119.893632" /><node id="5368884232" timestamp="2026-03-31T20:56:23Z" uid="1" user="OSMnx" version="1" changeset="1" lat="42.281782" lon="119.893842" /><node id="5368884233" timestamp="2026-03-31T20:56:23Z" uid="1" user="OSMnx" version="1" changeset="1" lat="42.281863" lon="119.894005" /><node id="5368884234" timestamp="2026-03-31T20:56:23Z" uid="1" user="OSMnx" version="1" changeset="1" lat="42.281964" lon="119.894145" /><node id="5368884235" timestamp="2026-03-31T20:56:23Z" uid="1" user="OSMnx" version="1" changeset="1" lat="42.282113" lon="119.894268" /><node id="5368884243" timestamp="2026-03-31T20:56:23Z" uid="1" user="OSMnx" version="1" changeset="1" lat="42.281486" lon="119.891206" /><node id="5368884246" timestamp="2026-03-31T20:56:23Z" uid="1" user="OSMnx" version="1" changeset="1" lat="42.281111" lon="119.891262" /><node id="5368884247" timestamp="2026-03-31T20:56:23Z" uid="1" user="OSMnx" version="1" changeset="1" lat="42.281316" lon="119.89121" /><node id="5369137326" timestamp="2026-03-31T20:56:23Z" uid="1" user="OSMnx" version="1" changeset="1" lat="42.281168" lon="119.896531" /><node id="5369137327" timestamp="2026-03-31T20:56:23Z" uid="1" user="OSMnx" version="1" changeset="1" lat="42.281222" lon="119.896001" /><node id="5369137335" timestamp="2026-03-31T20:56:23Z" uid="1" user="OSMnx" version="1" changeset="1" lat="42.280339" lon="119.894922" /><node id="5369137336" timestamp="2026-03-31T20:56:23Z" uid="1" user="OSMnx" version="1" changeset="1" lat="42.28048" lon="119.894928" /><node id="5369137337" timestamp="2026-03-31T20:56:23Z" uid="1" user="OSMnx" version="1" changeset="1" lat="42.280641" lon="119.894915" /><node id="5369137338" timestamp="2026-03-31T20:56:23Z" uid="1" user="OSMnx" version="1" changeset="1" lat="42.28099" lon="119.894842" /><node id="5369137339" timestamp="2026-03-31T20:56:23Z" uid="1" user="OSMnx" version="1" changeset="1" lat="42.281462" lon="119.894695" /><node id="5369137340" timestamp="2026-03-31T20:56:23Z" uid="1" user="OSMnx" version="1" changeset="1" lat="42.282154" lon="119.894279" /><node id="5369137342" timestamp="2026-03-31T20:56:23Z" uid="1" user="OSMnx" version="1" changeset="1" lat="42.281899" lon="119.894055" /><node id="5369137343" timestamp="2026-03-31T20:56:23Z" uid="1" user="OSMnx" version="1" changeset="1" lat="42.282002" lon="119.893186" /><node id="5369138101" timestamp="2026-03-31T20:56:23Z" uid="1" user="OSMnx" version="1" changeset="1" lat="42.280442" lon="119.898581" /><node id="5369138105" timestamp="2026-03-31T20:56:23Z" uid="1" user="OSMnx" version="1" changeset="1" lat="42.280161" lon="119.897901" /><node id="5369242051" timestamp="2026-03-31T20:56:23Z" uid="1" user="OSMnx" version="1" changeset="1" lat="42.274382" lon="119.898397" /><node id="5369242090" timestamp="2026-03-31T20:56:23Z" uid="1" user="OSMnx" version="1" changeset="1" lat="42.276282" lon="119.898738" /><node id="5369242094" timestamp="2026-03-31T20:56:23Z" uid="1" user="OSMnx" version="1" changeset="1" lat="42.276299" lon="119.898618" /><node id="5369242095" timestamp="2026-03-31T20:56:23Z" uid="1" user="OSMnx" version="1" changeset="1" lat="42.276636" lon="119.896188" /><node id="5369242233" timestamp="2026-03-31T20:56:23Z" uid="1" user="OSMnx" version="1" changeset="1" lat="42.276656" lon="119.888944" /><node id="5369242234" timestamp="2026-03-31T20:56:23Z" uid="1" user="OSMnx" version="1" changeset="1" lat="42.277128" lon="119.888949" /><node id="5369242235" timestamp="2026-03-31T20:56:23Z" uid="1" user="OSMnx" version="1" changeset="1" lat="42.277454" lon="119.888861" /><node id="5369242236" timestamp="2026-03-31T20:56:23Z" uid="1" user="OSMnx" version="1" changeset="1" lat="42.278517" lon="119.888585" /><node id="5369242239" timestamp="2026-03-31T20:56:23Z" uid="1" user="OSMnx" version="1" changeset="1" lat="42.279023" lon="119.891935" /><node id="5369242240" timestamp="2026-03-31T20:56:23Z" uid="1" user="OSMnx" version="1" changeset="1" lat="42.278982" lon="119.891713" /><node id="5369242241" timestamp="2026-03-31T20:56:23Z" uid="1" user="OSMnx" version="1" changeset="1" lat="42.278885" lon="119.891283" /><node id="5369242242" timestamp="2026-03-31T20:56:23Z" uid="1" user="OSMnx" version="1" changeset="1" lat="42.278787" lon="119.891063" /><node id="5369242243" timestamp="2026-03-31T20:56:23Z" uid="1" user="OSMnx" version="1" changeset="1" lat="42.278653" lon="119.890649" /><node id="5369242244" timestamp="2026-03-31T20:56:23Z" uid="1" user="OSMnx" version="1" changeset="1" lat="42.278613" lon="119.8904" /><node id="5369242245" timestamp="2026-03-31T20:56:23Z" uid="1" user="OSMnx" version="1" changeset="1" lat="42.27856" lon="119.89026" /><node id="5369242246" timestamp="2026-03-31T20:56:23Z" uid="1" user="OSMnx" version="1" changeset="1" lat="42.278507" lon="119.890151" /><node id="5369242247" timestamp="2026-03-31T20:56:23Z" uid="1" user="OSMnx" version="1" changeset="1" lat="42.27846" lon="119.889919" /><node id="5369242248" timestamp="2026-03-31T20:56:23Z" uid="1" user="OSMnx" version="1" changeset="1" lat="42.278416" lon="119.889635" /><node id="5369242249" timestamp="2026-03-31T20:56:23Z" uid="1" user="OSMnx" version="1" changeset="1" lat="42.278423" lon="119.889431" /><node id="5369242250" timestamp="2026-03-31T20:56:23Z" uid="1" user="OSMnx" version="1" changeset="1" lat="42.278457" lon="119.889137" /><node id="5369242251" timestamp="2026-03-31T20:56:23Z" uid="1" user="OSMnx" version="1" changeset="1" lat="42.27846" lon="119.889096" /><node id="5369242252" timestamp="2026-03-31T20:56:23Z" uid="1" user="OSMnx" version="1" changeset="1" lat="42.278485" lon="119.888956" /><node id="5369242253" timestamp="2026-03-31T20:56:23Z" uid="1" user="OSMnx" version="1" changeset="1" lat="42.278494" lon="119.888823" /><node id="5369242254" timestamp="2026-03-31T20:56:23Z" uid="1" user="OSMnx" version="1" changeset="1" lat="42.27849" lon="119.888716" /><node id="5369242255" timestamp="2026-03-31T20:56:23Z" uid="1" user="OSMnx" version="1" changeset="1" lat="42.278506" lon="119.888618" /><node id="5369242256" timestamp="2026-03-31T20:56:23Z" uid="1" user="OSMnx" version="1" changeset="1" lat="42.278556" lon="119.888473" /><node id="5369242260" timestamp="2026-03-31T20:56:23Z" uid="1" user="OSMnx" version="1" changeset="1" lat="42.278544" lon="119.890226" /><node id="5369242262" timestamp="2026-03-31T20:56:23Z" uid="1" user="OSMnx" version="1" changeset="1" lat="42.275511" lon="119.891586" /><node id="5369242263" timestamp="2026-03-31T20:56:23Z" uid="1" user="OSMnx" version="1" changeset="1" lat="42.275507" lon="119.891227" /><node id="5369242264" timestamp="2026-03-31T20:56:23Z" uid="1" user="OSMnx" version="1" changeset="1" lat="42.275504" lon="119.891064" /><node id="5369242265" timestamp="2026-03-31T20:56:23Z" uid="1" user="OSMnx" version="1" changeset="1" lat="42.275538" lon="119.890843" /><node id="5369242266" timestamp="2026-03-31T20:56:23Z" uid="1" user="OSMnx" version="1" changeset="1" lat="42.27555" lon="119.890248" /><node id="5369242267" timestamp="2026-03-31T20:56:23Z" uid="1" user="OSMnx" version="1" changeset="1" lat="42.275564" lon="119.889824" /><node id="5369242278" timestamp="2026-03-31T20:56:23Z" uid="1" user="OSMnx" version="1" changeset="1" lat="42.275676" lon="119.889065" /><node id="5369242279" timestamp="2026-03-31T20:56:23Z" uid="1" user="OSMnx" version="1" changeset="1" lat="42.27581" lon="119.889076" /><node id="5369242280" timestamp="2026-03-31T20:56:23Z" uid="1" user="OSMnx" version="1" changeset="1" lat="42.277019" lon="119.889338" /><node id="5369242281" timestamp="2026-03-31T20:56:23Z" uid="1" user="OSMnx" version="1" changeset="1" lat="42.2776" lon="119.889365" /><node id="5369242282" timestamp="2026-03-31T20:56:23Z" uid="1" user="OSMnx" version="1" changeset="1" lat="42.277878" lon="119.889317" /><node id="5369242283" timestamp="2026-03-31T20:56:23Z" uid="1" user="OSMnx" version="1" changeset="1" lat="42.2782" lon="119.889204" /><node id="5369242284" timestamp="2026-03-31T20:56:23Z" uid="1" user="OSMnx" version="1" changeset="1" lat="42.279121" lon="119.888963" /><node id="5369242738" timestamp="2026-03-31T20:56:23Z" uid="1" user="OSMnx" version="1" changeset="1" lat="42.281115" lon="119.891149" /><node id="5369242739" timestamp="2026-03-31T20:56:23Z" uid="1" user="OSMnx" version="1" changeset="1" lat="42.281083" lon="119.890961" /><node id="5369242740" timestamp="2026-03-31T20:56:23Z" uid="1" user="OSMnx" version="1" changeset="1" lat="42.281075" lon="119.890712" /><node id="5369242954" timestamp="2026-03-31T20:56:23Z" uid="1" user="OSMnx" version="1" changeset="1" lat="42.275329" lon="119.894543" /><node id="5369242955" timestamp="2026-03-31T20:56:23Z" uid="1" user="OSMnx" version="1" changeset="1" lat="42.275918" lon="119.893616" /><node id="5369242956" timestamp="2026-03-31T20:56:23Z" uid="1" user="OSMnx" version="1" changeset="1" lat="42.277506" lon="119.894049" /><node id="5369242957" timestamp="2026-03-31T20:56:23Z" uid="1" user="OSMnx" version="1" changeset="1" lat="42.276957" lon="119.893899" /><node id="5369242958" timestamp="2026-03-31T20:56:23Z" uid="1" user="OSMnx" version="1" changeset="1" lat="42.276616" lon="119.89618" /><node id="5369242959" timestamp="2026-03-31T20:56:23Z" uid="1" user="OSMnx" version="1" changeset="1" lat="42.277106" lon="119.8929" /><node id="5369242962" timestamp="2026-03-31T20:56:23Z" uid="1" user="OSMnx" version="1" changeset="1" lat="42.273345" lon="119.89446" /><node id="5369242966" timestamp="2026-03-31T20:56:23Z" uid="1" user="OSMnx" version="1" changeset="1" lat="42.273432" lon="119.893761" /><node id="5369242967" timestamp="2026-03-31T20:56:23Z" uid="1" user="OSMnx" version="1" changeset="1" lat="42.275345" lon="119.894287" /><node id="5369242968" timestamp="2026-03-31T20:56:23Z" uid="1" user="OSMnx" version="1" changeset="1" lat="42.273501" lon="119.8933" /><node id="5369242969" timestamp="2026-03-31T20:56:23Z" uid="1" user="OSMnx" version="1" changeset="1" lat="42.275374" lon="119.893809" /><node id="5369242970" timestamp="2026-03-31T20:56:23Z" uid="1" user="OSMnx" version="1" changeset="1" lat="42.275268" lon="119.895536" /><node id="5369242971" timestamp="2026-03-31T20:56:23Z" uid="1" user="OSMnx" version="1" changeset="1" lat="42.275354" lon="119.894134" /><node id="5369242972" timestamp="2026-03-31T20:56:23Z" uid="1" user="OSMnx" version="1" changeset="1" lat="42.275489" lon="119.891998" /><node id="5369242973" timestamp="2026-03-31T20:56:23Z" uid="1" user="OSMnx" version="1" changeset="1" lat="42.273789" lon="119.89178" /><node id="5369242974" timestamp="2026-03-31T20:56:23Z" uid="1" user="OSMnx" version="1" changeset="1" lat="42.273805" lon="119.891735" /><node id="5369242975" timestamp="2026-03-31T20:56:23Z" uid="1" user="OSMnx" version="1" changeset="1" lat="42.273834" lon="119.891543" /><node id="5369242988" timestamp="2026-03-31T20:56:23Z" uid="1" user="OSMnx" version="1" changeset="1" lat="42.278762" lon="119.894944" /><node id="5369242989" timestamp="2026-03-31T20:56:23Z" uid="1" user="OSMnx" version="1" changeset="1" lat="42.279044" lon="119.894991" /><node id="5369242990" timestamp="2026-03-31T20:56:23Z" uid="1" user="OSMnx" version="1" changeset="1" lat="42.279091" lon="119.89581" /><node id="5369242991" timestamp="2026-03-31T20:56:23Z" uid="1" user="OSMnx" version="1" changeset="1" lat="42.279039" lon="119.895652" /><node id="5369242992" timestamp="2026-03-31T20:56:23Z" uid="1" user="OSMnx" version="1" changeset="1" lat="42.278998" lon="119.895566" /><node id="5369242993" timestamp="2026-03-31T20:56:23Z" uid="1" user="OSMnx" version="1" changeset="1" lat="42.279097" lon="119.894343" /><node id="5369242994" timestamp="2026-03-31T20:56:23Z" uid="1" user="OSMnx" version="1" changeset="1" lat="42.279563" lon="119.895296" /><node id="5369242995" timestamp="2026-03-31T20:56:23Z" uid="1" user="OSMnx" version="1" changeset="1" lat="42.279464" lon="119.896462" /><node id="5369242996" timestamp="2026-03-31T20:56:23Z" uid="1" user="OSMnx" version="1" changeset="1" lat="42.279511" lon="119.89591" /><node id="5369242997" timestamp="2026-03-31T20:56:23Z" uid="1" user="OSMnx" version="1" changeset="1" lat="42.279122" lon="119.895851" /><node id="5369242998" timestamp="2026-03-31T20:56:23Z" uid="1" user="OSMnx" version="1" changeset="1" lat="42.279042" lon="119.896732" /><node id="5369242999" timestamp="2026-03-31T20:56:23Z" uid="1" user="OSMnx" version="1" changeset="1" lat="42.279277" lon="119.894153" /><node id="5369243000" timestamp="2026-03-31T20:56:23Z" uid="1" user="OSMnx" version="1" changeset="1" lat="42.277532" lon="119.893042" /><node id="5369243001" timestamp="2026-03-31T20:56:23Z" uid="1" user="OSMnx" version="1" changeset="1" lat="42.279216" lon="119.892431" /><node id="5369243002" timestamp="2026-03-31T20:56:23Z" uid="1" user="OSMnx" version="1" changeset="1" lat="42.279279" lon="119.892426" /><node id="5369243003" timestamp="2026-03-31T20:56:23Z" uid="1" user="OSMnx" version="1" changeset="1" lat="42.277623" lon="119.893499" /><node id="5369243004" timestamp="2026-03-31T20:56:23Z" uid="1" user="OSMnx" version="1" changeset="1" lat="42.279361" lon="119.892887" /><node id="5369243005" timestamp="2026-03-31T20:56:23Z" uid="1" user="OSMnx" version="1" changeset="1" lat="42.27943" lon="119.89289" /><node id="5369243006" timestamp="2026-03-31T20:56:23Z" uid="1" user="OSMnx" version="1" changeset="1" lat="42.279504" lon="119.892992" /><node id="5369243007" timestamp="2026-03-31T20:56:23Z" uid="1" user="OSMnx" version="1" changeset="1" lat="42.277733" lon="119.89396" /><node id="5369243008" timestamp="2026-03-31T20:56:23Z" uid="1" user="OSMnx" version="1" changeset="1" lat="42.27863" lon="119.893611" /><node id="5369243009" timestamp="2026-03-31T20:56:23Z" uid="1" user="OSMnx" version="1" changeset="1" lat="42.279621" lon="119.893295" /><node id="5369243010" timestamp="2026-03-31T20:56:23Z" uid="1" user="OSMnx" version="1" changeset="1" lat="42.279752" lon="119.893211" /><node id="5369243011" timestamp="2026-03-31T20:56:23Z" uid="1" user="OSMnx" version="1" changeset="1" lat="42.279809" lon="119.893177" /><node id="5369243012" timestamp="2026-03-31T20:56:23Z" uid="1" user="OSMnx" version="1" changeset="1" lat="42.280464" lon="119.893036" /><node id="5369243013" timestamp="2026-03-31T20:56:23Z" uid="1" user="OSMnx" version="1" changeset="1" lat="42.279761" lon="119.893336" /><node id="5369243014" timestamp="2026-03-31T20:56:23Z" uid="1" user="OSMnx" version="1" changeset="1" lat="42.279787" lon="119.893584" /><node id="5369243015" timestamp="2026-03-31T20:56:23Z" uid="1" user="OSMnx" version="1" changeset="1" lat="42.27978" lon="119.893818" /><node id="5369243016" timestamp="2026-03-31T20:56:23Z" uid="1" user="OSMnx" version="1" changeset="1" lat="42.279728" lon="119.893882" /><node id="5369243017" timestamp="2026-03-31T20:56:23Z" uid="1" user="OSMnx" version="1" changeset="1" lat="42.277874" lon="119.894486" /><node id="5369243018" timestamp="2026-03-31T20:56:23Z" uid="1" user="OSMnx" version="1" changeset="1" lat="42.277833" lon="119.894448" /><node id="5369243019" timestamp="2026-03-31T20:56:23Z" uid="1" user="OSMnx" version="1" changeset="1" lat="42.277491" lon="119.892837" /><node id="5369243021" timestamp="2026-03-31T20:56:23Z" uid="1" user="OSMnx" version="1" changeset="1" lat="42.274951" lon="119.891841" /><node id="5369243022" timestamp="2026-03-31T20:56:23Z" uid="1" user="OSMnx" version="1" changeset="1" lat="42.275834" lon="119.892098" /><node id="5369243023" timestamp="2026-03-31T20:56:23Z" uid="1" user="OSMnx" version="1" changeset="1" lat="42.276231" lon="119.892286" /><node id="5369243024" timestamp="2026-03-31T20:56:23Z" uid="1" user="OSMnx" version="1" changeset="1" lat="42.277178" lon="119.892503" /><node id="5369243025" timestamp="2026-03-31T20:56:23Z" uid="1" user="OSMnx" version="1" changeset="1" lat="42.277356" lon="119.892484" /><node id="5369243026" timestamp="2026-03-31T20:56:23Z" uid="1" user="OSMnx" version="1" changeset="1" lat="42.277747" lon="119.89238" /><node id="5369243027" timestamp="2026-03-31T20:56:23Z" uid="1" user="OSMnx" version="1" changeset="1" lat="42.27867" lon="119.892039" /><node id="5369243028" timestamp="2026-03-31T20:56:23Z" uid="1" user="OSMnx" version="1" changeset="1" lat="42.279379" lon="119.89183" /><node id="5369243029" timestamp="2026-03-31T20:56:23Z" uid="1" user="OSMnx" version="1" changeset="1" lat="42.280377" lon="119.891438" /><node id="5369243030" timestamp="2026-03-31T20:56:23Z" uid="1" user="OSMnx" version="1" changeset="1" lat="42.280462" lon="119.891436" /><node id="5369243031" timestamp="2026-03-31T20:56:23Z" uid="1" user="OSMnx" version="1" changeset="1" lat="42.280565" lon="119.891489" /><node id="5369243032" timestamp="2026-03-31T20:56:23Z" uid="1" user="OSMnx" version="1" changeset="1" lat="42.277039" lon="119.892493" /><node id="5369243033" timestamp="2026-03-31T20:56:23Z" uid="1" user="OSMnx" version="1" changeset="1" lat="42.277108" lon="119.892002" /><node id="5369243034" timestamp="2026-03-31T20:56:23Z" uid="1" user="OSMnx" version="1" changeset="1" lat="42.277156" lon="119.891935" /><node id="5369243035" timestamp="2026-03-31T20:56:23Z" uid="1" user="OSMnx" version="1" changeset="1" lat="42.278752" lon="119.891404" /><node id="5369243036" timestamp="2026-03-31T20:56:23Z" uid="1" user="OSMnx" version="1" changeset="1" lat="42.278833" lon="119.891334" /><node id="5369243037" timestamp="2026-03-31T20:56:23Z" uid="1" user="OSMnx" version="1" changeset="1" lat="42.27892" lon="119.891248" /><node id="5369243038" timestamp="2026-03-31T20:56:23Z" uid="1" user="OSMnx" version="1" changeset="1" lat="42.280614" lon="119.890721" /><node id="5369243039" timestamp="2026-03-31T20:56:23Z" uid="1" user="OSMnx" version="1" changeset="1" lat="42.278673" lon="119.890771" /><node id="5369243040" timestamp="2026-03-31T20:56:23Z" uid="1" user="OSMnx" version="1" changeset="1" lat="42.280649" lon="119.890177" /><node id="5369243044" timestamp="2026-03-31T20:56:23Z" uid="1" user="OSMnx" version="1" changeset="1" lat="42.279172" lon="119.896754" /><node id="5369243045" timestamp="2026-03-31T20:56:23Z" uid="1" user="OSMnx" version="1" changeset="1" lat="42.279093" lon="119.89754" /><node id="5369243046" timestamp="2026-03-31T20:56:23Z" uid="1" user="OSMnx" version="1" changeset="1" lat="42.280175" lon="119.897719" /><node id="5369243047" timestamp="2026-03-31T20:56:23Z" uid="1" user="OSMnx" version="1" changeset="1" lat="42.278676" lon="119.898133" /><node id="5369243048" timestamp="2026-03-31T20:56:23Z" uid="1" user="OSMnx" version="1" changeset="1" lat="42.280127" lon="119.898346" /><node id="5369351760" timestamp="2026-03-31T20:56:23Z" uid="1" user="OSMnx" version="1" changeset="1" lat="42.273523" lon="119.89489" /><node id="5369351761" timestamp="2026-03-31T20:56:23Z" uid="1" user="OSMnx" version="1" changeset="1" lat="42.273588" lon="119.894036" /><node id="5369351762" timestamp="2026-03-31T20:56:23Z" uid="1" user="OSMnx" version="1" changeset="1" lat="42.27376" lon="119.894954" /><node id="5369351763" timestamp="2026-03-31T20:56:23Z" uid="1" user="OSMnx" version="1" changeset="1" lat="42.273845" lon="119.894111" /><node id="5369351764" timestamp="2026-03-31T20:56:23Z" uid="1" user="OSMnx" version="1" changeset="1" lat="42.274017" lon="119.895022" /><node id="5369351765" timestamp="2026-03-31T20:56:23Z" uid="1" user="OSMnx" version="1" changeset="1" lat="42.27409" lon="119.894182" /><node id="5369351771" timestamp="2026-03-31T20:56:23Z" uid="1" user="OSMnx" version="1" changeset="1" lat="42.273543" lon="119.893018" /><node id="7819027128" timestamp="2026-03-31T20:56:23Z" uid="1" user="OSMnx" version="1" changeset="1" lat="42.278423" lon="119.889678" /><way id="0" timestamp="2026-03-31T20:56:23Z" uid="1" user="OSMnx" version="1" changeset="1"><nd ref="2574617705" /><nd ref="5369242094" /><tag k="highway" v="secondary" /><tag k="oneway" v="yes" /></way><way id="1" timestamp="2026-03-31T20:56:23Z" uid="1" user="OSMnx" version="1" changeset="1"><nd ref="4260123114" /><nd ref="5368763022" /><tag k="highway" v="secondary" /><tag k="oneway" v="yes" /></way><way id="2" timestamp="2026-03-31T20:56:23Z" uid="1" user="OSMnx" version="1" changeset="1"><nd ref="5368762714" /><nd ref="5369242962" /><tag k="highway" v="unclassified" /><tag k="oneway" v="no" /></way><way id="3" timestamp="2026-03-31T20:56:23Z" uid="1" user="OSMnx" version="1" changeset="1"><nd ref="5368762714" /><nd ref="5369351760" /><tag k="highway" v="unclassified" /><tag k="oneway" v="no" /></way><way id="4" timestamp="2026-03-31T20:56:23Z" uid="1" user="OSMnx" version="1" changeset="1"><nd ref="5368762715" /><nd ref="5369242962" /><tag k="highway" v="unclassified" /><tag k="oneway" v="no" /></way><way id="5" timestamp="2026-03-31T20:56:23Z" uid="1" user="OSMnx" version="1" changeset="1"><nd ref="5368762715" /><nd ref="5369242966" /><tag k="highway" v="unclassified" /><tag k="oneway" v="no" /></way><way id="6" timestamp="2026-03-31T20:56:23Z" uid="1" user="OSMnx" version="1" changeset="1"><nd ref="5368762715" /><nd ref="5369351761" /><tag k="highway" v="residential" /><tag k="oneway" v="no" /></way><way id="7" timestamp="2026-03-31T20:56:23Z" uid="1" user="OSMnx" version="1" changeset="1"><nd ref="5368762716" /><nd ref="5369351771" /><tag k="highway" v="unclassified" /><tag k="oneway" v="no" /></way><way id="8" timestamp="2026-03-31T20:56:23Z" uid="1" user="OSMnx" version="1" changeset="1"><nd ref="5368762716" /><nd ref="5369242973" /><tag k="highway" v="unclassified" /><tag k="oneway" v="no" /></way><way id="9" timestamp="2026-03-31T20:56:23Z" uid="1" user="OSMnx" version="1" changeset="1"><nd ref="5368762913" /><nd ref="5369351764" /><tag k="highway" v="unclassified" /><tag k="oneway" v="no" /></way><way id="10" timestamp="2026-03-31T20:56:23Z" uid="1" user="OSMnx" version="1" changeset="1"><nd ref="5368762913" /><nd ref="5368762914" /><tag k="highway" v="unclassified" /><tag k="oneway" v="no" /></way><way id="11" timestamp="2026-03-31T20:56:23Z" uid="1" user="OSMnx" version="1" changeset="1"><nd ref="5368762914" /><nd ref="5368762913" /><tag k="highway" v="unclassified" /><tag k="oneway" v="no" /></way><way id="12" timestamp="2026-03-31T20:56:23Z" uid="1" user="OSMnx" version="1" changeset="1"><nd ref="5368762914" /><nd ref="5368762915" /><tag k="highway" v="unclassified" /><tag k="oneway" v="no" /></way><way id="13" timestamp="2026-03-31T20:56:23Z" uid="1" user="OSMnx" version="1" changeset="1"><nd ref="5368762915" /><nd ref="5368762914" /><tag k="highway" v="unclassified" /><tag k="oneway" v="no" /></way><way id="14" timestamp="2026-03-31T20:56:23Z" uid="1" user="OSMnx" version="1" changeset="1"><nd ref="5368762915" /><nd ref="5369242970" /><tag k="highway" v="unclassified" /><tag k="oneway" v="no" /></way><way id="15" timestamp="2026-03-31T20:56:23Z" uid="1" user="OSMnx" version="1" changeset="1"><nd ref="5368762916" /><nd ref="5369242970" /><tag k="highway" v="unclassified" /><tag k="oneway" v="no" /></way><way id="16" timestamp="2026-03-31T20:56:23Z" uid="1" user="OSMnx" version="1" changeset="1"><nd ref="5368762916" /><nd ref="5369242958" /><tag k="highway" v="unclassified" /><tag k="oneway" v="no" /></way><way id="17" timestamp="2026-03-31T20:56:23Z" uid="1" user="OSMnx" version="1" changeset="1"><nd ref="5368762917" /><nd ref="5369242095" /><tag k="highway" v="unclassified" /><tag k="oneway" v="no" /></way><way id="18" timestamp="2026-03-31T20:56:23Z" uid="1" user="OSMnx" version="1" changeset="1"><nd ref="5368762917" /><nd ref="5368762918" /><tag k="highway" v="unclassified" /><tag k="oneway" v="no" /></way><way id="19" timestamp="2026-03-31T20:56:23Z" uid="1" user="OSMnx" version="1" changeset="1"><nd ref="5368762918" /><nd ref="5368762917" /><tag k="highway" v="unclassified" /><tag k="oneway" v="no" /></way><way id="20" timestamp="2026-03-31T20:56:23Z" uid="1" user="OSMnx" version="1" changeset="1"><nd ref="5368762918" /><nd ref="5368762919" /><tag k="highway" v="unclassified" /><tag k="oneway" v="no" /></way><way id="21" timestamp="2026-03-31T20:56:23Z" uid="1" user="OSMnx" version="1" changeset="1"><nd ref="5368762919" /><nd ref="5368762918" /><tag k="highway" v="unclassified" /><tag k="oneway" v="no" /></way><way id="22" timestamp="2026-03-31T20:56:23Z" uid="1" user="OSMnx" version="1" changeset="1"><nd ref="5368762919" /><nd ref="5368762920" /><tag k="highway" v="unclassified" /><tag k="oneway" v="no" /></way><way id="23" timestamp="2026-03-31T20:56:23Z" uid="1" user="OSMnx" version="1" changeset="1"><nd ref="5368762920" /><nd ref="5368762919" /><tag k="highway" v="unclassified" /><tag k="oneway" v="no" /></way><way id="24" timestamp="2026-03-31T20:56:23Z" uid="1" user="OSMnx" version="1" changeset="1"><nd ref="5368762920" /><nd ref="5369242998" /><tag k="highway" v="unclassified" /><tag k="oneway" v="no" /></way><way id="25" timestamp="2026-03-31T20:56:23Z" uid="1" user="OSMnx" version="1" changeset="1"><nd ref="5368763021" /><nd ref="5368763022" /><tag k="highway" v="tertiary" /><tag k="oneway" v="no" /></way><way id="26" timestamp="2026-03-31T20:56:23Z" uid="1" user="OSMnx" version="1" changeset="1"><nd ref="5368763021" /><nd ref="5368763090" /><tag k="highway" v="tertiary" /><tag k="oneway" v="no" /></way><way id="27" timestamp="2026-03-31T20:56:23Z" uid="1" user="OSMnx" version="1" changeset="1"><nd ref="5368763021" /><nd ref="2574617705" /><tag k="highway" v="secondary" /><tag k="oneway" v="yes" /></way><way id="28" timestamp="2026-03-31T20:56:23Z" uid="1" user="OSMnx" version="1" changeset="1"><nd ref="5368763022" /><nd ref="5368763021" /><tag k="highway" v="tertiary" /><tag k="oneway" v="no" /></way><way id="29" timestamp="2026-03-31T20:56:23Z" uid="1" user="OSMnx" version="1" changeset="1"><nd ref="5368763038" /><nd ref="4260123114" /><tag k="highway" v="secondary" /><tag k="oneway" v="yes" /></way><way id="30" timestamp="2026-03-31T20:56:23Z" uid="1" user="OSMnx" version="1" changeset="1"><nd ref="5368763083" /><nd ref="5368763084" /><tag k="highway" v="tertiary" /><tag k="oneway" v="no" /></way><way id="31" timestamp="2026-03-31T20:56:23Z" uid="1" user="OSMnx" version="1" changeset="1"><nd ref="5368763083" /><nd ref="5368763098" /><tag k="highway" v="tertiary" /><tag k="oneway" v="no" /></way><way id="32" timestamp="2026-03-31T20:56:23Z" uid="1" user="OSMnx" version="1" changeset="1"><nd ref="5368763084" /><nd ref="5368763091" /><tag k="highway" v="tertiary" /><tag k="oneway" v="no" /></way><way id="33" timestamp="2026-03-31T20:56:23Z" uid="1" user="OSMnx" version="1" changeset="1"><nd ref="5368763084" /><nd ref="5368763083" /><tag k="highway" v="tertiary" /><tag k="oneway" v="no" /></way><way id="34" timestamp="2026-03-31T20:56:23Z" uid="1" user="OSMnx" version="1" changeset="1"><nd ref="5368763090" /><nd ref="5368763021" /><tag k="highway" v="tertiary" /><tag k="oneway" v="no" /></way><way id="35" timestamp="2026-03-31T20:56:23Z" uid="1" user="OSMnx" version="1" changeset="1"><nd ref="5368763090" /><nd ref="5369243048" /><tag k="highway" v="tertiary" /><tag k="oneway" v="no" /></way><way id="36" timestamp="2026-03-31T20:56:23Z" uid="1" user="OSMnx" version="1" changeset="1"><nd ref="5368763091" /><nd ref="5369243046" /><tag k="highway" v="tertiary" /><tag k="oneway" v="no" /></way><way id="37" timestamp="2026-03-31T20:56:23Z" uid="1" user="OSMnx" version="1" changeset="1"><nd ref="5368763091" /><nd ref="5368763084" /><tag k="highway" v="tertiary" /><tag k="oneway" v="no" /></way><way id="38" timestamp="2026-03-31T20:56:23Z" uid="1" user="OSMnx" version="1" changeset="1"><nd ref="5368763091" /><nd ref="5369243044" /><tag k="highway" v="unclassified" /><tag k="oneway" v="no" /></way><way id="39" timestamp="2026-03-31T20:56:23Z" uid="1" user="OSMnx" version="1" changeset="1"><nd ref="5368763097" /><nd ref="5368763099" /><tag k="highway" v="tertiary" /><tag k="name" v="新四线" /><tag k="oneway" v="no" /></way><way id="40" timestamp="2026-03-31T20:56:23Z" uid="1" user="OSMnx" version="1" changeset="1"><nd ref="5368763097" /><nd ref="5369243012" /><tag k="highway" v="tertiary" /><tag k="oneway" v="no" /></way><way id="41" timestamp="2026-03-31T20:56:23Z" uid="1" user="OSMnx" version="1" changeset="1"><nd ref="5368763097" /><nd ref="5368884229" /><tag k="highway" v="tertiary" /><tag k="oneway" v="no" /></way><way id="42" timestamp="2026-03-31T20:56:23Z" uid="1" user="OSMnx" version="1" changeset="1"><nd ref="5368763098" /><nd ref="5368763083" /><tag k="highway" v="tertiary" /><tag k="oneway" v="no" /></way><way id="43" timestamp="2026-03-31T20:56:23Z" uid="1" user="OSMnx" version="1" changeset="1"><nd ref="5368763098" /><nd ref="5369137335" /><tag k="highway" v="tertiary" /><tag k="oneway" v="no" /></way><way id="44" timestamp="2026-03-31T20:56:23Z" uid="1" user="OSMnx" version="1" changeset="1"><nd ref="5368763099" /><nd ref="5368763097" /><tag k="highway" v="tertiary" /><tag k="name" v="新四线" /><tag k="oneway" v="no" /></way><way id="45" timestamp="2026-03-31T20:56:23Z" uid="1" user="OSMnx" version="1" changeset="1"><nd ref="5368763099" /><nd ref="5369243031" /><tag k="highway" v="tertiary" /><tag k="name" v="新四线" /><tag k="oneway" v="no" /></way><way id="46" timestamp="2026-03-31T20:56:23Z" uid="1" user="OSMnx" version="1" changeset="1"><nd ref="5368884229" /><nd ref="5368763097" /><tag k="highway" v="tertiary" /><tag k="oneway" v="no" /></way><way id="47" timestamp="2026-03-31T20:56:23Z" uid="1" user="OSMnx" version="1" changeset="1"><nd ref="5368884229" /><nd ref="5369137343" /><tag k="highway" v="tertiary" /><tag k="oneway" v="no" /></way><way id="48" timestamp="2026-03-31T20:56:23Z" uid="1" user="OSMnx" version="1" changeset="1"><nd ref="5368884229" /><nd ref="5368884230" /><tag k="highway" v="residential" /><tag k="oneway" v="no" /></way><way id="49" timestamp="2026-03-31T20:56:23Z" uid="1" user="OSMnx" version="1" changeset="1"><nd ref="5368884230" /><nd ref="5368884229" /><tag k="highway" v="residential" /><tag k="oneway" v="no" /></way><way id="50" timestamp="2026-03-31T20:56:23Z" uid="1" user="OSMnx" version="1" changeset="1"><nd ref="5368884230" /><nd ref="5368884231" /><tag k="highway" v="residential" /><tag k="oneway" v="no" /></way><way id="51" timestamp="2026-03-31T20:56:23Z" uid="1" user="OSMnx" version="1" changeset="1"><nd ref="5368884231" /><nd ref="5368884230" /><tag k="highway" v="residential" /><tag k="oneway" v="no" /></way><way id="52" timestamp="2026-03-31T20:56:23Z" uid="1" user="OSMnx" version="1" changeset="1"><nd ref="5368884231" /><nd ref="5368884232" /><tag k="highway" v="residential" /><tag k="oneway" v="no" /></way><way id="53" timestamp="2026-03-31T20:56:23Z" uid="1" user="OSMnx" version="1" changeset="1"><nd ref="5368884232" /><nd ref="5368884231" /><tag k="highway" v="residential" /><tag k="oneway" v="no" /></way><way id="54" timestamp="2026-03-31T20:56:23Z" uid="1" user="OSMnx" version="1" changeset="1"><nd ref="5368884232" /><nd ref="5368884233" /><tag k="highway" v="residential" /><tag k="oneway" v="no" /></way><way id="55" timestamp="2026-03-31T20:56:23Z" uid="1" user="OSMnx" version="1" changeset="1"><nd ref="5368884233" /><nd ref="5368884232" /><tag k="highway" v="residential" /><tag k="oneway" v="no" /></way><way id="56" timestamp="2026-03-31T20:56:23Z" uid="1" user="OSMnx" version="1" changeset="1"><nd ref="5368884233" /><nd ref="5369137342" /><tag k="highway" v="residential" /><tag k="oneway" v="no" /></way><way id="57" timestamp="2026-03-31T20:56:23Z" uid="1" user="OSMnx" version="1" changeset="1"><nd ref="5368884234" /><nd ref="5369137342" /><tag k="highway" v="residential" /><tag k="oneway" v="no" /></way><way id="58" timestamp="2026-03-31T20:56:23Z" uid="1" user="OSMnx" version="1" changeset="1"><nd ref="5368884234" /><nd ref="5368884235" /><tag k="highway" v="residential" /><tag k="oneway" v="no" /></way><way id="59" timestamp="2026-03-31T20:56:23Z" uid="1" user="OSMnx" version="1" changeset="1"><nd ref="5368884235" /><nd ref="5368884234" /><tag k="highway" v="residential" /><tag k="oneway" v="no" /></way><way id="60" timestamp="2026-03-31T20:56:23Z" uid="1" user="OSMnx" version="1" changeset="1"><nd ref="5368884235" /><nd ref="5369137340" /><tag k="highway" v="residential" /><tag k="oneway" v="no" /></way><way id="61" timestamp="2026-03-31T20:56:23Z" uid="1" user="OSMnx" version="1" changeset="1"><nd ref="5368884243" /><nd ref="5368884247" /><tag k="highway" v="residential" /><tag k="oneway" v="no" /></way><way id="62" timestamp="2026-03-31T20:56:23Z" uid="1" user="OSMnx" version="1" changeset="1"><nd ref="5368884246" /><nd ref="5368884247" /><tag k="highway" v="residential" /><tag k="oneway" v="no" /></way><way id="63" timestamp="2026-03-31T20:56:23Z" uid="1" user="OSMnx" version="1" changeset="1"><nd ref="5368884246" /><nd ref="5369242738" /><tag k="highway" v="residential" /><tag k="oneway" v="no" /></way><way id="64" timestamp="2026-03-31T20:56:23Z" uid="1" user="OSMnx" version="1" changeset="1"><nd ref="5368884247" /><nd ref="5368884246" /><tag k="highway" v="residential" /><tag k="oneway" v="no" /></way><way id="65" timestamp="2026-03-31T20:56:23Z" uid="1" user="OSMnx" version="1" changeset="1"><nd ref="5368884247" /><nd ref="5368884243" /><tag k="highway" v="residential" /><tag k="oneway" v="no" /></way><way id="66" timestamp="2026-03-31T20:56:23Z" uid="1" user="OSMnx" version="1" changeset="1"><nd ref="5369137326" /><nd ref="5368763083" /><tag k="highway" v="tertiary" /><tag k="oneway" v="yes" /></way><way id="67" timestamp="2026-03-31T20:56:23Z" uid="1" user="OSMnx" version="1" changeset="1"><nd ref="5369137326" /><nd ref="5369137327" /><tag k="highway" v="service" /><tag k="oneway" v="no" /></way><way id="68" timestamp="2026-03-31T20:56:23Z" uid="1" user="OSMnx" version="1" changeset="1"><nd ref="5369137327" /><nd ref="5369137326" /><tag k="highway" v="service" /><tag k="oneway" v="no" /></way><way id="69" timestamp="2026-03-31T20:56:23Z" uid="1" user="OSMnx" version="1" changeset="1"><nd ref="5369137335" /><nd ref="5368763098" /><tag k="highway" v="tertiary" /><tag k="oneway" v="no" /></way><way id="70" timestamp="2026-03-31T20:56:23Z" uid="1" user="OSMnx" version="1" changeset="1"><nd ref="5369137335" /><nd ref="5369243012" /><tag k="highway" v="tertiary" /><tag k="oneway" v="no" /></way><way id="71" timestamp="2026-03-31T20:56:23Z" uid="1" user="OSMnx" version="1" changeset="1"><nd ref="5369137335" /><nd ref="5369137336" /><tag k="highway" v="residential" /><tag k="oneway" v="no" /></way><way id="72" timestamp="2026-03-31T20:56:23Z" uid="1" user="OSMnx" version="1" changeset="1"><nd ref="5369137336" /><nd ref="5369137335" /><tag k="highway" v="residential" /><tag k="oneway" v="no" /></way><way id="73" timestamp="2026-03-31T20:56:23Z" uid="1" user="OSMnx" version="1" changeset="1"><nd ref="5369137336" /><nd ref="5369137337" /><tag k="highway" v="residential" /><tag k="oneway" v="no" /></way><way id="74" timestamp="2026-03-31T20:56:23Z" uid="1" user="OSMnx" version="1" changeset="1"><nd ref="5369137337" /><nd ref="5369137336" /><tag k="highway" v="residential" /><tag k="oneway" v="no" /></way><way id="75" timestamp="2026-03-31T20:56:23Z" uid="1" user="OSMnx" version="1" changeset="1"><nd ref="5369137337" /><nd ref="5369137338" /><tag k="highway" v="residential" /><tag k="oneway" v="no" /></way><way id="76" timestamp="2026-03-31T20:56:23Z" uid="1" user="OSMnx" version="1" changeset="1"><nd ref="5369137338" /><nd ref="5369137337" /><tag k="highway" v="residential" /><tag k="oneway" v="no" /></way><way id="77" timestamp="2026-03-31T20:56:23Z" uid="1" user="OSMnx" version="1" changeset="1"><nd ref="5369137338" /><nd ref="5369137339" /><tag k="highway" v="residential" /><tag k="oneway" v="no" /></way><way id="78" timestamp="2026-03-31T20:56:23Z" uid="1" user="OSMnx" version="1" changeset="1"><nd ref="5369137339" /><nd ref="5369137338" /><tag k="highway" v="residential" /><tag k="oneway" v="no" /></way><way id="79" timestamp="2026-03-31T20:56:23Z" uid="1" user="OSMnx" version="1" changeset="1"><nd ref="5369137340" /><nd ref="5368884235" /><tag k="highway" v="residential" /><tag k="oneway" v="no" /></way><way id="80" timestamp="2026-03-31T20:56:23Z" uid="1" user="OSMnx" version="1" changeset="1"><nd ref="5369137342" /><nd ref="5368884233" /><tag k="highway" v="residential" /><tag k="oneway" v="no" /></way><way id="81" timestamp="2026-03-31T20:56:23Z" uid="1" user="OSMnx" version="1" changeset="1"><nd ref="5369137342" /><nd ref="5368884234" /><tag k="highway" v="residential" /><tag k="oneway" v="no" /></way><way id="82" timestamp="2026-03-31T20:56:23Z" uid="1" user="OSMnx" version="1" changeset="1"><nd ref="5369137342" /><nd ref="5369137343" /><tag k="highway" v="residential" /><tag k="oneway" v="no" /></way><way id="83" timestamp="2026-03-31T20:56:23Z" uid="1" user="OSMnx" version="1" changeset="1"><nd ref="5369137343" /><nd ref="5368884229" /><tag k="highway" v="tertiary" /><tag k="oneway" v="no" /></way><way id="84" timestamp="2026-03-31T20:56:23Z" uid="1" user="OSMnx" version="1" changeset="1"><nd ref="5369137343" /><nd ref="5369137342" /><tag k="highway" v="residential" /><tag k="oneway" v="no" /></way><way id="85" timestamp="2026-03-31T20:56:23Z" uid="1" user="OSMnx" version="1" changeset="1"><nd ref="5369138105" /><nd ref="5369243048" /><tag k="highway" v="tertiary" /><tag k="oneway" v="no" /></way><way id="86" timestamp="2026-03-31T20:56:23Z" uid="1" user="OSMnx" version="1" changeset="1"><nd ref="5369138105" /><nd ref="5369243046" /><tag k="highway" v="tertiary" /><tag k="oneway" v="no" /></way><way id="87" timestamp="2026-03-31T20:56:23Z" uid="1" user="OSMnx" version="1" changeset="1"><nd ref="5369242051" /><nd ref="5369242090" /><tag k="highway" v="secondary" /><tag k="oneway" v="yes" /></way><way id="88" timestamp="2026-03-31T20:56:23Z" uid="1" user="OSMnx" version="1" changeset="1"><nd ref="5369242090" /><nd ref="5368763038" /><tag k="highway" v="secondary" /><tag k="oneway" v="yes" /></way><way id="89" timestamp="2026-03-31T20:56:23Z" uid="1" user="OSMnx" version="1" changeset="1"><nd ref="5369242090" /><nd ref="5369242094" /><tag k="highway" v="unclassified" /><tag k="oneway" v="no" /></way><way id="90" timestamp="2026-03-31T20:56:23Z" uid="1" user="OSMnx" version="1" changeset="1"><nd ref="5369242094" /><nd ref="5368763043" /><tag k="highway" v="secondary" /><tag k="oneway" v="yes" /></way><way id="91" timestamp="2026-03-31T20:56:23Z" uid="1" user="OSMnx" version="1" changeset="1"><nd ref="5369242094" /><nd ref="5369242090" /><tag k="highway" v="unclassified" /><tag k="oneway" v="no" /></way><way id="92" timestamp="2026-03-31T20:56:23Z" uid="1" user="OSMnx" version="1" changeset="1"><nd ref="5369242094" /><nd ref="5369242095" /><tag k="highway" v="unclassified" /><tag k="oneway" v="no" /></way><way id="93" timestamp="2026-03-31T20:56:23Z" uid="1" user="OSMnx" version="1" changeset="1"><nd ref="5369242095" /><nd ref="5369242958" /><tag k="highway" v="unclassified" /><tag k="oneway" v="no" /></way><way id="94" timestamp="2026-03-31T20:56:23Z" uid="1" user="OSMnx" version="1" changeset="1"><nd ref="5369242095" /><nd ref="5368762917" /><tag k="highway" v="unclassified" /><tag k="oneway" v="no" /></way><way id="95" timestamp="2026-03-31T20:56:23Z" uid="1" user="OSMnx" version="1" changeset="1"><nd ref="5369242095" /><nd ref="5369242094" /><tag k="highway" v="unclassified" /><tag k="oneway" v="no" /></way><way id="96" timestamp="2026-03-31T20:56:23Z" uid="1" user="OSMnx" version="1" changeset="1"><nd ref="5369242233" /><nd ref="5369242234" /><tag k="highway" v="residential" /><tag k="oneway" v="no" /></way><way id="97" timestamp="2026-03-31T20:56:23Z" uid="1" user="OSMnx" version="1" changeset="1"><nd ref="5369242234" /><nd ref="5369242233" /><tag k="highway" v="residential" /><tag k="oneway" v="no" /></way><way id="98" timestamp="2026-03-31T20:56:23Z" uid="1" user="OSMnx" version="1" changeset="1"><nd ref="5369242234" /><nd ref="5369242235" /><tag k="highway" v="residential" /><tag k="oneway" v="no" /></way><way id="99" timestamp="2026-03-31T20:56:23Z" uid="1" user="OSMnx" version="1" changeset="1"><nd ref="5369242235" /><nd ref="5369242234" /><tag k="highway" v="residential" /><tag k="oneway" v="no" /></way><way id="100" timestamp="2026-03-31T20:56:23Z" uid="1" user="OSMnx" version="1" changeset="1"><nd ref="5369242235" /><nd ref="5369242236" /><tag k="highway" v="residential" /><tag k="oneway" v="no" /></way><way id="101" timestamp="2026-03-31T20:56:23Z" uid="1" user="OSMnx" version="1" changeset="1"><nd ref="5369242236" /><nd ref="5369242235" /><tag k="highway" v="residential" /><tag k="oneway" v="no" /></way><way id="102" timestamp="2026-03-31T20:56:23Z" uid="1" user="OSMnx" version="1" changeset="1"><nd ref="5369242236" /><nd ref="5369242255" /><tag k="highway" v="unclassified" /><tag k="oneway" v="no" /></way><way id="103" timestamp="2026-03-31T20:56:23Z" uid="1" user="OSMnx" version="1" changeset="1"><nd ref="5369242236" /><nd ref="5369242256" /><tag k="highway" v="unclassified" /><tag k="oneway" v="no" /></way><way id="104" timestamp="2026-03-31T20:56:23Z" uid="1" user="OSMnx" version="1" changeset="1"><nd ref="5369242239" /><nd ref="5369242240" /><tag k="highway" v="unclassified" /><tag k="oneway" v="no" /></way><way id="105" timestamp="2026-03-31T20:56:23Z" uid="1" user="OSMnx" version="1" changeset="1"><nd ref="5369242239" /><nd ref="5369243027" /><tag k="highway" v="unclassified" /><tag k="oneway" v="no" /></way><way id="106" timestamp="2026-03-31T20:56:23Z" uid="1" user="OSMnx" version="1" changeset="1"><nd ref="5369242239" /><nd ref="5369243028" /><tag k="highway" v="unclassified" /><tag k="oneway" v="no" /></way><way id="107" timestamp="2026-03-31T20:56:23Z" uid="1" user="OSMnx" version="1" changeset="1"><nd ref="5369242240" /><nd ref="5369242239" /><tag k="highway" v="unclassified" /><tag k="oneway" v="no" /></way><way id="108" timestamp="2026-03-31T20:56:23Z" uid="1" user="OSMnx" version="1" changeset="1"><nd ref="5369242240" /><nd ref="5369242241" /><tag k="highway" v="unclassified" /><tag k="oneway" v="no" /></way><way id="109" timestamp="2026-03-31T20:56:23Z" uid="1" user="OSMnx" version="1" changeset="1"><nd ref="5369242241" /><nd ref="5369242240" /><tag k="highway" v="unclassified" /><tag k="oneway" v="no" /></way><way id="110" timestamp="2026-03-31T20:56:23Z" uid="1" user="OSMnx" version="1" changeset="1"><nd ref="5369242241" /><nd ref="5369242242" /><tag k="highway" v="unclassified" /><tag k="oneway" v="no" /></way><way id="111" timestamp="2026-03-31T20:56:23Z" uid="1" user="OSMnx" version="1" changeset="1"><nd ref="5369242241" /><nd ref="5369243036" /><tag k="highway" v="residential" /><tag k="oneway" v="no" /></way><way id="112" timestamp="2026-03-31T20:56:23Z" uid="1" user="OSMnx" version="1" changeset="1"><nd ref="5369242241" /><nd ref="5369243037" /><tag k="highway" v="residential" /><tag k="oneway" v="no" /></way><way id="113" timestamp="2026-03-31T20:56:23Z" uid="1" user="OSMnx" version="1" changeset="1"><nd ref="5369242242" /><nd ref="5369242241" /><tag k="highway" v="unclassified" /><tag k="oneway" v="no" /></way><way id="114" timestamp="2026-03-31T20:56:23Z" uid="1" user="OSMnx" version="1" changeset="1"><nd ref="5369242242" /><nd ref="5369243039" /><tag k="highway" v="unclassified" /><tag k="oneway" v="no" /></way><way id="115" timestamp="2026-03-31T20:56:23Z" uid="1" user="OSMnx" version="1" changeset="1"><nd ref="5369242243" /><nd ref="5369243039" /><tag k="highway" v="unclassified" /><tag k="oneway" v="no" /></way><way id="116" timestamp="2026-03-31T20:56:23Z" uid="1" user="OSMnx" version="1" changeset="1"><nd ref="5369242243" /><nd ref="5369242244" /><tag k="highway" v="unclassified" /><tag k="oneway" v="no" /></way><way id="117" timestamp="2026-03-31T20:56:23Z" uid="1" user="OSMnx" version="1" changeset="1"><nd ref="5369242244" /><nd ref="5369242243" /><tag k="highway" v="unclassified" /><tag k="oneway" v="no" /></way><way id="118" timestamp="2026-03-31T20:56:23Z" uid="1" user="OSMnx" version="1" changeset="1"><nd ref="5369242244" /><nd ref="5369242245" /><tag k="highway" v="unclassified" /><tag k="oneway" v="no" /></way><way id="119" timestamp="2026-03-31T20:56:23Z" uid="1" user="OSMnx" version="1" changeset="1"><nd ref="5369242245" /><nd ref="5369242244" /><tag k="highway" v="unclassified" /><tag k="oneway" v="no" /></way><way id="120" timestamp="2026-03-31T20:56:23Z" uid="1" user="OSMnx" version="1" changeset="1"><nd ref="5369242245" /><nd ref="5369242260" /><tag k="highway" v="unclassified" /><tag k="oneway" v="no" /></way><way id="121" timestamp="2026-03-31T20:56:23Z" uid="1" user="OSMnx" version="1" changeset="1"><nd ref="5369242246" /><nd ref="5369242260" /><tag k="highway" v="unclassified" /><tag k="oneway" v="no" /></way><way id="122" timestamp="2026-03-31T20:56:23Z" uid="1" user="OSMnx" version="1" changeset="1"><nd ref="5369242246" /><nd ref="5369242247" /><tag k="highway" v="unclassified" /><tag k="oneway" v="no" /></way><way id="123" timestamp="2026-03-31T20:56:23Z" uid="1" user="OSMnx" version="1" changeset="1"><nd ref="5369242247" /><nd ref="5369242246" /><tag k="highway" v="unclassified" /><tag k="oneway" v="no" /></way><way id="124" timestamp="2026-03-31T20:56:23Z" uid="1" user="OSMnx" version="1" changeset="1"><nd ref="5369242247" /><nd ref="7819027128" /><tag k="highway" v="unclassified" /><tag k="oneway" v="no" /></way><way id="125" timestamp="2026-03-31T20:56:23Z" uid="1" user="OSMnx" version="1" changeset="1"><nd ref="5369242248" /><nd ref="7819027128" /><tag k="highway" v="unclassified" /><tag k="oneway" v="no" /></way><way id="126" timestamp="2026-03-31T20:56:23Z" uid="1" user="OSMnx" version="1" changeset="1"><nd ref="5369242248" /><nd ref="5369242249" /><tag k="highway" v="unclassified" /><tag k="oneway" v="no" /></way><way id="127" timestamp="2026-03-31T20:56:23Z" uid="1" user="OSMnx" version="1" changeset="1"><nd ref="5369242249" /><nd ref="5369242248" /><tag k="highway" v="unclassified" /><tag k="oneway" v="no" /></way><way id="128" timestamp="2026-03-31T20:56:23Z" uid="1" user="OSMnx" version="1" changeset="1"><nd ref="5369242249" /><nd ref="5369242250" /><tag k="highway" v="unclassified" /><tag k="oneway" v="no" /></way><way id="129" timestamp="2026-03-31T20:56:23Z" uid="1" user="OSMnx" version="1" changeset="1"><nd ref="5369242250" /><nd ref="5369242249" /><tag k="highway" v="unclassified" /><tag k="oneway" v="no" /></way><way id="130" timestamp="2026-03-31T20:56:23Z" uid="1" user="OSMnx" version="1" changeset="1"><nd ref="5369242250" /><nd ref="5369242251" /><tag k="highway" v="unclassified" /><tag k="oneway" v="no" /></way><way id="131" timestamp="2026-03-31T20:56:23Z" uid="1" user="OSMnx" version="1" changeset="1"><nd ref="5369242250" /><nd ref="5369242283" /><tag k="highway" v="unclassified" /><tag k="oneway" v="no" /></way><way id="132" timestamp="2026-03-31T20:56:23Z" uid="1" user="OSMnx" version="1" changeset="1"><nd ref="5369242250" /><nd ref="5369242284" /><tag k="highway" v="unclassified" /><tag k="oneway" v="no" /></way><way id="133" timestamp="2026-03-31T20:56:23Z" uid="1" user="OSMnx" version="1" changeset="1"><nd ref="5369242251" /><nd ref="5369242250" /><tag k="highway" v="unclassified" /><tag k="oneway" v="no" /></way><way id="134" timestamp="2026-03-31T20:56:23Z" uid="1" user="OSMnx" version="1" changeset="1"><nd ref="5369242251" /><nd ref="5369242252" /><tag k="highway" v="unclassified" /><tag k="oneway" v="no" /></way><way id="135" timestamp="2026-03-31T20:56:23Z" uid="1" user="OSMnx" version="1" changeset="1"><nd ref="5369242252" /><nd ref="5369242251" /><tag k="highway" v="unclassified" /><tag k="oneway" v="no" /></way><way id="136" timestamp="2026-03-31T20:56:23Z" uid="1" user="OSMnx" version="1" changeset="1"><nd ref="5369242252" /><nd ref="5369242253" /><tag k="highway" v="unclassified" /><tag k="oneway" v="no" /></way><way id="137" timestamp="2026-03-31T20:56:23Z" uid="1" user="OSMnx" version="1" changeset="1"><nd ref="5369242253" /><nd ref="5369242252" /><tag k="highway" v="unclassified" /><tag k="oneway" v="no" /></way><way id="138" timestamp="2026-03-31T20:56:23Z" uid="1" user="OSMnx" version="1" changeset="1"><nd ref="5369242253" /><nd ref="5369242254" /><tag k="highway" v="unclassified" /><tag k="oneway" v="no" /></way><way id="139" timestamp="2026-03-31T20:56:23Z" uid="1" user="OSMnx" version="1" changeset="1"><nd ref="5369242254" /><nd ref="5369242253" /><tag k="highway" v="unclassified" /><tag k="oneway" v="no" /></way><way id="140" timestamp="2026-03-31T20:56:23Z" uid="1" user="OSMnx" version="1" changeset="1"><nd ref="5369242254" /><nd ref="5369242255" /><tag k="highway" v="unclassified" /><tag k="oneway" v="no" /></way><way id="141" timestamp="2026-03-31T20:56:23Z" uid="1" user="OSMnx" version="1" changeset="1"><nd ref="5369242255" /><nd ref="5369242254" /><tag k="highway" v="unclassified" /><tag k="oneway" v="no" /></way><way id="142" timestamp="2026-03-31T20:56:23Z" uid="1" user="OSMnx" version="1" changeset="1"><nd ref="5369242255" /><nd ref="5369242236" /><tag k="highway" v="unclassified" /><tag k="oneway" v="no" /></way><way id="143" timestamp="2026-03-31T20:56:23Z" uid="1" user="OSMnx" version="1" changeset="1"><nd ref="5369242256" /><nd ref="5369242236" /><tag k="highway" v="unclassified" /><tag k="oneway" v="no" /></way><way id="144" timestamp="2026-03-31T20:56:23Z" uid="1" user="OSMnx" version="1" changeset="1"><nd ref="5369242260" /><nd ref="5369242245" /><tag k="highway" v="unclassified" /><tag k="oneway" v="no" /></way><way id="145" timestamp="2026-03-31T20:56:23Z" uid="1" user="OSMnx" version="1" changeset="1"><nd ref="5369242260" /><nd ref="5369242246" /><tag k="highway" v="unclassified" /><tag k="oneway" v="no" /></way><way id="146" timestamp="2026-03-31T20:56:23Z" uid="1" user="OSMnx" version="1" changeset="1"><nd ref="5369242262" /><nd ref="5369242972" /><tag k="highway" v="unclassified" /><tag k="oneway" v="no" /></way><way id="147" timestamp="2026-03-31T20:56:23Z" uid="1" user="OSMnx" version="1" changeset="1"><nd ref="5369242262" /><nd ref="5369242263" /><tag k="highway" v="unclassified" /><tag k="oneway" v="no" /></way><way id="148" timestamp="2026-03-31T20:56:23Z" uid="1" user="OSMnx" version="1" changeset="1"><nd ref="5369242263" /><nd ref="5369242262" /><tag k="highway" v="unclassified" /><tag k="oneway" v="no" /></way><way id="149" timestamp="2026-03-31T20:56:23Z" uid="1" user="OSMnx" version="1" changeset="1"><nd ref="5369242263" /><nd ref="5369242264" /><tag k="highway" v="unclassified" /><tag k="oneway" v="no" /></way><way id="150" timestamp="2026-03-31T20:56:23Z" uid="1" user="OSMnx" version="1" changeset="1"><nd ref="5369242264" /><nd ref="5369242263" /><tag k="highway" v="unclassified" /><tag k="oneway" v="no" /></way><way id="151" timestamp="2026-03-31T20:56:23Z" uid="1" user="OSMnx" version="1" changeset="1"><nd ref="5369242264" /><nd ref="5369242265" /><tag k="highway" v="unclassified" /><tag k="oneway" v="no" /></way><way id="152" timestamp="2026-03-31T20:56:23Z" uid="1" user="OSMnx" version="1" changeset="1"><nd ref="5369242265" /><nd ref="5369242264" /><tag k="highway" v="unclassified" /><tag k="oneway" v="no" /></way><way id="153" timestamp="2026-03-31T20:56:23Z" uid="1" user="OSMnx" version="1" changeset="1"><nd ref="5369242265" /><nd ref="5369242266" /><tag k="highway" v="unclassified" /><tag k="oneway" v="no" /></way><way id="154" timestamp="2026-03-31T20:56:23Z" uid="1" user="OSMnx" version="1" changeset="1"><nd ref="5369242266" /><nd ref="5369242265" /><tag k="highway" v="unclassified" /><tag k="oneway" v="no" /></way><way id="155" timestamp="2026-03-31T20:56:23Z" uid="1" user="OSMnx" version="1" changeset="1"><nd ref="5369242266" /><nd ref="5369242267" /><tag k="highway" v="unclassified" /><tag k="oneway" v="no" /></way><way id="156" timestamp="2026-03-31T20:56:23Z" uid="1" user="OSMnx" version="1" changeset="1"><nd ref="5369242267" /><nd ref="5369242266" /><tag k="highway" v="unclassified" /><tag k="oneway" v="no" /></way><way id="157" timestamp="2026-03-31T20:56:23Z" uid="1" user="OSMnx" version="1" changeset="1"><nd ref="5369242267" /><nd ref="5369242278" /><tag k="highway" v="unclassified" /><tag k="oneway" v="no" /></way><way id="158" timestamp="2026-03-31T20:56:23Z" uid="1" user="OSMnx" version="1" changeset="1"><nd ref="5369242278" /><nd ref="5369242267" /><tag k="highway" v="unclassified" /><tag k="oneway" v="no" /></way><way id="159" timestamp="2026-03-31T20:56:23Z" uid="1" user="OSMnx" version="1" changeset="1"><nd ref="5369242278" /><nd ref="5369242279" /><tag k="highway" v="unclassified" /><tag k="oneway" v="no" /></way><way id="160" timestamp="2026-03-31T20:56:23Z" uid="1" user="OSMnx" version="1" changeset="1"><nd ref="5369242279" /><nd ref="5369242278" /><tag k="highway" v="unclassified" /><tag k="oneway" v="no" /></way><way id="161" timestamp="2026-03-31T20:56:23Z" uid="1" user="OSMnx" version="1" changeset="1"><nd ref="5369242279" /><nd ref="5369242280" /><tag k="highway" v="unclassified" /><tag k="oneway" v="no" /></way><way id="162" timestamp="2026-03-31T20:56:23Z" uid="1" user="OSMnx" version="1" changeset="1"><nd ref="5369242280" /><nd ref="5369242279" /><tag k="highway" v="unclassified" /><tag k="oneway" v="no" /></way><way id="163" timestamp="2026-03-31T20:56:23Z" uid="1" user="OSMnx" version="1" changeset="1"><nd ref="5369242280" /><nd ref="5369242281" /><tag k="highway" v="unclassified" /><tag k="oneway" v="no" /></way><way id="164" timestamp="2026-03-31T20:56:23Z" uid="1" user="OSMnx" version="1" changeset="1"><nd ref="5369242281" /><nd ref="5369242280" /><tag k="highway" v="unclassified" /><tag k="oneway" v="no" /></way><way id="165" timestamp="2026-03-31T20:56:23Z" uid="1" user="OSMnx" version="1" changeset="1"><nd ref="5369242281" /><nd ref="5369242282" /><tag k="highway" v="unclassified" /><tag k="oneway" v="no" /></way><way id="166" timestamp="2026-03-31T20:56:23Z" uid="1" user="OSMnx" version="1" changeset="1"><nd ref="5369242282" /><nd ref="5369242281" /><tag k="highway" v="unclassified" /><tag k="oneway" v="no" /></way><way id="167" timestamp="2026-03-31T20:56:23Z" uid="1" user="OSMnx" version="1" changeset="1"><nd ref="5369242282" /><nd ref="5369242283" /><tag k="highway" v="unclassified" /><tag k="oneway" v="no" /></way><way id="168" timestamp="2026-03-31T20:56:23Z" uid="1" user="OSMnx" version="1" changeset="1"><nd ref="5369242283" /><nd ref="5369242282" /><tag k="highway" v="unclassified" /><tag k="oneway" v="no" /></way><way id="169" timestamp="2026-03-31T20:56:23Z" uid="1" user="OSMnx" version="1" changeset="1"><nd ref="5369242283" /><nd ref="5369242250" /><tag k="highway" v="unclassified" /><tag k="oneway" v="no" /></way><way id="170" timestamp="2026-03-31T20:56:23Z" uid="1" user="OSMnx" version="1" changeset="1"><nd ref="5369242284" /><nd ref="5369242250" /><tag k="highway" v="unclassified" /><tag k="oneway" v="no" /></way><way id="171" timestamp="2026-03-31T20:56:23Z" uid="1" user="OSMnx" version="1" changeset="1"><nd ref="5369242738" /><nd ref="5368884246" /><tag k="highway" v="residential" /><tag k="oneway" v="no" /></way><way id="172" timestamp="2026-03-31T20:56:23Z" uid="1" user="OSMnx" version="1" changeset="1"><nd ref="5369242738" /><nd ref="5369242739" /><tag k="highway" v="residential" /><tag k="oneway" v="no" /></way><way id="173" timestamp="2026-03-31T20:56:23Z" uid="1" user="OSMnx" version="1" changeset="1"><nd ref="5369242739" /><nd ref="5369242738" /><tag k="highway" v="residential" /><tag k="oneway" v="no" /></way><way id="174" timestamp="2026-03-31T20:56:23Z" uid="1" user="OSMnx" version="1" changeset="1"><nd ref="5369242739" /><nd ref="5369242740" /><tag k="highway" v="residential" /><tag k="oneway" v="no" /></way><way id="175" timestamp="2026-03-31T20:56:23Z" uid="1" user="OSMnx" version="1" changeset="1"><nd ref="5369242740" /><nd ref="5369242739" /><tag k="highway" v="residential" /><tag k="oneway" v="no" /></way><way id="176" timestamp="2026-03-31T20:56:23Z" uid="1" user="OSMnx" version="1" changeset="1"><nd ref="5369242954" /><nd ref="5369351765" /><tag k="highway" v="residential" /><tag k="oneway" v="no" /></way><way id="177" timestamp="2026-03-31T20:56:23Z" uid="1" user="OSMnx" version="1" changeset="1"><nd ref="5369242954" /><nd ref="5369242970" /><tag k="highway" v="residential" /><tag k="oneway" v="no" /></way><way id="178" timestamp="2026-03-31T20:56:23Z" uid="1" user="OSMnx" version="1" changeset="1"><nd ref="5369242954" /><nd ref="5369242967" /><tag k="highway" v="residential" /><tag k="oneway" v="no" /></way><way id="179" timestamp="2026-03-31T20:56:23Z" uid="1" user="OSMnx" version="1" changeset="1"><nd ref="5369242955" /><nd ref="5369242957" /><tag k="highway" v="service" /><tag k="oneway" v="no" /></way><way id="180" timestamp="2026-03-31T20:56:23Z" uid="1" user="OSMnx" version="1" changeset="1"><nd ref="5369242956" /><nd ref="5369242957" /><tag k="highway" v="service" /><tag k="oneway" v="no" /></way><way id="181" timestamp="2026-03-31T20:56:23Z" uid="1" user="OSMnx" version="1" changeset="1"><nd ref="5369242957" /><nd ref="5369242956" /><tag k="highway" v="service" /><tag k="oneway" v="no" /></way><way id="182" timestamp="2026-03-31T20:56:23Z" uid="1" user="OSMnx" version="1" changeset="1"><nd ref="5369242957" /><nd ref="5369242955" /><tag k="highway" v="service" /><tag k="oneway" v="no" /></way><way id="183" timestamp="2026-03-31T20:56:23Z" uid="1" user="OSMnx" version="1" changeset="1"><nd ref="5369242957" /><nd ref="5369242958" /><tag k="highway" v="service" /><tag k="oneway" v="no" /></way><way id="184" timestamp="2026-03-31T20:56:23Z" uid="1" user="OSMnx" version="1" changeset="1"><nd ref="5369242957" /><nd ref="5369242959" /><tag k="highway" v="service" /><tag k="oneway" v="no" /></way><way id="185" timestamp="2026-03-31T20:56:23Z" uid="1" user="OSMnx" version="1" changeset="1"><nd ref="5369242958" /><nd ref="5368762916" /><tag k="highway" v="unclassified" /><tag k="oneway" v="no" /></way><way id="186" timestamp="2026-03-31T20:56:23Z" uid="1" user="OSMnx" version="1" changeset="1"><nd ref="5369242958" /><nd ref="5369242095" /><tag k="highway" v="unclassified" /><tag k="oneway" v="no" /></way><way id="187" timestamp="2026-03-31T20:56:23Z" uid="1" user="OSMnx" version="1" changeset="1"><nd ref="5369242958" /><nd ref="5369242957" /><tag k="highway" v="service" /><tag k="oneway" v="no" /></way><way id="188" timestamp="2026-03-31T20:56:23Z" uid="1" user="OSMnx" version="1" changeset="1"><nd ref="5369242959" /><nd ref="5369242957" /><tag k="highway" v="service" /><tag k="oneway" v="no" /></way><way id="189" timestamp="2026-03-31T20:56:23Z" uid="1" user="OSMnx" version="1" changeset="1"><nd ref="5369242962" /><nd ref="5368762714" /><tag k="highway" v="unclassified" /><tag k="oneway" v="no" /></way><way id="190" timestamp="2026-03-31T20:56:23Z" uid="1" user="OSMnx" version="1" changeset="1"><nd ref="5369242962" /><nd ref="5368762715" /><tag k="highway" v="unclassified" /><tag k="oneway" v="no" /></way><way id="191" timestamp="2026-03-31T20:56:23Z" uid="1" user="OSMnx" version="1" changeset="1"><nd ref="5369242966" /><nd ref="5368762715" /><tag k="highway" v="unclassified" /><tag k="oneway" v="no" /></way><way id="192" timestamp="2026-03-31T20:56:23Z" uid="1" user="OSMnx" version="1" changeset="1"><nd ref="5369242966" /><nd ref="5369242968" /><tag k="highway" v="unclassified" /><tag k="oneway" v="no" /></way><way id="193" timestamp="2026-03-31T20:56:23Z" uid="1" user="OSMnx" version="1" changeset="1"><nd ref="5369242966" /><nd ref="5369242967" /><tag k="highway" v="residential" /><tag k="oneway" v="no" /></way><way id="194" timestamp="2026-03-31T20:56:23Z" uid="1" user="OSMnx" version="1" changeset="1"><nd ref="5369242967" /><nd ref="5369242966" /><tag k="highway" v="residential" /><tag k="oneway" v="no" /></way><way id="195" timestamp="2026-03-31T20:56:23Z" uid="1" user="OSMnx" version="1" changeset="1"><nd ref="5369242967" /><nd ref="5369242954" /><tag k="highway" v="residential" /><tag k="oneway" v="no" /></way><way id="196" timestamp="2026-03-31T20:56:23Z" uid="1" user="OSMnx" version="1" changeset="1"><nd ref="5369242967" /><nd ref="5369242971" /><tag k="highway" v="residential" /><tag k="oneway" v="no" /></way><way id="197" timestamp="2026-03-31T20:56:23Z" uid="1" user="OSMnx" version="1" changeset="1"><nd ref="5369242968" /><nd ref="5369242966" /><tag k="highway" v="unclassified" /><tag k="oneway" v="no" /></way><way id="198" timestamp="2026-03-31T20:56:23Z" uid="1" user="OSMnx" version="1" changeset="1"><nd ref="5369242968" /><nd ref="5369351771" /><tag k="highway" v="unclassified" /><tag k="oneway" v="no" /></way><way id="199" timestamp="2026-03-31T20:56:23Z" uid="1" user="OSMnx" version="1" changeset="1"><nd ref="5369242968" /><nd ref="5369242969" /><tag k="highway" v="residential" /><tag k="oneway" v="no" /></way><way id="200" timestamp="2026-03-31T20:56:23Z" uid="1" user="OSMnx" version="1" changeset="1"><nd ref="5369242969" /><nd ref="5369242968" /><tag k="highway" v="residential" /><tag k="oneway" v="no" /></way><way id="201" timestamp="2026-03-31T20:56:23Z" uid="1" user="OSMnx" version="1" changeset="1"><nd ref="5369242969" /><nd ref="5369242971" /><tag k="highway" v="residential" /><tag k="oneway" v="no" /></way><way id="202" timestamp="2026-03-31T20:56:23Z" uid="1" user="OSMnx" version="1" changeset="1"><nd ref="5369242969" /><nd ref="5369242972" /><tag k="highway" v="residential" /><tag k="oneway" v="no" /></way><way id="203" timestamp="2026-03-31T20:56:23Z" uid="1" user="OSMnx" version="1" changeset="1"><nd ref="5369242970" /><nd ref="5368762915" /><tag k="highway" v="unclassified" /><tag k="oneway" v="no" /></way><way id="204" timestamp="2026-03-31T20:56:23Z" uid="1" user="OSMnx" version="1" changeset="1"><nd ref="5369242970" /><nd ref="5368762916" /><tag k="highway" v="unclassified" /><tag k="oneway" v="no" /></way><way id="205" timestamp="2026-03-31T20:56:23Z" uid="1" user="OSMnx" version="1" changeset="1"><nd ref="5369242970" /><nd ref="5369242954" /><tag k="highway" v="residential" /><tag k="oneway" v="no" /></way><way id="206" timestamp="2026-03-31T20:56:23Z" uid="1" user="OSMnx" version="1" changeset="1"><nd ref="5369242971" /><nd ref="5369242967" /><tag k="highway" v="residential" /><tag k="oneway" v="no" /></way><way id="207" timestamp="2026-03-31T20:56:23Z" uid="1" user="OSMnx" version="1" changeset="1"><nd ref="5369242971" /><nd ref="5369242969" /><tag k="highway" v="residential" /><tag k="oneway" v="no" /></way><way id="208" timestamp="2026-03-31T20:56:23Z" uid="1" user="OSMnx" version="1" changeset="1"><nd ref="5369242972" /><nd ref="5369242262" /><tag k="highway" v="unclassified" /><tag k="oneway" v="no" /></way><way id="209" timestamp="2026-03-31T20:56:23Z" uid="1" user="OSMnx" version="1" changeset="1"><nd ref="5369242972" /><nd ref="5369242969" /><tag k="highway" v="residential" /><tag k="oneway" v="no" /></way><way id="210" timestamp="2026-03-31T20:56:23Z" uid="1" user="OSMnx" version="1" changeset="1"><nd ref="5369242972" /><nd ref="5369243021" /><tag k="highway" v="unclassified" /><tag k="oneway" v="no" /></way><way id="211" timestamp="2026-03-31T20:56:23Z" uid="1" user="OSMnx" version="1" changeset="1"><nd ref="5369242972" /><nd ref="5369243022" /><tag k="highway" v="unclassified" /><tag k="oneway" v="no" /></way><way id="212" timestamp="2026-03-31T20:56:23Z" uid="1" user="OSMnx" version="1" changeset="1"><nd ref="5369242973" /><nd ref="5368762716" /><tag k="highway" v="unclassified" /><tag k="oneway" v="no" /></way><way id="213" timestamp="2026-03-31T20:56:23Z" uid="1" user="OSMnx" version="1" changeset="1"><nd ref="5369242973" /><nd ref="5369242974" /><tag k="highway" v="unclassified" /><tag k="oneway" v="no" /></way><way id="214" timestamp="2026-03-31T20:56:23Z" uid="1" user="OSMnx" version="1" changeset="1"><nd ref="5369242974" /><nd ref="5369242973" /><tag k="highway" v="unclassified" /><tag k="oneway" v="no" /></way><way id="215" timestamp="2026-03-31T20:56:23Z" uid="1" user="OSMnx" version="1" changeset="1"><nd ref="5369242974" /><nd ref="5369242975" /><tag k="highway" v="unclassified" /><tag k="oneway" v="no" /></way><way id="216" timestamp="2026-03-31T20:56:23Z" uid="1" user="OSMnx" version="1" changeset="1"><nd ref="5369242975" /><nd ref="5369242974" /><tag k="highway" v="unclassified" /><tag k="oneway" v="no" /></way><way id="217" timestamp="2026-03-31T20:56:23Z" uid="1" user="OSMnx" version="1" changeset="1"><nd ref="5369242975" /><nd ref="5369243021" /><tag k="highway" v="unclassified" /><tag k="oneway" v="no" /></way><way id="218" timestamp="2026-03-31T20:56:23Z" uid="1" user="OSMnx" version="1" changeset="1"><nd ref="5369242988" /><nd ref="5369242989" /><tag k="highway" v="service" /><tag k="oneway" v="no" /></way><way id="219" timestamp="2026-03-31T20:56:23Z" uid="1" user="OSMnx" version="1" changeset="1"><nd ref="5369242989" /><nd ref="5369242988" /><tag k="highway" v="service" /><tag k="oneway" v="no" /></way><way id="220" timestamp="2026-03-31T20:56:23Z" uid="1" user="OSMnx" version="1" changeset="1"><nd ref="5369242989" /><nd ref="5369242992" /><tag k="highway" v="service" /><tag k="oneway" v="no" /></way><way id="221" timestamp="2026-03-31T20:56:23Z" uid="1" user="OSMnx" version="1" changeset="1"><nd ref="5369242989" /><nd ref="5369242993" /><tag k="highway" v="service" /><tag k="oneway" v="no" /></way><way id="222" timestamp="2026-03-31T20:56:23Z" uid="1" user="OSMnx" version="1" changeset="1"><nd ref="5369242990" /><nd ref="5369242997" /><tag k="highway" v="service" /><tag k="oneway" v="no" /></way><way id="223" timestamp="2026-03-31T20:56:23Z" uid="1" user="OSMnx" version="1" changeset="1"><nd ref="5369242990" /><nd ref="5369242991" /><tag k="highway" v="service" /><tag k="oneway" v="no" /></way><way id="224" timestamp="2026-03-31T20:56:23Z" uid="1" user="OSMnx" version="1" changeset="1"><nd ref="5369242991" /><nd ref="5369242990" /><tag k="highway" v="service" /><tag k="oneway" v="no" /></way><way id="225" timestamp="2026-03-31T20:56:23Z" uid="1" user="OSMnx" version="1" changeset="1"><nd ref="5369242991" /><nd ref="5369242992" /><tag k="highway" v="service" /><tag k="oneway" v="no" /></way><way id="226" timestamp="2026-03-31T20:56:23Z" uid="1" user="OSMnx" version="1" changeset="1"><nd ref="5369242992" /><nd ref="5369242991" /><tag k="highway" v="service" /><tag k="oneway" v="no" /></way><way id="227" timestamp="2026-03-31T20:56:23Z" uid="1" user="OSMnx" version="1" changeset="1"><nd ref="5369242992" /><nd ref="5369242989" /><tag k="highway" v="service" /><tag k="oneway" v="no" /></way><way id="228" timestamp="2026-03-31T20:56:23Z" uid="1" user="OSMnx" version="1" changeset="1"><nd ref="5369242993" /><nd ref="5369242989" /><tag k="highway" v="service" /><tag k="oneway" v="no" /></way><way id="229" timestamp="2026-03-31T20:56:23Z" uid="1" user="OSMnx" version="1" changeset="1"><nd ref="5369242994" /><nd ref="5369242996" /><tag k="highway" v="service" /><tag k="oneway" v="no" /></way><way id="230" timestamp="2026-03-31T20:56:23Z" uid="1" user="OSMnx" version="1" changeset="1"><nd ref="5369242995" /><nd ref="5369242996" /><tag k="highway" v="service" /><tag k="oneway" v="no" /></way><way id="231" timestamp="2026-03-31T20:56:23Z" uid="1" user="OSMnx" version="1" changeset="1"><nd ref="5369242996" /><nd ref="5369242995" /><tag k="highway" v="service" /><tag k="oneway" v="no" /></way><way id="232" timestamp="2026-03-31T20:56:23Z" uid="1" user="OSMnx" version="1" changeset="1"><nd ref="5369242996" /><nd ref="5369242994" /><tag k="highway" v="service" /><tag k="oneway" v="no" /></way><way id="233" timestamp="2026-03-31T20:56:23Z" uid="1" user="OSMnx" version="1" changeset="1"><nd ref="5369242996" /><nd ref="5369242997" /><tag k="highway" v="service" /><tag k="oneway" v="no" /></way><way id="234" timestamp="2026-03-31T20:56:23Z" uid="1" user="OSMnx" version="1" changeset="1"><nd ref="5369242997" /><nd ref="5369242990" /><tag k="highway" v="service" /><tag k="oneway" v="no" /></way><way id="235" timestamp="2026-03-31T20:56:23Z" uid="1" user="OSMnx" version="1" changeset="1"><nd ref="5369242997" /><nd ref="5369242996" /><tag k="highway" v="service" /><tag k="oneway" v="no" /></way><way id="236" timestamp="2026-03-31T20:56:23Z" uid="1" user="OSMnx" version="1" changeset="1"><nd ref="5369242997" /><nd ref="5369242998" /><tag k="highway" v="service" /><tag k="oneway" v="no" /></way><way id="237" timestamp="2026-03-31T20:56:23Z" uid="1" user="OSMnx" version="1" changeset="1"><nd ref="5369242997" /><nd ref="5369242999" /><tag k="highway" v="service" /><tag k="oneway" v="no" /></way><way id="238" timestamp="2026-03-31T20:56:23Z" uid="1" user="OSMnx" version="1" changeset="1"><nd ref="5369242998" /><nd ref="5368762920" /><tag k="highway" v="unclassified" /><tag k="oneway" v="no" /></way><way id="239" timestamp="2026-03-31T20:56:23Z" uid="1" user="OSMnx" version="1" changeset="1"><nd ref="5369242998" /><nd ref="5369243044" /><tag k="highway" v="unclassified" /><tag k="oneway" v="no" /></way><way id="240" timestamp="2026-03-31T20:56:23Z" uid="1" user="OSMnx" version="1" changeset="1"><nd ref="5369242998" /><nd ref="5369242997" /><tag k="highway" v="service" /><tag k="oneway" v="no" /></way><way id="241" timestamp="2026-03-31T20:56:23Z" uid="1" user="OSMnx" version="1" changeset="1"><nd ref="5369242999" /><nd ref="5369242997" /><tag k="highway" v="service" /><tag k="oneway" v="no" /></way><way id="242" timestamp="2026-03-31T20:56:23Z" uid="1" user="OSMnx" version="1" changeset="1"><nd ref="5369243000" /><nd ref="5369243001" /><tag k="highway" v="residential" /><tag k="oneway" v="no" /></way><way id="243" timestamp="2026-03-31T20:56:23Z" uid="1" user="OSMnx" version="1" changeset="1"><nd ref="5369243000" /><nd ref="5369243003" /><tag k="highway" v="residential" /><tag k="oneway" v="no" /></way><way id="244" timestamp="2026-03-31T20:56:23Z" uid="1" user="OSMnx" version="1" changeset="1"><nd ref="5369243000" /><nd ref="5369243019" /><tag k="highway" v="residential" /><tag k="oneway" v="no" /></way><way id="245" timestamp="2026-03-31T20:56:23Z" uid="1" user="OSMnx" version="1" changeset="1"><nd ref="5369243001" /><nd ref="5369243000" /><tag k="highway" v="residential" /><tag k="oneway" v="no" /></way><way id="246" timestamp="2026-03-31T20:56:23Z" uid="1" user="OSMnx" version="1" changeset="1"><nd ref="5369243001" /><nd ref="5369243002" /><tag k="highway" v="residential" /><tag k="oneway" v="no" /></way><way id="247" timestamp="2026-03-31T20:56:23Z" uid="1" user="OSMnx" version="1" changeset="1"><nd ref="5369243002" /><nd ref="5369243001" /><tag k="highway" v="residential" /><tag k="oneway" v="no" /></way><way id="248" timestamp="2026-03-31T20:56:23Z" uid="1" user="OSMnx" version="1" changeset="1"><nd ref="5369243002" /><nd ref="5369243005" /><tag k="highway" v="residential" /><tag k="oneway" v="no" /></way><way id="249" timestamp="2026-03-31T20:56:23Z" uid="1" user="OSMnx" version="1" changeset="1"><nd ref="5369243003" /><nd ref="5369243004" /><tag k="highway" v="residential" /><tag k="oneway" v="no" /></way><way id="250" timestamp="2026-03-31T20:56:23Z" uid="1" user="OSMnx" version="1" changeset="1"><nd ref="5369243003" /><nd ref="5369243007" /><tag k="highway" v="residential" /><tag k="oneway" v="no" /></way><way id="251" timestamp="2026-03-31T20:56:23Z" uid="1" user="OSMnx" version="1" changeset="1"><nd ref="5369243003" /><nd ref="5369243000" /><tag k="highway" v="residential" /><tag k="oneway" v="no" /></way><way id="252" timestamp="2026-03-31T20:56:23Z" uid="1" user="OSMnx" version="1" changeset="1"><nd ref="5369243004" /><nd ref="5369243003" /><tag k="highway" v="residential" /><tag k="oneway" v="no" /></way><way id="253" timestamp="2026-03-31T20:56:23Z" uid="1" user="OSMnx" version="1" changeset="1"><nd ref="5369243004" /><nd ref="5369243005" /><tag k="highway" v="residential" /><tag k="oneway" v="no" /></way><way id="254" timestamp="2026-03-31T20:56:23Z" uid="1" user="OSMnx" version="1" changeset="1"><nd ref="5369243005" /><nd ref="5369243002" /><tag k="highway" v="residential" /><tag k="oneway" v="no" /></way><way id="255" timestamp="2026-03-31T20:56:23Z" uid="1" user="OSMnx" version="1" changeset="1"><nd ref="5369243005" /><nd ref="5369243004" /><tag k="highway" v="residential" /><tag k="oneway" v="no" /></way><way id="256" timestamp="2026-03-31T20:56:23Z" uid="1" user="OSMnx" version="1" changeset="1"><nd ref="5369243005" /><nd ref="5369243006" /><tag k="highway" v="residential" /><tag k="oneway" v="no" /></way><way id="257" timestamp="2026-03-31T20:56:23Z" uid="1" user="OSMnx" version="1" changeset="1"><nd ref="5369243006" /><nd ref="5369243005" /><tag k="highway" v="residential" /><tag k="oneway" v="no" /></way><way id="258" timestamp="2026-03-31T20:56:23Z" uid="1" user="OSMnx" version="1" changeset="1"><nd ref="5369243006" /><nd ref="5369243009" /><tag k="highway" v="residential" /><tag k="oneway" v="no" /></way><way id="259" timestamp="2026-03-31T20:56:23Z" uid="1" user="OSMnx" version="1" changeset="1"><nd ref="5369243007" /><nd ref="5369243008" /><tag k="highway" v="residential" /><tag k="oneway" v="no" /></way><way id="260" timestamp="2026-03-31T20:56:23Z" uid="1" user="OSMnx" version="1" changeset="1"><nd ref="5369243007" /><nd ref="5369243018" /><tag k="highway" v="residential" /><tag k="oneway" v="no" /></way><way id="261" timestamp="2026-03-31T20:56:23Z" uid="1" user="OSMnx" version="1" changeset="1"><nd ref="5369243007" /><nd ref="5369243003" /><tag k="highway" v="residential" /><tag k="oneway" v="no" /></way><way id="262" timestamp="2026-03-31T20:56:23Z" uid="1" user="OSMnx" version="1" changeset="1"><nd ref="5369243008" /><nd ref="5369243007" /><tag k="highway" v="residential" /><tag k="oneway" v="no" /></way><way id="263" timestamp="2026-03-31T20:56:23Z" uid="1" user="OSMnx" version="1" changeset="1"><nd ref="5369243008" /><nd ref="5369243009" /><tag k="highway" v="residential" /><tag k="oneway" v="no" /></way><way id="264" timestamp="2026-03-31T20:56:23Z" uid="1" user="OSMnx" version="1" changeset="1"><nd ref="5369243009" /><nd ref="5369243006" /><tag k="highway" v="residential" /><tag k="oneway" v="no" /></way><way id="265" timestamp="2026-03-31T20:56:23Z" uid="1" user="OSMnx" version="1" changeset="1"><nd ref="5369243009" /><nd ref="5369243008" /><tag k="highway" v="residential" /><tag k="oneway" v="no" /></way><way id="266" timestamp="2026-03-31T20:56:23Z" uid="1" user="OSMnx" version="1" changeset="1"><nd ref="5369243009" /><nd ref="5369243010" /><tag k="highway" v="residential" /><tag k="oneway" v="no" /></way><way id="267" timestamp="2026-03-31T20:56:23Z" uid="1" user="OSMnx" version="1" changeset="1"><nd ref="5369243010" /><nd ref="5369243009" /><tag k="highway" v="residential" /><tag k="oneway" v="no" /></way><way id="268" timestamp="2026-03-31T20:56:23Z" uid="1" user="OSMnx" version="1" changeset="1"><nd ref="5369243010" /><nd ref="5369243011" /><tag k="highway" v="residential" /><tag k="oneway" v="no" /></way><way id="269" timestamp="2026-03-31T20:56:23Z" uid="1" user="OSMnx" version="1" changeset="1"><nd ref="5369243010" /><nd ref="5369243013" /><tag k="highway" v="residential" /><tag k="oneway" v="no" /></way><way id="270" timestamp="2026-03-31T20:56:23Z" uid="1" user="OSMnx" version="1" changeset="1"><nd ref="5369243011" /><nd ref="5369243010" /><tag k="highway" v="residential" /><tag k="oneway" v="no" /></way><way id="271" timestamp="2026-03-31T20:56:23Z" uid="1" user="OSMnx" version="1" changeset="1"><nd ref="5369243011" /><nd ref="5369243012" /><tag k="highway" v="residential" /><tag k="oneway" v="no" /></way><way id="272" timestamp="2026-03-31T20:56:23Z" uid="1" user="OSMnx" version="1" changeset="1"><nd ref="5369243012" /><nd ref="5369137335" /><tag k="highway" v="tertiary" /><tag k="oneway" v="no" /></way><way id="273" timestamp="2026-03-31T20:56:23Z" uid="1" user="OSMnx" version="1" changeset="1"><nd ref="5369243012" /><nd ref="5368763097" /><tag k="highway" v="tertiary" /><tag k="oneway" v="no" /></way><way id="274" timestamp="2026-03-31T20:56:23Z" uid="1" user="OSMnx" version="1" changeset="1"><nd ref="5369243012" /><nd ref="5369243011" /><tag k="highway" v="residential" /><tag k="oneway" v="no" /></way><way id="275" timestamp="2026-03-31T20:56:23Z" uid="1" user="OSMnx" version="1" changeset="1"><nd ref="5369243013" /><nd ref="5369243010" /><tag k="highway" v="residential" /><tag k="oneway" v="no" /></way><way id="276" timestamp="2026-03-31T20:56:23Z" uid="1" user="OSMnx" version="1" changeset="1"><nd ref="5369243013" /><nd ref="5369243014" /><tag k="highway" v="residential" /><tag k="oneway" v="no" /></way><way id="277" timestamp="2026-03-31T20:56:23Z" uid="1" user="OSMnx" version="1" changeset="1"><nd ref="5369243014" /><nd ref="5369243013" /><tag k="highway" v="residential" /><tag k="oneway" v="no" /></way><way id="278" timestamp="2026-03-31T20:56:23Z" uid="1" user="OSMnx" version="1" changeset="1"><nd ref="5369243014" /><nd ref="5369243015" /><tag k="highway" v="residential" /><tag k="oneway" v="no" /></way><way id="279" timestamp="2026-03-31T20:56:23Z" uid="1" user="OSMnx" version="1" changeset="1"><nd ref="5369243015" /><nd ref="5369243014" /><tag k="highway" v="residential" /><tag k="oneway" v="no" /></way><way id="280" timestamp="2026-03-31T20:56:23Z" uid="1" user="OSMnx" version="1" changeset="1"><nd ref="5369243015" /><nd ref="5369243016" /><tag k="highway" v="residential" /><tag k="oneway" v="no" /></way><way id="281" timestamp="2026-03-31T20:56:23Z" uid="1" user="OSMnx" version="1" changeset="1"><nd ref="5369243016" /><nd ref="5369243015" /><tag k="highway" v="residential" /><tag k="oneway" v="no" /></way><way id="282" timestamp="2026-03-31T20:56:23Z" uid="1" user="OSMnx" version="1" changeset="1"><nd ref="5369243016" /><nd ref="5369243017" /><tag k="highway" v="residential" /><tag k="oneway" v="no" /></way><way id="283" timestamp="2026-03-31T20:56:23Z" uid="1" user="OSMnx" version="1" changeset="1"><nd ref="5369243017" /><nd ref="5369243016" /><tag k="highway" v="residential" /><tag k="oneway" v="no" /></way><way id="284" timestamp="2026-03-31T20:56:23Z" uid="1" user="OSMnx" version="1" changeset="1"><nd ref="5369243017" /><nd ref="5369243018" /><tag k="highway" v="residential" /><tag k="oneway" v="no" /></way><way id="285" timestamp="2026-03-31T20:56:23Z" uid="1" user="OSMnx" version="1" changeset="1"><nd ref="5369243018" /><nd ref="5369243017" /><tag k="highway" v="residential" /><tag k="oneway" v="no" /></way><way id="286" timestamp="2026-03-31T20:56:23Z" uid="1" user="OSMnx" version="1" changeset="1"><nd ref="5369243018" /><nd ref="5369243007" /><tag k="highway" v="residential" /><tag k="oneway" v="no" /></way><way id="287" timestamp="2026-03-31T20:56:23Z" uid="1" user="OSMnx" version="1" changeset="1"><nd ref="5369243019" /><nd ref="5369243000" /><tag k="highway" v="residential" /><tag k="oneway" v="no" /></way><way id="288" timestamp="2026-03-31T20:56:23Z" uid="1" user="OSMnx" version="1" changeset="1"><nd ref="5369243021" /><nd ref="5369242975" /><tag k="highway" v="unclassified" /><tag k="oneway" v="no" /></way><way id="289" timestamp="2026-03-31T20:56:23Z" uid="1" user="OSMnx" version="1" changeset="1"><nd ref="5369243021" /><nd ref="5369242972" /><tag k="highway" v="unclassified" /><tag k="oneway" v="no" /></way><way id="290" timestamp="2026-03-31T20:56:23Z" uid="1" user="OSMnx" version="1" changeset="1"><nd ref="5369243022" /><nd ref="5369242972" /><tag k="highway" v="unclassified" /><tag k="oneway" v="no" /></way><way id="291" timestamp="2026-03-31T20:56:23Z" uid="1" user="OSMnx" version="1" changeset="1"><nd ref="5369243022" /><nd ref="5369243023" /><tag k="highway" v="unclassified" /><tag k="oneway" v="no" /></way><way id="292" timestamp="2026-03-31T20:56:23Z" uid="1" user="OSMnx" version="1" changeset="1"><nd ref="5369243023" /><nd ref="5369243022" /><tag k="highway" v="unclassified" /><tag k="oneway" v="no" /></way><way id="293" timestamp="2026-03-31T20:56:23Z" uid="1" user="OSMnx" version="1" changeset="1"><nd ref="5369243023" /><nd ref="5369243032" /><tag k="highway" v="unclassified" /><tag k="oneway" v="no" /></way><way id="294" timestamp="2026-03-31T20:56:23Z" uid="1" user="OSMnx" version="1" changeset="1"><nd ref="5369243024" /><nd ref="5369243032" /><tag k="highway" v="unclassified" /><tag k="oneway" v="no" /></way><way id="295" timestamp="2026-03-31T20:56:23Z" uid="1" user="OSMnx" version="1" changeset="1"><nd ref="5369243024" /><nd ref="5369243025" /><tag k="highway" v="unclassified" /><tag k="oneway" v="no" /></way><way id="296" timestamp="2026-03-31T20:56:23Z" uid="1" user="OSMnx" version="1" changeset="1"><nd ref="5369243025" /><nd ref="5369243024" /><tag k="highway" v="unclassified" /><tag k="oneway" v="no" /></way><way id="297" timestamp="2026-03-31T20:56:23Z" uid="1" user="OSMnx" version="1" changeset="1"><nd ref="5369243025" /><nd ref="5369243026" /><tag k="highway" v="unclassified" /><tag k="oneway" v="no" /></way><way id="298" timestamp="2026-03-31T20:56:23Z" uid="1" user="OSMnx" version="1" changeset="1"><nd ref="5369243026" /><nd ref="5369243025" /><tag k="highway" v="unclassified" /><tag k="oneway" v="no" /></way><way id="299" timestamp="2026-03-31T20:56:23Z" uid="1" user="OSMnx" version="1" changeset="1"><nd ref="5369243026" /><nd ref="5369243027" /><tag k="highway" v="unclassified" /><tag k="oneway" v="no" /></way><way id="300" timestamp="2026-03-31T20:56:23Z" uid="1" user="OSMnx" version="1" changeset="1"><nd ref="5369243027" /><nd ref="5369243026" /><tag k="highway" v="unclassified" /><tag k="oneway" v="no" /></way><way id="301" timestamp="2026-03-31T20:56:23Z" uid="1" user="OSMnx" version="1" changeset="1"><nd ref="5369243027" /><nd ref="5369242239" /><tag k="highway" v="unclassified" /><tag k="oneway" v="no" /></way><way id="302" timestamp="2026-03-31T20:56:23Z" uid="1" user="OSMnx" version="1" changeset="1"><nd ref="5369243028" /><nd ref="5369242239" /><tag k="highway" v="unclassified" /><tag k="oneway" v="no" /></way><way id="303" timestamp="2026-03-31T20:56:23Z" uid="1" user="OSMnx" version="1" changeset="1"><nd ref="5369243028" /><nd ref="5369243029" /><tag k="highway" v="unclassified" /><tag k="oneway" v="no" /></way><way id="304" timestamp="2026-03-31T20:56:23Z" uid="1" user="OSMnx" version="1" changeset="1"><nd ref="5369243029" /><nd ref="5369243028" /><tag k="highway" v="unclassified" /><tag k="oneway" v="no" /></way><way id="305" timestamp="2026-03-31T20:56:23Z" uid="1" user="OSMnx" version="1" changeset="1"><nd ref="5369243029" /><nd ref="5369243030" /><tag k="highway" v="unclassified" /><tag k="oneway" v="no" /></way><way id="306" timestamp="2026-03-31T20:56:23Z" uid="1" user="OSMnx" version="1" changeset="1"><nd ref="5369243030" /><nd ref="5369243029" /><tag k="highway" v="unclassified" /><tag k="oneway" v="no" /></way><way id="307" timestamp="2026-03-31T20:56:23Z" uid="1" user="OSMnx" version="1" changeset="1"><nd ref="5369243030" /><nd ref="5369243031" /><tag k="highway" v="unclassified" /><tag k="oneway" v="no" /></way><way id="308" timestamp="2026-03-31T20:56:23Z" uid="1" user="OSMnx" version="1" changeset="1"><nd ref="5369243031" /><nd ref="5368763099" /><tag k="highway" v="tertiary" /><tag k="name" v="新四线" /><tag k="oneway" v="no" /></way><way id="309" timestamp="2026-03-31T20:56:23Z" uid="1" user="OSMnx" version="1" changeset="1"><nd ref="5369243031" /><nd ref="5369243038" /><tag k="highway" v="tertiary" /><tag k="name" v="新四线" /><tag k="oneway" v="no" /></way><way id="310" timestamp="2026-03-31T20:56:23Z" uid="1" user="OSMnx" version="1" changeset="1"><nd ref="5369243031" /><nd ref="5369243030" /><tag k="highway" v="unclassified" /><tag k="oneway" v="no" /></way><way id="311" timestamp="2026-03-31T20:56:23Z" uid="1" user="OSMnx" version="1" changeset="1"><nd ref="5369243032" /><nd ref="5369243023" /><tag k="highway" v="unclassified" /><tag k="oneway" v="no" /></way><way id="312" timestamp="2026-03-31T20:56:23Z" uid="1" user="OSMnx" version="1" changeset="1"><nd ref="5369243032" /><nd ref="5369243024" /><tag k="highway" v="unclassified" /><tag k="oneway" v="no" /></way><way id="313" timestamp="2026-03-31T20:56:23Z" uid="1" user="OSMnx" version="1" changeset="1"><nd ref="5369243032" /><nd ref="5369243033" /><tag k="highway" v="residential" /><tag k="oneway" v="no" /></way><way id="314" timestamp="2026-03-31T20:56:23Z" uid="1" user="OSMnx" version="1" changeset="1"><nd ref="5369243033" /><nd ref="5369243032" /><tag k="highway" v="residential" /><tag k="oneway" v="no" /></way><way id="315" timestamp="2026-03-31T20:56:23Z" uid="1" user="OSMnx" version="1" changeset="1"><nd ref="5369243033" /><nd ref="5369243034" /><tag k="highway" v="residential" /><tag k="oneway" v="no" /></way><way id="316" timestamp="2026-03-31T20:56:23Z" uid="1" user="OSMnx" version="1" changeset="1"><nd ref="5369243034" /><nd ref="5369243033" /><tag k="highway" v="residential" /><tag k="oneway" v="no" /></way><way id="317" timestamp="2026-03-31T20:56:23Z" uid="1" user="OSMnx" version="1" changeset="1"><nd ref="5369243034" /><nd ref="5369243035" /><tag k="highway" v="residential" /><tag k="oneway" v="no" /></way><way id="318" timestamp="2026-03-31T20:56:23Z" uid="1" user="OSMnx" version="1" changeset="1"><nd ref="5369243035" /><nd ref="5369243034" /><tag k="highway" v="residential" /><tag k="oneway" v="no" /></way><way id="319" timestamp="2026-03-31T20:56:23Z" uid="1" user="OSMnx" version="1" changeset="1"><nd ref="5369243035" /><nd ref="5369243036" /><tag k="highway" v="residential" /><tag k="oneway" v="no" /></way><way id="320" timestamp="2026-03-31T20:56:23Z" uid="1" user="OSMnx" version="1" changeset="1"><nd ref="5369243036" /><nd ref="5369243035" /><tag k="highway" v="residential" /><tag k="oneway" v="no" /></way><way id="321" timestamp="2026-03-31T20:56:23Z" uid="1" user="OSMnx" version="1" changeset="1"><nd ref="5369243036" /><nd ref="5369242241" /><tag k="highway" v="residential" /><tag k="oneway" v="no" /></way><way id="322" timestamp="2026-03-31T20:56:23Z" uid="1" user="OSMnx" version="1" changeset="1"><nd ref="5369243037" /><nd ref="5369242241" /><tag k="highway" v="residential" /><tag k="oneway" v="no" /></way><way id="323" timestamp="2026-03-31T20:56:23Z" uid="1" user="OSMnx" version="1" changeset="1"><nd ref="5369243037" /><nd ref="5369243038" /><tag k="highway" v="residential" /><tag k="oneway" v="no" /></way><way id="324" timestamp="2026-03-31T20:56:23Z" uid="1" user="OSMnx" version="1" changeset="1"><nd ref="5369243038" /><nd ref="5369243031" /><tag k="highway" v="tertiary" /><tag k="name" v="新四线" /><tag k="oneway" v="no" /></way><way id="325" timestamp="2026-03-31T20:56:23Z" uid="1" user="OSMnx" version="1" changeset="1"><nd ref="5369243038" /><nd ref="5369243040" /><tag k="highway" v="tertiary" /><tag k="name" v="新四线" /><tag k="oneway" v="no" /></way><way id="326" timestamp="2026-03-31T20:56:23Z" uid="1" user="OSMnx" version="1" changeset="1"><nd ref="5369243038" /><nd ref="5369243037" /><tag k="highway" v="residential" /><tag k="oneway" v="no" /></way><way id="327" timestamp="2026-03-31T20:56:23Z" uid="1" user="OSMnx" version="1" changeset="1"><nd ref="5369243039" /><nd ref="5369242242" /><tag k="highway" v="unclassified" /><tag k="oneway" v="no" /></way><way id="328" timestamp="2026-03-31T20:56:23Z" uid="1" user="OSMnx" version="1" changeset="1"><nd ref="5369243039" /><nd ref="5369242243" /><tag k="highway" v="unclassified" /><tag k="oneway" v="no" /></way><way id="329" timestamp="2026-03-31T20:56:23Z" uid="1" user="OSMnx" version="1" changeset="1"><nd ref="5369243039" /><nd ref="5369243040" /><tag k="highway" v="residential" /><tag k="oneway" v="no" /></way><way id="330" timestamp="2026-03-31T20:56:23Z" uid="1" user="OSMnx" version="1" changeset="1"><nd ref="5369243040" /><nd ref="5369243038" /><tag k="highway" v="tertiary" /><tag k="name" v="新四线" /><tag k="oneway" v="no" /></way><way id="331" timestamp="2026-03-31T20:56:23Z" uid="1" user="OSMnx" version="1" changeset="1"><nd ref="5369243040" /><nd ref="5369243039" /><tag k="highway" v="residential" /><tag k="oneway" v="no" /></way><way id="332" timestamp="2026-03-31T20:56:23Z" uid="1" user="OSMnx" version="1" changeset="1"><nd ref="5369243044" /><nd ref="5369242998" /><tag k="highway" v="unclassified" /><tag k="oneway" v="no" /></way><way id="333" timestamp="2026-03-31T20:56:23Z" uid="1" user="OSMnx" version="1" changeset="1"><nd ref="5369243044" /><nd ref="5368763091" /><tag k="highway" v="unclassified" /><tag k="oneway" v="no" /></way><way id="334" timestamp="2026-03-31T20:56:23Z" uid="1" user="OSMnx" version="1" changeset="1"><nd ref="5369243044" /><nd ref="5369243045" /><tag k="highway" v="service" /><tag k="oneway" v="no" /></way><way id="335" timestamp="2026-03-31T20:56:23Z" uid="1" user="OSMnx" version="1" changeset="1"><nd ref="5369243045" /><nd ref="5369243044" /><tag k="highway" v="service" /><tag k="oneway" v="no" /></way><way id="336" timestamp="2026-03-31T20:56:23Z" uid="1" user="OSMnx" version="1" changeset="1"><nd ref="5369243045" /><nd ref="5369243046" /><tag k="highway" v="service" /><tag k="oneway" v="no" /></way><way id="337" timestamp="2026-03-31T20:56:23Z" uid="1" user="OSMnx" version="1" changeset="1"><nd ref="5369243046" /><nd ref="5369138105" /><tag k="highway" v="tertiary" /><tag k="oneway" v="no" /></way><way id="338" timestamp="2026-03-31T20:56:23Z" uid="1" user="OSMnx" version="1" changeset="1"><nd ref="5369243046" /><nd ref="5368763091" /><tag k="highway" v="tertiary" /><tag k="oneway" v="no" /></way><way id="339" timestamp="2026-03-31T20:56:23Z" uid="1" user="OSMnx" version="1" changeset="1"><nd ref="5369243046" /><nd ref="5369243045" /><tag k="highway" v="service" /><tag k="oneway" v="no" /></way><way id="340" timestamp="2026-03-31T20:56:23Z" uid="1" user="OSMnx" version="1" changeset="1"><nd ref="5369243047" /><nd ref="5369243048" /><tag k="highway" v="service" /><tag k="oneway" v="no" /></way><way id="341" timestamp="2026-03-31T20:56:23Z" uid="1" user="OSMnx" version="1" changeset="1"><nd ref="5369243048" /><nd ref="5368763090" /><tag k="highway" v="tertiary" /><tag k="oneway" v="no" /></way><way id="342" timestamp="2026-03-31T20:56:23Z" uid="1" user="OSMnx" version="1" changeset="1"><nd ref="5369243048" /><nd ref="5369138105" /><tag k="highway" v="tertiary" /><tag k="oneway" v="no" /></way><way id="343" timestamp="2026-03-31T20:56:23Z" uid="1" user="OSMnx" version="1" changeset="1"><nd ref="5369243048" /><nd ref="5369243047" /><tag k="highway" v="service" /><tag k="oneway" v="no" /></way><way id="344" timestamp="2026-03-31T20:56:23Z" uid="1" user="OSMnx" version="1" changeset="1"><nd ref="5369351760" /><nd ref="5368762714" /><tag k="highway" v="unclassified" /><tag k="oneway" v="no" /></way><way id="345" timestamp="2026-03-31T20:56:23Z" uid="1" user="OSMnx" version="1" changeset="1"><nd ref="5369351760" /><nd ref="5369351762" /><tag k="highway" v="unclassified" /><tag k="oneway" v="no" /></way><way id="346" timestamp="2026-03-31T20:56:23Z" uid="1" user="OSMnx" version="1" changeset="1"><nd ref="5369351760" /><nd ref="5369351761" /><tag k="highway" v="service" /><tag k="oneway" v="no" /></way><way id="347" timestamp="2026-03-31T20:56:23Z" uid="1" user="OSMnx" version="1" changeset="1"><nd ref="5369351761" /><nd ref="5368762715" /><tag k="highway" v="residential" /><tag k="oneway" v="no" /></way><way id="348" timestamp="2026-03-31T20:56:23Z" uid="1" user="OSMnx" version="1" changeset="1"><nd ref="5369351761" /><nd ref="5369351763" /><tag k="highway" v="residential" /><tag k="oneway" v="no" /></way><way id="349" timestamp="2026-03-31T20:56:23Z" uid="1" user="OSMnx" version="1" changeset="1"><nd ref="5369351761" /><nd ref="5369351760" /><tag k="highway" v="service" /><tag k="oneway" v="no" /></way><way id="350" timestamp="2026-03-31T20:56:23Z" uid="1" user="OSMnx" version="1" changeset="1"><nd ref="5369351762" /><nd ref="5369351760" /><tag k="highway" v="unclassified" /><tag k="oneway" v="no" /></way><way id="351" timestamp="2026-03-31T20:56:23Z" uid="1" user="OSMnx" version="1" changeset="1"><nd ref="5369351762" /><nd ref="5369351764" /><tag k="highway" v="unclassified" /><tag k="oneway" v="no" /></way><way id="352" timestamp="2026-03-31T20:56:23Z" uid="1" user="OSMnx" version="1" changeset="1"><nd ref="5369351762" /><nd ref="5369351763" /><tag k="highway" v="service" /><tag k="oneway" v="no" /></way><way id="353" timestamp="2026-03-31T20:56:23Z" uid="1" user="OSMnx" version="1" changeset="1"><nd ref="5369351763" /><nd ref="5369351761" /><tag k="highway" v="residential" /><tag k="oneway" v="no" /></way><way id="354" timestamp="2026-03-31T20:56:23Z" uid="1" user="OSMnx" version="1" changeset="1"><nd ref="5369351763" /><nd ref="5369351765" /><tag k="highway" v="residential" /><tag k="oneway" v="no" /></way><way id="355" timestamp="2026-03-31T20:56:23Z" uid="1" user="OSMnx" version="1" changeset="1"><nd ref="5369351763" /><nd ref="5369351762" /><tag k="highway" v="service" /><tag k="oneway" v="no" /></way><way id="356" timestamp="2026-03-31T20:56:23Z" uid="1" user="OSMnx" version="1" changeset="1"><nd ref="5369351764" /><nd ref="5369351762" /><tag k="highway" v="unclassified" /><tag k="oneway" v="no" /></way><way id="357" timestamp="2026-03-31T20:56:23Z" uid="1" user="OSMnx" version="1" changeset="1"><nd ref="5369351764" /><nd ref="5368762913" /><tag k="highway" v="unclassified" /><tag k="oneway" v="no" /></way><way id="358" timestamp="2026-03-31T20:56:23Z" uid="1" user="OSMnx" version="1" changeset="1"><nd ref="5369351764" /><nd ref="5369351765" /><tag k="highway" v="service" /><tag k="oneway" v="no" /></way><way id="359" timestamp="2026-03-31T20:56:23Z" uid="1" user="OSMnx" version="1" changeset="1"><nd ref="5369351765" /><nd ref="5369351763" /><tag k="highway" v="residential" /><tag k="oneway" v="no" /></way><way id="360" timestamp="2026-03-31T20:56:23Z" uid="1" user="OSMnx" version="1" changeset="1"><nd ref="5369351765" /><nd ref="5369242954" /><tag k="highway" v="residential" /><tag k="oneway" v="no" /></way><way id="361" timestamp="2026-03-31T20:56:23Z" uid="1" user="OSMnx" version="1" changeset="1"><nd ref="5369351765" /><nd ref="5369351764" /><tag k="highway" v="service" /><tag k="oneway" v="no" /></way><way id="362" timestamp="2026-03-31T20:56:23Z" uid="1" user="OSMnx" version="1" changeset="1"><nd ref="5369351771" /><nd ref="5369242968" /><tag k="highway" v="unclassified" /><tag k="oneway" v="no" /></way><way id="363" timestamp="2026-03-31T20:56:23Z" uid="1" user="OSMnx" version="1" changeset="1"><nd ref="5369351771" /><nd ref="5368762716" /><tag k="highway" v="unclassified" /><tag k="oneway" v="no" /></way><way id="364" timestamp="2026-03-31T20:56:23Z" uid="1" user="OSMnx" version="1" changeset="1"><nd ref="7819027128" /><nd ref="5369242247" /><tag k="highway" v="unclassified" /><tag k="oneway" v="no" /></way><way id="365" timestamp="2026-03-31T20:56:23Z" uid="1" user="OSMnx" version="1" changeset="1"><nd ref="7819027128" /><nd ref="5369242248" /><tag k="highway" v="unclassified" /><tag k="oneway" v="no" /></way></osm>